{"type":"FeatureCollection","metadane":{"nazwa":"Indeks powietrza z czujników paczkomatów InPost – Kraków i obwarzanek","znaczenie":"Publiczne API punktów InPost (ShipX Points), pole air_index_level – indeks z czujnika wbudowanego w część paczkomatów. Dane prywatnego operatora, nie rejestr publiczny; InPost nie publikuje metodyki ani kalibracji czujników. Migawka z chwili pobrania, nie średnia roczna.","zrodlo":"https://api-shipx-pl.easypack24.net/v1/points","pobrano":"2026-10-03","przetworzono":"Województwo małopolskie, przycięte do prostokąta adresów projektu (+ ok. 2 km); tylko punkty z polem air_index_level.","liczbaCzujnikow":186},"features":[{"type":"Feature","id":"BAT01M","geometry":{"type":"Point","coordinates":[20.01534,50.11113]},"properties":{"poziom":"VERY_GOOD","wartosc":1,"nazwa":"bardzo dobry"}},{"type":"Feature","id":"BDA01BAPP","geometry":{"type":"Point","coordinates":[20.14861,49.98729]},"properties":{"poziom":"VERY_GOOD","wartosc":1,"nazwa":"bardzo dobry"}},{"type":"Feature","id":"BRZY01APP","geometry":{"type":"Point","coordinates":[19.86448,49.97011]},"properties":{"poziom":"GOOD","wartosc":2,"nazwa":"dobry"}},{"type":"Feature","id":"BRZZ01BAPP","geometry":{"type":"Point","coordinates":[19.82025,50.12345]},"properties":{"poziom":"VERY_GOOD","wartosc":1,"nazwa":"bardzo dobry"}},{"type":"Feature","id":"BZEZ01BAPP","geometry":{"type":"Point","coordinates":[19.63547,49.96206]},"properties":{"poziom":"GOOD","wartosc":2,"nazwa":"dobry"}},{"type":"Feature","id":"BZR01M","geometry":{"type":"Point","coordinates":[19.85636,49.87341]},"properties":{"poziom":"VERY_GOOD","wartosc":1,"nazwa":"bardzo dobry"}},{"type":"Feature","id":"CRC01BAPP","geometry":{"type":"Point","coordinates":[19.68934,49.99175]},"properties":{"poziom":"VERY_GOOD","wartosc":1,"nazwa":"bardzo dobry"}},{"type":"Feature","id":"CRX01BAPP","geometry":{"type":"Point","coordinates":[19.80002,50.05838]},"properties":{"poziom":"VERY_GOOD","wartosc":1,"nazwa":"bardzo dobry"}},{"type":"Feature","id":"CZEH01BAPP","geometry":{"type":"Point","coordinates":[20.00563,49.89606]},"properties":{"poziom":"VERY_GOOD","wartosc":1,"nazwa":"bardzo dobry"}},{"type":"Feature","id":"CZUL01BAPP","geometry":{"type":"Point","coordinates":[20.18724,50.12776]},"properties":{"poziom":"VERY_GOOD","wartosc":1,"nazwa":"bardzo dobry"}},{"type":"Feature","id":"DOB01BAPP","geometry":{"type":"Point","coordinates":[20.10335,49.88634]},"properties":{"poziom":"VERY_GOOD","wartosc":1,"nazwa":"bardzo dobry"}},{"type":"Feature","id":"GBX01BAPP","geometry":{"type":"Point","coordinates":[20.13392,50.04006]},"properties":{"poziom":"VERY_GOOD","wartosc":1,"nazwa":"bardzo dobry"}},{"type":"Feature","id":"GDW01BAPP","geometry":{"type":"Point","coordinates":[20.21048,49.90233]},"properties":{"poziom":"VERY_GOOD","wartosc":1,"nazwa":"bardzo dobry"}},{"type":"Feature","id":"GIR01BAPP","geometry":{"type":"Point","coordinates":[20.34288,49.95077]},"properties":{"poziom":"VERY_GOOD","wartosc":1,"nazwa":"bardzo dobry"}},{"type":"Feature","id":"GJW01BAPP","geometry":{"type":"Point","coordinates":[20.09109,49.94392]},"properties":{"poziom":"VERY_GOOD","wartosc":1,"nazwa":"bardzo dobry"}},{"type":"Feature","id":"KARN01BAPP","geometry":{"type":"Point","coordinates":[20.16815,50.13323]},"properties":{"poziom":"VERY_GOOD","wartosc":1,"nazwa":"bardzo dobry"}},{"type":"Feature","id":"KIU01BAPP","geometry":{"type":"Point","coordinates":[20.22145,50.18551]},"properties":{"poziom":"VERY_GOOD","wartosc":1,"nazwa":"bardzo dobry"}},{"type":"Feature","id":"KRA01APP","geometry":{"type":"Point","coordinates":[19.94573,49.99077]},"properties":{"poziom":"VERY_GOOD","wartosc":1,"nazwa":"bardzo dobry"}},{"type":"Feature","id":"KRA01BAPP","geometry":{"type":"Point","coordinates":[19.94079,50.07126]},"properties":{"poziom":"VERY_GOOD","wartosc":1,"nazwa":"bardzo dobry"}},{"type":"Feature","id":"KRA02APP","geometry":{"type":"Point","coordinates":[19.87325,50.00919]},"properties":{"poziom":"VERY_GOOD","wartosc":1,"nazwa":"bardzo dobry"}},{"type":"Feature","id":"KRA02BAPP","geometry":{"type":"Point","coordinates":[20.14615,50.08777]},"properties":{"poziom":"GOOD","wartosc":2,"nazwa":"dobry"}},{"type":"Feature","id":"KRA02BM","geometry":{"type":"Point","coordinates":[20.03035,50.08301]},"properties":{"poziom":"VERY_GOOD","wartosc":1,"nazwa":"bardzo dobry"}},{"type":"Feature","id":"KRA03APP","geometry":{"type":"Point","coordinates":[20.021,50.01237]},"properties":{"poziom":"VERY_GOOD","wartosc":1,"nazwa":"bardzo dobry"}},{"type":"Feature","id":"KRA03BAPP","geometry":{"type":"Point","coordinates":[20.01908,50.06453]},"properties":{"poziom":"GOOD","wartosc":2,"nazwa":"dobry"}},{"type":"Feature","id":"KRA04APP","geometry":{"type":"Point","coordinates":[20.01582,50.02005]},"properties":{"poziom":"VERY_GOOD","wartosc":1,"nazwa":"bardzo dobry"}},{"type":"Feature","id":"KRA04BAPP","geometry":{"type":"Point","coordinates":[20.01235,50.06854]},"properties":{"poziom":"GOOD","wartosc":2,"nazwa":"dobry"}},{"type":"Feature","id":"KRA04BM","geometry":{"type":"Point","coordinates":[20.02516,50.08721]},"properties":{"poziom":"VERY_GOOD","wartosc":1,"nazwa":"bardzo dobry"}},{"type":"Feature","id":"KRA05APP","geometry":{"type":"Point","coordinates":[19.98085,50.07237]},"properties":{"poziom":"VERY_GOOD","wartosc":1,"nazwa":"bardzo dobry"}},{"type":"Feature","id":"KRA05BAPP","geometry":{"type":"Point","coordinates":[19.88645,49.98339]},"properties":{"poziom":"VERY_GOOD","wartosc":1,"nazwa":"bardzo dobry"}},{"type":"Feature","id":"KRA06APP","geometry":{"type":"Point","coordinates":[19.92932,50.07371]},"properties":{"poziom":"VERY_GOOD","wartosc":1,"nazwa":"bardzo dobry"}},{"type":"Feature","id":"KRA06BAPP","geometry":{"type":"Point","coordinates":[19.94784,50.0125]},"properties":{"poziom":"VERY_GOOD","wartosc":1,"nazwa":"bardzo dobry"}},{"type":"Feature","id":"KRA07APP","geometry":{"type":"Point","coordinates":[19.89138,50.0215]},"properties":{"poziom":"VERY_GOOD","wartosc":1,"nazwa":"bardzo dobry"}},{"type":"Feature","id":"KRA07BAPP","geometry":{"type":"Point","coordinates":[19.9053,50.07227]},"properties":{"poziom":"GOOD","wartosc":2,"nazwa":"dobry"}},{"type":"Feature","id":"KRA08BAPP","geometry":{"type":"Point","coordinates":[20.02769,50.06655]},"properties":{"poziom":"VERY_GOOD","wartosc":1,"nazwa":"bardzo dobry"}},{"type":"Feature","id":"KRA09APP","geometry":{"type":"Point","coordinates":[19.9747,50.03423]},"properties":{"poziom":"VERY_GOOD","wartosc":1,"nazwa":"bardzo dobry"}},{"type":"Feature","id":"KRA09BAPP","geometry":{"type":"Point","coordinates":[19.94822,50.00983]},"properties":{"poziom":"GOOD","wartosc":2,"nazwa":"dobry"}},{"type":"Feature","id":"KRA10BAPP","geometry":{"type":"Point","coordinates":[19.98922,50.07495]},"properties":{"poziom":"VERY_GOOD","wartosc":1,"nazwa":"bardzo dobry"}},{"type":"Feature","id":"KRA11BAPP","geometry":{"type":"Point","coordinates":[20.01473,50.0801]},"properties":{"poziom":"GOOD","wartosc":2,"nazwa":"dobry"}},{"type":"Feature","id":"KRA12BAPP","geometry":{"type":"Point","coordinates":[19.89508,50.08042]},"properties":{"poziom":"GOOD","wartosc":2,"nazwa":"dobry"}},{"type":"Feature","id":"KRA130M","geometry":{"type":"Point","coordinates":[19.94624,50.07142]},"properties":{"poziom":"VERY_GOOD","wartosc":1,"nazwa":"bardzo dobry"}},{"type":"Feature","id":"KRA131M","geometry":{"type":"Point","coordinates":[19.9498,50.06746]},"properties":{"poziom":"VERY_GOOD","wartosc":1,"nazwa":"bardzo dobry"}},{"type":"Feature","id":"KRA13APP","geometry":{"type":"Point","coordinates":[19.97291,50.06186]},"properties":{"poziom":"VERY_GOOD","wartosc":1,"nazwa":"bardzo dobry"}},{"type":"Feature","id":"KRA14APP","geometry":{"type":"Point","coordinates":[19.91707,50.05469]},"properties":{"poziom":"BAD","wartosc":5,"nazwa":"zły"}},{"type":"Feature","id":"KRA14BAPP","geometry":{"type":"Point","coordinates":[19.97442,50.01455]},"properties":{"poziom":"VERY_GOOD","wartosc":1,"nazwa":"bardzo dobry"}},{"type":"Feature","id":"KRA152M","geometry":{"type":"Point","coordinates":[19.94487,50.06923]},"properties":{"poziom":"VERY_GOOD","wartosc":1,"nazwa":"bardzo dobry"}},{"type":"Feature","id":"KRA154M","geometry":{"type":"Point","coordinates":[19.95072,50.05203]},"properties":{"poziom":"VERY_GOOD","wartosc":1,"nazwa":"bardzo dobry"}},{"type":"Feature","id":"KRA15M","geometry":{"type":"Point","coordinates":[20.05194,50.06943]},"properties":{"poziom":"VERY_GOOD","wartosc":1,"nazwa":"bardzo dobry"}},{"type":"Feature","id":"KRA165M","geometry":{"type":"Point","coordinates":[19.9361,50.0435]},"properties":{"poziom":"GOOD","wartosc":2,"nazwa":"dobry"}},{"type":"Feature","id":"KRA16APP","geometry":{"type":"Point","coordinates":[19.90302,50.0841]},"properties":{"poziom":"GOOD","wartosc":2,"nazwa":"dobry"}},{"type":"Feature","id":"KRA16BAPP","geometry":{"type":"Point","coordinates":[20.01603,50.09442]},"properties":{"poziom":"VERY_GOOD","wartosc":1,"nazwa":"bardzo dobry"}},{"type":"Feature","id":"KRA171M","geometry":{"type":"Point","coordinates":[19.96488,50.06752]},"properties":{"poziom":"VERY_GOOD","wartosc":1,"nazwa":"bardzo dobry"}},{"type":"Feature","id":"KRA17APP","geometry":{"type":"Point","coordinates":[19.92918,50.04539]},"properties":{"poziom":"GOOD","wartosc":2,"nazwa":"dobry"}},{"type":"Feature","id":"KRA17BAPP","geometry":{"type":"Point","coordinates":[19.88787,50.08098]},"properties":{"poziom":"VERY_GOOD","wartosc":1,"nazwa":"bardzo dobry"}},{"type":"Feature","id":"KRA186M","geometry":{"type":"Point","coordinates":[19.93879,50.03908]},"properties":{"poziom":"VERY_GOOD","wartosc":1,"nazwa":"bardzo dobry"}},{"type":"Feature","id":"KRA18APP","geometry":{"type":"Point","coordinates":[19.92604,50.04334]},"properties":{"poziom":"VERY_GOOD","wartosc":1,"nazwa":"bardzo dobry"}},{"type":"Feature","id":"KRA18BAPP","geometry":{"type":"Point","coordinates":[20.20175,50.0556]},"properties":{"poziom":"GOOD","wartosc":2,"nazwa":"dobry"}},{"type":"Feature","id":"KRA20BAPP","geometry":{"type":"Point","coordinates":[19.92675,50.08579]},"properties":{"poziom":"VERY_GOOD","wartosc":1,"nazwa":"bardzo dobry"}},{"type":"Feature","id":"KRA210M","geometry":{"type":"Point","coordinates":[19.93346,50.0942]},"properties":{"poziom":"VERY_GOOD","wartosc":1,"nazwa":"bardzo dobry"}},{"type":"Feature","id":"KRA21BAPP","geometry":{"type":"Point","coordinates":[19.92029,50.01372]},"properties":{"poziom":"VERY_GOOD","wartosc":1,"nazwa":"bardzo dobry"}},{"type":"Feature","id":"KRA22APP","geometry":{"type":"Point","coordinates":[20.00358,50.08913]},"properties":{"poziom":"VERY_GOOD","wartosc":1,"nazwa":"bardzo dobry"}},{"type":"Feature","id":"KRA23APP","geometry":{"type":"Point","coordinates":[20.02793,50.01183]},"properties":{"poziom":"GOOD","wartosc":2,"nazwa":"dobry"}},{"type":"Feature","id":"KRA23BAPP","geometry":{"type":"Point","coordinates":[20.02697,50.08747]},"properties":{"poziom":"GOOD","wartosc":2,"nazwa":"dobry"}},{"type":"Feature","id":"KRA23M","geometry":{"type":"Point","coordinates":[19.95742,50.06659]},"properties":{"poziom":"VERY_GOOD","wartosc":1,"nazwa":"bardzo dobry"}},{"type":"Feature","id":"KRA241M","geometry":{"type":"Point","coordinates":[19.89669,50.0319]},"properties":{"poziom":"VERY_GOOD","wartosc":1,"nazwa":"bardzo dobry"}},{"type":"Feature","id":"KRA24BAPP","geometry":{"type":"Point","coordinates":[19.94228,50.08512]},"properties":{"poziom":"GOOD","wartosc":2,"nazwa":"dobry"}},{"type":"Feature","id":"KRA254M","geometry":{"type":"Point","coordinates":[19.97004,50.01557]},"properties":{"poziom":"VERY_GOOD","wartosc":1,"nazwa":"bardzo dobry"}},{"type":"Feature","id":"KRA255M","geometry":{"type":"Point","coordinates":[19.98128,50.02289]},"properties":{"poziom":"VERY_GOOD","wartosc":1,"nazwa":"bardzo dobry"}},{"type":"Feature","id":"KRA25BAPP","geometry":{"type":"Point","coordinates":[19.96388,50.09715]},"properties":{"poziom":"VERY_GOOD","wartosc":1,"nazwa":"bardzo dobry"}},{"type":"Feature","id":"KRA267M","geometry":{"type":"Point","coordinates":[19.92487,50.00543]},"properties":{"poziom":"VERY_GOOD","wartosc":1,"nazwa":"bardzo dobry"}},{"type":"Feature","id":"KRA268M","geometry":{"type":"Point","coordinates":[19.96792,50.01994]},"properties":{"poziom":"VERY_GOOD","wartosc":1,"nazwa":"bardzo dobry"}},{"type":"Feature","id":"KRA269M","geometry":{"type":"Point","coordinates":[19.93084,50.08482]},"properties":{"poziom":"VERY_GOOD","wartosc":1,"nazwa":"bardzo dobry"}},{"type":"Feature","id":"KRA26BAPP","geometry":{"type":"Point","coordinates":[19.92851,50.08989]},"properties":{"poziom":"GOOD","wartosc":2,"nazwa":"dobry"}},{"type":"Feature","id":"KRA270M","geometry":{"type":"Point","coordinates":[19.90145,50.09271]},"properties":{"poziom":"VERY_GOOD","wartosc":1,"nazwa":"bardzo dobry"}},{"type":"Feature","id":"KRA271M","geometry":{"type":"Point","coordinates":[19.95688,50.05411]},"properties":{"poziom":"VERY_GOOD","wartosc":1,"nazwa":"bardzo dobry"}},{"type":"Feature","id":"KRA274M","geometry":{"type":"Point","coordinates":[20.00148,50.09362]},"properties":{"poziom":"VERY_GOOD","wartosc":1,"nazwa":"bardzo dobry"}},{"type":"Feature","id":"KRA275M","geometry":{"type":"Point","coordinates":[20.01483,50.07614]},"properties":{"poziom":"VERY_BAD","wartosc":6,"nazwa":"bardzo zły"}},{"type":"Feature","id":"KRA276M","geometry":{"type":"Point","coordinates":[20.16691,50.06906]},"properties":{"poziom":"GOOD","wartosc":2,"nazwa":"dobry"}},{"type":"Feature","id":"KRA27BAPP","geometry":{"type":"Point","coordinates":[19.92336,50.08942]},"properties":{"poziom":"GOOD","wartosc":2,"nazwa":"dobry"}},{"type":"Feature","id":"KRA280M","geometry":{"type":"Point","coordinates":[19.90786,50.0512]},"properties":{"poziom":"VERY_GOOD","wartosc":1,"nazwa":"bardzo dobry"}},{"type":"Feature","id":"KRA284M","geometry":{"type":"Point","coordinates":[19.99106,50.00612]},"properties":{"poziom":"VERY_GOOD","wartosc":1,"nazwa":"bardzo dobry"}},{"type":"Feature","id":"KRA286M","geometry":{"type":"Point","coordinates":[20.03234,50.07948]},"properties":{"poziom":"VERY_GOOD","wartosc":1,"nazwa":"bardzo dobry"}},{"type":"Feature","id":"KRA287M","geometry":{"type":"Point","coordinates":[20.0403,50.08534]},"properties":{"poziom":"VERY_GOOD","wartosc":1,"nazwa":"bardzo dobry"}},{"type":"Feature","id":"KRA288M","geometry":{"type":"Point","coordinates":[19.95092,50.09069]},"properties":{"poziom":"VERY_GOOD","wartosc":1,"nazwa":"bardzo dobry"}},{"type":"Feature","id":"KRA289M","geometry":{"type":"Point","coordinates":[19.92169,50.04011]},"properties":{"poziom":"VERY_GOOD","wartosc":1,"nazwa":"bardzo dobry"}},{"type":"Feature","id":"KRA28BAPP","geometry":{"type":"Point","coordinates":[19.92609,50.09091]},"properties":{"poziom":"GOOD","wartosc":2,"nazwa":"dobry"}},{"type":"Feature","id":"KRA290M","geometry":{"type":"Point","coordinates":[19.9315,50.09676]},"properties":{"poziom":"VERY_GOOD","wartosc":1,"nazwa":"bardzo dobry"}},{"type":"Feature","id":"KRA292M","geometry":{"type":"Point","coordinates":[19.94177,50.02469]},"properties":{"poziom":"VERY_GOOD","wartosc":1,"nazwa":"bardzo dobry"}},{"type":"Feature","id":"KRA293M","geometry":{"type":"Point","coordinates":[20.05807,50.08588]},"properties":{"poziom":"GOOD","wartosc":2,"nazwa":"dobry"}},{"type":"Feature","id":"KRA294M","geometry":{"type":"Point","coordinates":[19.85352,50.0822]},"properties":{"poziom":"VERY_GOOD","wartosc":1,"nazwa":"bardzo dobry"}},{"type":"Feature","id":"KRA295M","geometry":{"type":"Point","coordinates":[19.9716,50.08775]},"properties":{"poziom":"VERY_GOOD","wartosc":1,"nazwa":"bardzo dobry"}},{"type":"Feature","id":"KRA296M","geometry":{"type":"Point","coordinates":[19.94272,50.02077]},"properties":{"poziom":"VERY_GOOD","wartosc":1,"nazwa":"bardzo dobry"}},{"type":"Feature","id":"KRA297M","geometry":{"type":"Point","coordinates":[20.02191,50.0844]},"properties":{"poziom":"VERY_GOOD","wartosc":1,"nazwa":"bardzo dobry"}},{"type":"Feature","id":"KRA299M","geometry":{"type":"Point","coordinates":[19.91132,50.02004]},"properties":{"poziom":"VERY_GOOD","wartosc":1,"nazwa":"bardzo dobry"}},{"type":"Feature","id":"KRA300M","geometry":{"type":"Point","coordinates":[19.94572,50.02829]},"properties":{"poziom":"VERY_GOOD","wartosc":1,"nazwa":"bardzo dobry"}},{"type":"Feature","id":"KRA301M","geometry":{"type":"Point","coordinates":[19.99084,50.08959]},"properties":{"poziom":"VERY_GOOD","wartosc":1,"nazwa":"bardzo dobry"}},{"type":"Feature","id":"KRA302M","geometry":{"type":"Point","coordinates":[19.90033,49.99686]},"properties":{"poziom":"VERY_GOOD","wartosc":1,"nazwa":"bardzo dobry"}},{"type":"Feature","id":"KRA303M","geometry":{"type":"Point","coordinates":[19.94258,49.99428]},"properties":{"poziom":"VERY_GOOD","wartosc":1,"nazwa":"bardzo dobry"}},{"type":"Feature","id":"KRA304M","geometry":{"type":"Point","coordinates":[19.87438,49.98074]},"properties":{"poziom":"VERY_GOOD","wartosc":1,"nazwa":"bardzo dobry"}},{"type":"Feature","id":"KRA305M","geometry":{"type":"Point","coordinates":[19.88467,50.08341]},"properties":{"poziom":"VERY_GOOD","wartosc":1,"nazwa":"bardzo dobry"}},{"type":"Feature","id":"KRA306M","geometry":{"type":"Point","coordinates":[19.97893,50.04423]},"properties":{"poziom":"VERY_GOOD","wartosc":1,"nazwa":"bardzo dobry"}},{"type":"Feature","id":"KRA30BAPP","geometry":{"type":"Point","coordinates":[20.05241,50.06645]},"properties":{"poziom":"VERY_GOOD","wartosc":1,"nazwa":"bardzo dobry"}},{"type":"Feature","id":"KRA311M","geometry":{"type":"Point","coordinates":[20.0178,50.06203]},"properties":{"poziom":"VERY_GOOD","wartosc":1,"nazwa":"bardzo dobry"}},{"type":"Feature","id":"KRA312M","geometry":{"type":"Point","coordinates":[20.02753,50.07885]},"properties":{"poziom":"VERY_GOOD","wartosc":1,"nazwa":"bardzo dobry"}},{"type":"Feature","id":"KRA313M","geometry":{"type":"Point","coordinates":[19.98548,50.01801]},"properties":{"poziom":"VERY_GOOD","wartosc":1,"nazwa":"bardzo dobry"}},{"type":"Feature","id":"KRA315M","geometry":{"type":"Point","coordinates":[20.00966,50.07377]},"properties":{"poziom":"VERY_GOOD","wartosc":1,"nazwa":"bardzo dobry"}},{"type":"Feature","id":"KRA318M","geometry":{"type":"Point","coordinates":[19.95394,50.01243]},"properties":{"poziom":"VERY_GOOD","wartosc":1,"nazwa":"bardzo dobry"}},{"type":"Feature","id":"KRA319M","geometry":{"type":"Point","coordinates":[19.93108,50.04657]},"properties":{"poziom":"VERY_GOOD","wartosc":1,"nazwa":"bardzo dobry"}},{"type":"Feature","id":"KRA31BAPP","geometry":{"type":"Point","coordinates":[19.97639,50.02668]},"properties":{"poziom":"GOOD","wartosc":2,"nazwa":"dobry"}},{"type":"Feature","id":"KRA322M","geometry":{"type":"Point","coordinates":[19.98318,50.04402]},"properties":{"poziom":"VERY_GOOD","wartosc":1,"nazwa":"bardzo dobry"}},{"type":"Feature","id":"KRA323M","geometry":{"type":"Point","coordinates":[20.02462,50.01876]},"properties":{"poziom":"VERY_GOOD","wartosc":1,"nazwa":"bardzo dobry"}},{"type":"Feature","id":"KRA324M","geometry":{"type":"Point","coordinates":[19.97377,50.0791]},"properties":{"poziom":"GOOD","wartosc":2,"nazwa":"dobry"}},{"type":"Feature","id":"KRA325M","geometry":{"type":"Point","coordinates":[19.96095,50.09793]},"properties":{"poziom":"VERY_GOOD","wartosc":1,"nazwa":"bardzo dobry"}},{"type":"Feature","id":"KRA326M","geometry":{"type":"Point","coordinates":[19.98058,50.07695]},"properties":{"poziom":"VERY_GOOD","wartosc":1,"nazwa":"bardzo dobry"}},{"type":"Feature","id":"KRA327M","geometry":{"type":"Point","coordinates":[20.04763,50.07928]},"properties":{"poziom":"VERY_GOOD","wartosc":1,"nazwa":"bardzo dobry"}},{"type":"Feature","id":"KRA328M","geometry":{"type":"Point","coordinates":[20.07386,50.09623]},"properties":{"poziom":"VERY_GOOD","wartosc":1,"nazwa":"bardzo dobry"}},{"type":"Feature","id":"KRA329M","geometry":{"type":"Point","coordinates":[20.02259,50.07525]},"properties":{"poziom":"VERY_GOOD","wartosc":1,"nazwa":"bardzo dobry"}},{"type":"Feature","id":"KRA32APP","geometry":{"type":"Point","coordinates":[19.90511,50.02591]},"properties":{"poziom":"GOOD","wartosc":2,"nazwa":"dobry"}},{"type":"Feature","id":"KRA32BAPP","geometry":{"type":"Point","coordinates":[19.9511,50.09479]},"properties":{"poziom":"VERY_GOOD","wartosc":1,"nazwa":"bardzo dobry"}},{"type":"Feature","id":"KRA330M","geometry":{"type":"Point","coordinates":[19.97582,50.08329]},"properties":{"poziom":"VERY_GOOD","wartosc":1,"nazwa":"bardzo dobry"}},{"type":"Feature","id":"KRA332M","geometry":{"type":"Point","coordinates":[19.9722,50.0828]},"properties":{"poziom":"VERY_GOOD","wartosc":1,"nazwa":"bardzo dobry"}},{"type":"Feature","id":"KRA339M","geometry":{"type":"Point","coordinates":[19.9841,50.09338]},"properties":{"poziom":"VERY_GOOD","wartosc":1,"nazwa":"bardzo dobry"}},{"type":"Feature","id":"KRA33BAPP","geometry":{"type":"Point","coordinates":[19.96718,50.089]},"properties":{"poziom":"GOOD","wartosc":2,"nazwa":"dobry"}},{"type":"Feature","id":"KRA340M","geometry":{"type":"Point","coordinates":[19.98919,50.09299]},"properties":{"poziom":"VERY_GOOD","wartosc":1,"nazwa":"bardzo dobry"}},{"type":"Feature","id":"KRA341M","geometry":{"type":"Point","coordinates":[19.99429,50.04093]},"properties":{"poziom":"GOOD","wartosc":2,"nazwa":"dobry"}},{"type":"Feature","id":"KRA342M","geometry":{"type":"Point","coordinates":[20.04435,50.05391]},"properties":{"poziom":"VERY_GOOD","wartosc":1,"nazwa":"bardzo dobry"}},{"type":"Feature","id":"KRA346M","geometry":{"type":"Point","coordinates":[19.98981,49.97302]},"properties":{"poziom":"VERY_GOOD","wartosc":1,"nazwa":"bardzo dobry"}},{"type":"Feature","id":"KRA34BAPP","geometry":{"type":"Point","coordinates":[19.96061,50.10843]},"properties":{"poziom":"VERY_GOOD","wartosc":1,"nazwa":"bardzo dobry"}},{"type":"Feature","id":"KRA350M","geometry":{"type":"Point","coordinates":[19.93003,50.00237]},"properties":{"poziom":"VERY_GOOD","wartosc":1,"nazwa":"bardzo dobry"}},{"type":"Feature","id":"KRA353M","geometry":{"type":"Point","coordinates":[19.99049,50.03815]},"properties":{"poziom":"VERY_GOOD","wartosc":1,"nazwa":"bardzo dobry"}},{"type":"Feature","id":"KRA357M","geometry":{"type":"Point","coordinates":[20.05464,50.01861]},"properties":{"poziom":"GOOD","wartosc":2,"nazwa":"dobry"}},{"type":"Feature","id":"KRA359M","geometry":{"type":"Point","coordinates":[20.04823,50.02689]},"properties":{"poziom":"VERY_GOOD","wartosc":1,"nazwa":"bardzo dobry"}},{"type":"Feature","id":"KRA35BAPP","geometry":{"type":"Point","coordinates":[20.06436,50.09735]},"properties":{"poziom":"VERY_GOOD","wartosc":1,"nazwa":"bardzo dobry"}},{"type":"Feature","id":"KRA375M","geometry":{"type":"Point","coordinates":[19.93878,50.09291]},"properties":{"poziom":"GOOD","wartosc":2,"nazwa":"dobry"}},{"type":"Feature","id":"KRA376M","geometry":{"type":"Point","coordinates":[19.97664,50.07316]},"properties":{"poziom":"GOOD","wartosc":2,"nazwa":"dobry"}},{"type":"Feature","id":"KRA377M","geometry":{"type":"Point","coordinates":[19.84645,50.08357]},"properties":{"poziom":"GOOD","wartosc":2,"nazwa":"dobry"}},{"type":"Feature","id":"KRA380M","geometry":{"type":"Point","coordinates":[19.92807,50.09394]},"properties":{"poziom":"VERY_GOOD","wartosc":1,"nazwa":"bardzo dobry"}},{"type":"Feature","id":"KRA382M","geometry":{"type":"Point","coordinates":[19.89512,50.03697]},"properties":{"poziom":"VERY_GOOD","wartosc":1,"nazwa":"bardzo dobry"}},{"type":"Feature","id":"KRA383M","geometry":{"type":"Point","coordinates":[19.95631,50.08116]},"properties":{"poziom":"VERY_GOOD","wartosc":1,"nazwa":"bardzo dobry"}},{"type":"Feature","id":"KRA385M","geometry":{"type":"Point","coordinates":[19.99047,50.04513]},"properties":{"poziom":"VERY_GOOD","wartosc":1,"nazwa":"bardzo dobry"}},{"type":"Feature","id":"KRA386M","geometry":{"type":"Point","coordinates":[19.97973,50.05738]},"properties":{"poziom":"GOOD","wartosc":2,"nazwa":"dobry"}},{"type":"Feature","id":"KRA388M","geometry":{"type":"Point","coordinates":[20.01724,50.01014]},"properties":{"poziom":"VERY_GOOD","wartosc":1,"nazwa":"bardzo dobry"}},{"type":"Feature","id":"KRA389M","geometry":{"type":"Point","coordinates":[19.90747,50.10373]},"properties":{"poziom":"GOOD","wartosc":2,"nazwa":"dobry"}},{"type":"Feature","id":"KRA38BAPP","geometry":{"type":"Point","coordinates":[19.83407,50.07121]},"properties":{"poziom":"VERY_GOOD","wartosc":1,"nazwa":"bardzo dobry"}},{"type":"Feature","id":"KRA39BAPP","geometry":{"type":"Point","coordinates":[20.02063,50.06357]},"properties":{"poziom":"VERY_GOOD","wartosc":1,"nazwa":"bardzo dobry"}},{"type":"Feature","id":"KRA403M","geometry":{"type":"Point","coordinates":[19.9416,50.02813]},"properties":{"poziom":"VERY_GOOD","wartosc":1,"nazwa":"bardzo dobry"}},{"type":"Feature","id":"KRA406M","geometry":{"type":"Point","coordinates":[19.92173,50.02717]},"properties":{"poziom":"VERY_GOOD","wartosc":1,"nazwa":"bardzo dobry"}},{"type":"Feature","id":"KRA40BAPP","geometry":{"type":"Point","coordinates":[19.96335,50.07752]},"properties":{"poziom":"VERY_GOOD","wartosc":1,"nazwa":"bardzo dobry"}},{"type":"Feature","id":"KRA42BAPP","geometry":{"type":"Point","coordinates":[19.8739,50.08119]},"properties":{"poziom":"VERY_GOOD","wartosc":1,"nazwa":"bardzo dobry"}},{"type":"Feature","id":"KRA80M","geometry":{"type":"Point","coordinates":[19.94355,50.06646]},"properties":{"poziom":"VERY_GOOD","wartosc":1,"nazwa":"bardzo dobry"}},{"type":"Feature","id":"KRA89M","geometry":{"type":"Point","coordinates":[19.96103,50.06223]},"properties":{"poziom":"VERY_GOOD","wartosc":1,"nazwa":"bardzo dobry"}},{"type":"Feature","id":"KRA90M","geometry":{"type":"Point","coordinates":[19.96645,50.03852]},"properties":{"poziom":"VERY_GOOD","wartosc":1,"nazwa":"bardzo dobry"}},{"type":"Feature","id":"KRA91M","geometry":{"type":"Point","coordinates":[20.03197,50.07707]},"properties":{"poziom":"VERY_GOOD","wartosc":1,"nazwa":"bardzo dobry"}},{"type":"Feature","id":"KRZ01BAPP","geometry":{"type":"Point","coordinates":[19.64543,50.15003]},"properties":{"poziom":"VERY_GOOD","wartosc":1,"nazwa":"bardzo dobry"}},{"type":"Feature","id":"KRZ02BAPP","geometry":{"type":"Point","coordinates":[19.68334,50.14483]},"properties":{"poziom":"GOOD","wartosc":2,"nazwa":"dobry"}},{"type":"Feature","id":"LPY01BAPP","geometry":{"type":"Point","coordinates":[20.36684,49.96085]},"properties":{"poziom":"GOOD","wartosc":2,"nazwa":"dobry"}},{"type":"Feature","id":"LYN01APP","geometry":{"type":"Point","coordinates":[20.25745,49.98242]},"properties":{"poziom":"GOOD","wartosc":2,"nazwa":"dobry"}},{"type":"Feature","id":"MACJ01BAPP","geometry":{"type":"Point","coordinates":[20.07036,50.14289]},"properties":{"poziom":"VERY_GOOD","wartosc":1,"nazwa":"bardzo dobry"}},{"type":"Feature","id":"MAKC01M","geometry":{"type":"Point","coordinates":[20.26997,50.21355]},"properties":{"poziom":"GOOD","wartosc":2,"nazwa":"dobry"}},{"type":"Feature","id":"MSM01BAPP","geometry":{"type":"Point","coordinates":[20.00088,50.16127]},"properties":{"poziom":"VERY_GOOD","wartosc":1,"nazwa":"bardzo dobry"}},{"type":"Feature","id":"MWSI01M","geometry":{"type":"Point","coordinates":[20.10398,50.00245]},"properties":{"poziom":"VERY_GOOD","wartosc":1,"nazwa":"bardzo dobry"}},{"type":"Feature","id":"NGSZ01BAPP","geometry":{"type":"Point","coordinates":[19.73445,50.12411]},"properties":{"poziom":"GOOD","wartosc":2,"nazwa":"dobry"}},{"type":"Feature","id":"NIA01BAPP","geometry":{"type":"Point","coordinates":[20.18835,50.21373]},"properties":{"poziom":"VERY_GOOD","wartosc":1,"nazwa":"bardzo dobry"}},{"type":"Feature","id":"NIE01BAPP","geometry":{"type":"Point","coordinates":[20.2067,50.02126]},"properties":{"poziom":"VERY_GOOD","wartosc":1,"nazwa":"bardzo dobry"}},{"type":"Feature","id":"NIE02BAPP","geometry":{"type":"Point","coordinates":[20.19235,50.01941]},"properties":{"poziom":"GOOD","wartosc":2,"nazwa":"dobry"}},{"type":"Feature","id":"PACU01BAPP","geometry":{"type":"Point","coordinates":[19.65278,50.1778]},"properties":{"poziom":"VERY_GOOD","wartosc":1,"nazwa":"bardzo dobry"}},{"type":"Feature","id":"PIQ01BAPP","geometry":{"type":"Point","coordinates":[19.69341,50.13238]},"properties":{"poziom":"VERY_GOOD","wartosc":1,"nazwa":"bardzo dobry"}},{"type":"Feature","id":"PSQ01BAPP","geometry":{"type":"Point","coordinates":[19.6844,49.94455]},"properties":{"poziom":"VERY_GOOD","wartosc":1,"nazwa":"bardzo dobry"}},{"type":"Feature","id":"PZT01BAPP","geometry":{"type":"Point","coordinates":[19.68799,49.92149]},"properties":{"poziom":"VERY_GOOD","wartosc":1,"nazwa":"bardzo dobry"}},{"type":"Feature","id":"RAQ01M","geometry":{"type":"Point","coordinates":[19.70687,50.15073]},"properties":{"poziom":"VERY_GOOD","wartosc":1,"nazwa":"bardzo dobry"}},{"type":"Feature","id":"RASA01BAPP","geometry":{"type":"Point","coordinates":[19.83148,50.0912]},"properties":{"poziom":"VERY_GOOD","wartosc":1,"nazwa":"bardzo dobry"}},{"type":"Feature","id":"RCB01APP","geometry":{"type":"Point","coordinates":[20.03985,50.13499]},"properties":{"poziom":"VERY_GOOD","wartosc":1,"nazwa":"bardzo dobry"}},{"type":"Feature","id":"RUA02M","geometry":{"type":"Point","coordinates":[19.7083,50.12313]},"properties":{"poziom":"GOOD","wartosc":2,"nazwa":"dobry"}},{"type":"Feature","id":"SKA01BAPP","geometry":{"type":"Point","coordinates":[19.84532,49.96996]},"properties":{"poziom":"VERY_GOOD","wartosc":1,"nazwa":"bardzo dobry"}},{"type":"Feature","id":"SMAR01M","geometry":{"type":"Point","coordinates":[19.85438,50.19166]},"properties":{"poziom":"VERY_GOOD","wartosc":1,"nazwa":"bardzo dobry"}},{"type":"Feature","id":"STOA01BAPP","geometry":{"type":"Point","coordinates":[20.31526,49.92667]},"properties":{"poziom":"VERY_GOOD","wartosc":1,"nazwa":"bardzo dobry"}},{"type":"Feature","id":"TRK01BAPP","geometry":{"type":"Point","coordinates":[20.14955,49.95663]},"properties":{"poziom":"VERY_GOOD","wartosc":1,"nazwa":"bardzo dobry"}},{"type":"Feature","id":"WEZ01BAPP","geometry":{"type":"Point","coordinates":[19.97449,50.1246]},"properties":{"poziom":"GOOD","wartosc":2,"nazwa":"dobry"}},{"type":"Feature","id":"WLC11M","geometry":{"type":"Point","coordinates":[20.04897,49.99037]},"properties":{"poziom":"VERY_GOOD","wartosc":1,"nazwa":"bardzo dobry"}},{"type":"Feature","id":"WRA01BAPP","geometry":{"type":"Point","coordinates":[19.79392,49.9103]},"properties":{"poziom":"VERY_GOOD","wartosc":1,"nazwa":"bardzo dobry"}},{"type":"Feature","id":"WRC01BAPP","geometry":{"type":"Point","coordinates":[19.94535,49.96044]},"properties":{"poziom":"GOOD","wartosc":2,"nazwa":"dobry"}},{"type":"Feature","id":"WRC02BAPP","geometry":{"type":"Point","coordinates":[19.94622,49.96965]},"properties":{"poziom":"VERY_GOOD","wartosc":1,"nazwa":"bardzo dobry"}},{"type":"Feature","id":"ZAGQ01BAPP","geometry":{"type":"Point","coordinates":[20.18446,49.99304]},"properties":{"poziom":"VERY_GOOD","wartosc":1,"nazwa":"bardzo dobry"}},{"type":"Feature","id":"ZBR04M","geometry":{"type":"Point","coordinates":[19.79603,50.11887]},"properties":{"poziom":"VERY_GOOD","wartosc":1,"nazwa":"bardzo dobry"}},{"type":"Feature","id":"ZWDA01BAPP","geometry":{"type":"Point","coordinates":[19.6399,50.22525]},"properties":{"poziom":"VERY_GOOD","wartosc":1,"nazwa":"bardzo dobry"}},{"type":"Feature","id":"ZZI01APP","geometry":{"type":"Point","coordinates":[20.22919,49.99795]},"properties":{"poziom":"GOOD","wartosc":2,"nazwa":"dobry"}},{"type":"Feature","id":"ZZO02M","geometry":{"type":"Point","coordinates":[20.14211,50.00317]},"properties":{"poziom":"GOOD","wartosc":2,"nazwa":"dobry"}}]}