{"type":"FeatureCollection","features":[{"type":"Feature","properties":{"OBJECTID":1,"Shape__Area":196197646.984375,"Shape__Length":71302.44173318919},"geometry":{"type":"Polygon","coordinates":[[[19.971895,50.1069],[19.971976,50.106881],[19.972159,50.106832],[19.972272,50.106807],[19.973241,50.1067],[19.973571,50.106659],[19.973792,50.106633],[19.974616,50.106534],[19.97499,50.1065],[19.975271,50.106463],[19.975636,50.106406],[19.975743,50.106379],[19.975865,50.106348],[19.975972,50.106314],[19.976085,50.106283],[19.976334,50.106211],[19.976671,50.106129],[19.976788,50.106087],[19.977383,50.105898],[19.977513,50.105872],[19.977733,50.105842],[19.977911,50.105833],[19.977966,50.105834],[19.978388,50.10586],[19.97862,50.105869],[19.978654,50.105867],[19.97873,50.105868],[19.978927,50.105843],[19.979019,50.105825],[19.97917,50.105784],[19.979244,50.105761],[19.979308,50.105736],[19.979536,50.105644],[19.979991,50.105442],[19.980226,50.105315],[19.98032,50.105259],[19.980413,50.105203],[19.980487,50.105155],[19.980541,50.10512],[19.980732,50.104962],[19.981028,50.105172],[19.981154,50.105297],[19.981253,50.105393],[19.981374,50.105568],[19.981516,50.10555],[19.981532,50.105548],[19.981679,50.10553],[19.981839,50.105517],[19.982386,50.105489],[19.982596,50.105465],[19.982703,50.10545],[19.982817,50.105433],[19.982956,50.10541],[19.983236,50.10536],[19.983312,50.105344],[19.983542,50.105301],[19.983738,50.105267],[19.984058,50.105213],[19.984491,50.105143],[19.984971,50.105081],[19.98527,50.105037],[19.985553,50.104992],[19.985833,50.104943],[19.98669,50.104786],[19.987125,50.104914],[19.987124,50.10492],[19.98712,50.10495],[19.987118,50.104965],[19.987424,50.105074],[19.987454,50.105085],[19.987854,50.105228],[19.987973,50.105243],[19.988252,50.105277],[19.988305,50.105283],[19.988315,50.105279],[19.988569,50.10516],[19.988736,50.105128],[19.989063,50.105217],[19.98937,50.105316],[19.989422,50.105332],[19.989517,50.105362],[19.989779,50.105557],[19.990076,50.105723],[19.990125,50.10575],[19.990202,50.105793],[19.99041,50.105909],[19.990765,50.10612],[19.99102,50.106213],[19.991029,50.106216],[19.991397,50.106318],[19.991725,50.106419],[19.991958,50.106488],[19.992006,50.106506],[19.992044,50.106521],[19.992065,50.106529],[19.992577,50.106641],[19.992843,50.106704],[19.993261,50.106776],[19.993674,50.106844],[19.99409,50.106912],[19.994255,50.106934],[19.994422,50.106957],[19.994693,50.106993],[19.994817,50.10701],[19.994841,50.107013],[19.994881,50.107007],[19.994904,50.107003],[19.995394,50.107039],[19.995645,50.107075],[19.995733,50.107084],[19.996511,50.107165],[19.997136,50.107177],[19.997933,50.107211],[19.997957,50.107212],[19.998016,50.107213],[19.998083,50.107214],[19.998679,50.10722],[19.999071,50.107223],[19.999552,50.107222],[19.999901,50.107246],[20.000097,50.107242],[20.000292,50.107237],[20.000337,50.107236],[20.000449,50.107234],[20.000461,50.107233],[20.000784,50.107226],[20.000833,50.107225],[20.000851,50.107225],[20.00094,50.107224],[20.001206,50.107219],[20.001361,50.107216],[20.001512,50.107213],[20.001756,50.107209],[20.001942,50.107198],[20.002312,50.107177],[20.002803,50.107151],[20.003053,50.107138],[20.003673,50.107105],[20.004326,50.107143],[20.004563,50.107167],[20.004607,50.107159],[20.004772,50.107153],[20.006072,50.107101],[20.006319,50.107092],[20.007755,50.107029],[20.008973,50.106971],[20.010578,50.106885],[20.010612,50.106884],[20.010905,50.106871],[20.011525,50.106843],[20.011693,50.106836],[20.01171,50.106835],[20.012481,50.106798],[20.01292,50.106777],[20.013063,50.106758],[20.013101,50.106754],[20.013188,50.106735],[20.013391,50.106718],[20.013661,50.106708],[20.013986,50.1067],[20.01429,50.10669],[20.014452,50.106683],[20.014516,50.106683],[20.014655,50.106683],[20.014957,50.106674],[20.015325,50.106664],[20.015671,50.106643],[20.015944,50.106629],[20.016261,50.106622],[20.016381,50.106606],[20.017322,50.106481],[20.017582,50.106446],[20.018151,50.106314],[20.018381,50.106261],[20.019128,50.106055],[20.019937,50.105829],[20.020608,50.105617],[20.021633,50.105343],[20.022111,50.105184],[20.02289,50.104774],[20.023073,50.104666],[20.023766,50.104257],[20.023873,50.104195],[20.024256,50.103946],[20.024498,50.103966],[20.028453,50.100939],[20.029449,50.100096],[20.034196,50.095802],[20.035062,50.09508],[20.035354,50.094883],[20.035955,50.094544],[20.034951,50.093902],[20.034918,50.093827],[20.034933,50.093367],[20.035849,50.093375],[20.036773,50.093277],[20.037444,50.093172],[20.038464,50.09294],[20.03916,50.092803],[20.04738,50.090858],[20.048128,50.090711],[20.04898,50.090612],[20.052037,50.09008],[20.052648,50.089895],[20.053152,50.089742],[20.0537,50.089581],[20.053928,50.089336],[20.054081,50.088959],[20.054183,50.088753],[20.054308,50.088572],[20.054416,50.088471],[20.054548,50.088418],[20.061281,50.08784],[20.062081,50.087844],[20.063312,50.087924],[20.063972,50.087915],[20.064822,50.087854],[20.065051,50.087796],[20.065175,50.087727],[20.065226,50.087685],[20.065309,50.08752],[20.065965,50.079554],[20.065943,50.07951],[20.065899,50.079484],[20.065848,50.079472],[20.063261,50.07914],[20.063012,50.079097],[20.062458,50.078955],[20.0626,50.078667],[20.062649,50.077552],[20.062747,50.074053],[20.062879,50.073653],[20.063155,50.073177],[20.064879,50.071198],[20.066572,50.069434],[20.06766,50.068415],[20.068003,50.06813],[20.067966,50.068126],[20.067996,50.068102],[20.06797,50.068099],[20.068016,50.068037],[20.068068,50.068042],[20.068096,50.068019],[20.068135,50.068024],[20.069805,50.066761],[20.070732,50.065954],[20.071705,50.065158],[20.072354,50.064549],[20.07253,50.06431],[20.072984,50.06378],[20.073528,50.062969],[20.074035,50.062065],[20.074424,50.061501],[20.074576,50.061204],[20.074746,50.060572],[20.074853,50.05989],[20.074888,50.059235],[20.074856,50.058564],[20.0748,50.058127],[20.074682,50.057505],[20.074177,50.055285],[20.073878,50.05437],[20.073385,50.053124],[20.073037,50.052322],[20.072728,50.051699],[20.072761,50.051686],[20.071587,50.049319],[20.070918,50.047871],[20.069069,50.044085],[20.068713,50.043491],[20.068412,50.043053],[20.068006,50.042529],[20.06763,50.042095],[20.067239,50.041686],[20.066293,50.040803],[20.065605,50.040122],[20.065189,50.039739],[20.064537,50.039181],[20.064145,50.038797],[20.063837,50.0384],[20.063625,50.038091],[20.063435,50.037687],[20.063002,50.036599],[20.062916,50.036307],[20.062854,50.035902],[20.062919,50.034708],[20.06292,50.03433],[20.062823,50.032254],[20.062831,50.03196],[20.062763,50.030819],[20.061934,50.022075],[20.06183,50.021303],[20.061656,50.019396],[20.061629,50.019402],[20.061452,50.017425],[20.061428,50.016795],[20.061417,50.016693],[20.061375,50.01652],[20.061304,50.016362],[20.061294,50.016361],[20.06129,50.016355],[20.061297,50.016349],[20.06119,50.016198],[20.061051,50.01605],[20.060885,50.015909],[20.060802,50.015837],[20.060714,50.015767],[20.060633,50.015698],[20.060543,50.015621],[20.060392,50.015463],[20.060274,50.015293],[20.060184,50.015119],[20.060104,50.014947],[20.060025,50.014774],[20.059946,50.014602],[20.059866,50.01443],[20.059787,50.014258],[20.059707,50.014085],[20.059629,50.013912],[20.05955,50.01374],[20.059471,50.013567],[20.059391,50.013394],[20.059312,50.013221],[20.059244,50.013044],[20.0592,50.012861],[20.059195,50.012757],[20.059191,50.012675],[20.059223,50.01249],[20.059287,50.01231],[20.059367,50.012136],[20.059447,50.011964],[20.05952,50.011792],[20.059576,50.011621],[20.05961,50.011447],[20.059615,50.011272],[20.059593,50.011099],[20.059542,50.010927],[20.059466,50.010765],[20.059434,50.01071],[20.059372,50.01062],[20.059358,50.0106],[20.059312,50.010544],[20.059069,50.010301],[20.058703,50.010011],[20.058305,50.00972],[20.057539,50.009213],[20.056721,50.008741],[20.055856,50.008304],[20.055407,50.0081],[20.054479,50.007721],[20.053024,50.007223],[20.05202,50.006935],[20.050976,50.006703],[20.050175,50.006557],[20.049378,50.006442],[20.048292,50.006326],[20.047745,50.006285],[20.046647,50.006237],[20.045129,50.006218],[20.032141,50.00625],[20.03148,50.006252],[20.03148,50.006269],[20.030753,50.006266],[20.030753,50.006249],[20.029714,50.006215],[20.028716,50.006161],[20.027199,50.006051],[20.025731,50.005911],[20.023795,50.005689],[20.023504,50.005685],[20.023296,50.005703],[20.022965,50.005751],[20.022306,50.005875],[20.022024,50.00591],[20.021767,50.005919],[20.021407,50.005895],[20.020189,50.005704],[20.019685,50.005665],[20.019345,50.005687],[20.019032,50.005751],[20.018582,50.005909],[20.017741,50.006277],[20.018178,50.006386],[20.018149,50.00643],[20.018089,50.006517],[20.018048,50.006551],[20.017991,50.006585],[20.015887,50.007514],[20.015717,50.007589],[20.015648,50.007612],[20.015588,50.007619],[20.015532,50.007617],[20.015419,50.0076],[20.015329,50.00756],[20.015261,50.007489],[20.015234,50.007384],[20.015315,50.007308],[20.015444,50.007252],[20.015608,50.007181],[20.015507,50.007077],[20.014148,50.007679],[20.014055,50.007601],[20.013954,50.007564],[20.0139,50.007532],[20.013858,50.007488],[20.013829,50.007385],[20.013845,50.007325],[20.01389,50.007265],[20.013949,50.007226],[20.014301,50.00709],[20.015942,50.006487],[20.016068,50.006427],[20.016161,50.006371],[20.016247,50.006306],[20.01632,50.006223],[20.016366,50.006153],[20.016442,50.006026],[20.016509,50.006003],[20.017073,50.006122],[20.017227,50.005944],[20.017317,50.005737],[20.017339,50.005543],[20.017316,50.005383],[20.017246,50.005212],[20.017133,50.005051],[20.016993,50.004915],[20.016765,50.004764],[20.016509,50.004648],[20.016162,50.004539],[20.014809,50.004241],[20.014103,50.004057],[20.01238,50.003692],[20.008438,50.002983],[20.007218,50.002732],[20.000926,50.001605],[19.999677,50.001399],[19.998212,50.001189],[19.996308,50.00099],[19.994969,50.000892],[19.99332,50.000827],[19.991553,50.000819],[19.990665,50.000836],[19.989352,50.000884],[19.984945,50.001111],[19.982928,50.001222],[19.98246,50.001261],[19.982209,50.00126],[19.970592,50.001881],[19.969628,50.001923],[19.96854,50.001944],[19.967892,50.001937],[19.967104,50.001906],[19.965739,50.001792],[19.964993,50.001698],[19.964043,50.001558],[19.961174,50.001082],[19.9597,50.000863],[19.957831,50.000649],[19.956272,50.000531],[19.955182,50.000481],[19.954329,50.00046],[19.95251,50.000471],[19.951557,50.000509],[19.95037,50.00058],[19.949185,50.000682],[19.948246,50.000779],[19.943348,50.00136],[19.94302,50.00141],[19.942667,50.001498],[19.942465,50.001586],[19.942352,50.001641],[19.942109,50.001803],[19.941928,50.002001],[19.941807,50.002256],[19.941787,50.002522],[19.941831,50.002708],[19.941951,50.00293],[19.942976,50.004291],[19.943291,50.004718],[19.943464,50.004871],[19.943941,50.005317],[19.944146,50.005457],[19.944222,50.005514],[19.944238,50.005585],[19.944225,50.005641],[19.944188,50.005691],[19.944103,50.005716],[19.944014,50.005735],[19.943843,50.005749],[19.943208,50.005692],[19.94312,50.005691],[19.943028,50.005658],[19.942959,50.005615],[19.942926,50.005558],[19.942904,50.005416],[19.9431,50.005122],[19.943121,50.005033],[19.943094,50.004913],[19.94276,50.004537],[19.941624,50.003041],[19.941429,50.002811],[19.941192,50.002598],[19.940951,50.002416],[19.940466,50.002127],[19.940243,50.002024],[19.93982,50.001867],[19.939218,50.001715],[19.938741,50.001644],[19.937484,50.001554],[19.936383,50.001435],[19.935513,50.0013],[19.934936,50.001182],[19.933947,50.000949],[19.933279,50.000762],[19.932528,50.00052],[19.932027,50.000337],[19.931312,50.000044],[19.930714,49.999774],[19.92996,49.999376],[19.929346,49.99901],[19.92875,49.998616],[19.92819,49.998215],[19.926405,49.996848],[19.92107,49.999194],[19.920741,49.999313],[19.92049,49.998827],[19.920308,49.998476],[19.918858,49.995747],[19.918715,49.995545],[19.918486,49.995045],[19.917241,49.992639],[19.91657,49.992498],[19.915655,49.992327],[19.914741,49.992199],[19.914083,49.992468],[19.913539,49.992649],[19.913261,49.992711],[19.91296,49.992751],[19.912659,49.992765],[19.912338,49.992755],[19.91205,49.99272],[19.91174,49.992657],[19.911449,49.992566],[19.911198,49.992463],[19.910985,49.992349],[19.910433,49.99198],[19.910219,49.991858],[19.909967,49.991743],[19.90967,49.991641],[19.909187,49.991528],[19.907382,49.991307],[19.905876,49.991154],[19.904138,49.990996],[19.90274,49.990889],[19.900979,49.99078],[19.899651,49.990717],[19.898483,49.99068],[19.895527,49.990641],[19.893039,49.990669],[19.891266,49.990722],[19.890059,49.990774],[19.887723,49.990917],[19.884955,49.991157],[19.882645,49.991408],[19.880102,49.991752],[19.877723,49.992126],[19.875319,49.992562],[19.863552,49.994878],[19.860997,49.995389],[19.860223,49.995561],[19.859505,49.995752],[19.859016,49.995904],[19.858313,49.99615],[19.85785,49.996333],[19.857211,49.99665],[19.855933,49.997439],[19.856484,49.997662],[19.857079,49.997844],[19.857098,49.997915],[19.857087,49.998015],[19.857018,49.998138],[19.856829,49.998404],[19.856677,49.998568],[19.856492,49.998696],[19.856275,49.998787],[19.856045,49.998843],[19.855781,49.99887],[19.855055,49.998845],[19.854671,49.998863],[19.854331,49.998932],[19.854039,49.999038],[19.853783,49.999185],[19.853578,49.999353],[19.853337,49.999655],[19.853132,49.999951],[19.852878,50.000386],[19.852701,50.000735],[19.852486,50.001276],[19.852354,50.001677],[19.850802,50.007597],[19.850579,50.008352],[19.850333,50.009018],[19.849936,50.009865],[19.849671,50.010324],[19.849272,50.010923],[19.848954,50.01135],[19.84849,50.011898],[19.847786,50.012627],[19.847191,50.013151],[19.846621,50.013609],[19.846242,50.013893],[19.84534,50.014493],[19.844121,50.015179],[19.843473,50.015499],[19.842537,50.015917],[19.841247,50.016403],[19.840218,50.016731],[19.838904,50.017093],[19.835739,50.017896],[19.834863,50.018156],[19.834053,50.018424],[19.833258,50.01872],[19.832318,50.019113],[19.831473,50.019502],[19.830756,50.019865],[19.830509,50.020004],[19.830321,50.020135],[19.830093,50.020396],[19.829989,50.020738],[19.830021,50.021423],[19.830017,50.021517],[19.829967,50.021688],[19.829844,50.021915],[19.829449,50.022336],[19.829378,50.022432],[19.829298,50.022496],[19.829131,50.022603],[19.827581,50.021954],[19.827084,50.022378],[19.826359,50.023065],[19.827724,50.023758],[19.82818,50.024093],[19.828702,50.024722],[19.828943,50.025249],[19.829118,50.025816],[19.829109,50.026246],[19.828966,50.026919],[19.828645,50.027574],[19.828196,50.028704],[19.827701,50.029751],[19.826562,50.031697],[19.826342,50.032408],[19.825708,50.032266],[19.824697,50.03209],[19.822048,50.031876],[19.821085,50.031892],[19.820245,50.031997],[19.819076,50.032235],[19.818672,50.032338],[19.818384,50.032477],[19.818128,50.032623],[19.817518,50.032888],[19.816821,50.033282],[19.816527,50.033395],[19.817658,50.033846],[19.817829,50.033934],[19.818163,50.034146],[19.818209,50.034156],[19.818316,50.034167],[19.818407,50.034196],[19.818482,50.034244],[19.818518,50.03429],[19.818533,50.034333],[19.818536,50.034363],[19.818526,50.03443],[19.818481,50.034483],[19.818475,50.034505],[19.818474,50.034524],[19.81848,50.034553],[19.818519,50.034629],[19.818543,50.034703],[19.818554,50.034741],[19.818562,50.034766],[19.818568,50.034844],[19.818555,50.034959],[19.818534,50.035048],[19.818504,50.035125],[19.818466,50.035194],[19.818405,50.035276],[19.818336,50.035347],[19.818247,50.035421],[19.818156,50.035481],[19.818069,50.035528],[19.818031,50.035547],[19.817927,50.035594],[19.817785,50.035649],[19.817591,50.035715],[19.817519,50.03574],[19.81728,50.035822],[19.817273,50.035825],[19.817149,50.035867],[19.816903,50.035952],[19.816656,50.036037],[19.81592,50.036292],[19.815558,50.036426],[19.815209,50.03657],[19.814876,50.036723],[19.814869,50.036726],[19.814837,50.036741],[19.813692,50.037477],[19.813288,50.037838],[19.813227,50.037899],[19.813211,50.037914],[19.813064,50.038066],[19.813046,50.038086],[19.812992,50.038142],[19.812956,50.038181],[19.812886,50.038257],[19.812829,50.038317],[19.81283,50.038342],[19.812865,50.039201],[19.812479,50.039834],[19.812085,50.040149],[19.811433,50.040416],[19.811075,50.040528],[19.810994,50.040553],[19.810993,50.040562],[19.810987,50.040649],[19.810988,50.040739],[19.810996,50.040824],[19.811009,50.040915],[19.811017,50.040957],[19.811029,50.041012],[19.811046,50.04109],[19.811057,50.04113],[19.811091,50.041267],[19.811113,50.041356],[19.811136,50.041444],[19.81116,50.041542],[19.811167,50.041567],[19.81118,50.041621],[19.811211,50.041708],[19.811246,50.041807],[19.811249,50.041816],[19.811252,50.041827],[19.811263,50.041854],[19.811269,50.041868],[19.811274,50.041875],[19.811279,50.041882],[19.811285,50.041889],[19.811292,50.041896],[19.8113,50.041902],[19.811308,50.041907],[19.811317,50.041912],[19.811332,50.04192],[19.81139,50.04194],[19.811445,50.041968],[19.811473,50.041996],[19.811489,50.042031],[19.811492,50.042064],[19.811484,50.042106],[19.811473,50.042131],[19.811437,50.042172],[19.811402,50.0422],[19.811367,50.042217],[19.811315,50.042229],[19.811251,50.042234],[19.811236,50.042233],[19.811209,50.042232],[19.811181,50.04223],[19.81115,50.042229],[19.811137,50.04223],[19.811127,50.042231],[19.811087,50.042239],[19.81099,50.042275],[19.810859,50.042328],[19.810894,50.042449],[19.810892,50.042454],[19.810889,50.042462],[19.810938,50.042652],[19.810948,50.042679],[19.810968,50.042736],[19.810994,50.042828],[19.811016,50.042923],[19.811029,50.042939],[19.811038,50.042951],[19.811075,50.042998],[19.81116,50.043039],[19.811166,50.043041],[19.811212,50.043057],[19.811235,50.043126],[19.811301,50.043321],[19.811594,50.043569],[19.812116,50.043882],[19.812435,50.044263],[19.812789,50.04463],[19.813093,50.044855],[19.813701,50.045254],[19.814511,50.046037],[19.814738,50.046228],[19.815154,50.046666],[19.815823,50.047242],[19.81602,50.047459],[19.817013,50.048391],[19.817053,50.048458],[19.817116,50.048497],[19.817273,50.048659],[19.817353,50.048852],[19.817754,50.049106],[19.818322,50.05028],[19.818909,50.050662],[19.81891,50.050699],[19.819117,50.050998],[19.819193,50.051167],[19.819398,50.051373],[19.819428,50.051367],[19.81951,50.051458],[19.819617,50.051655],[19.819672,50.051902],[19.819658,50.052317],[19.819681,50.052414],[19.819818,50.05272],[19.820062,50.053142],[19.820103,50.053151],[19.820136,50.053296],[19.820178,50.053368],[19.820162,50.05381],[19.820118,50.053896],[19.820127,50.054053],[19.820181,50.054268],[19.820225,50.054385],[19.820372,50.054614],[19.820399,50.054617],[19.820464,50.054744],[19.820688,50.055064],[19.820767,50.055327],[19.820775,50.055505],[19.820735,50.0558],[19.8208,50.055963],[19.820677,50.056359],[19.82071,50.056594],[19.820792,50.056854],[19.820966,50.057207],[19.821096,50.057417],[19.821277,50.057643],[19.821516,50.057876],[19.82202,50.058201],[19.821955,50.058219],[19.821581,50.058207],[19.821356,50.058168],[19.821031,50.058227],[19.820313,50.058201],[19.819859,50.058221],[19.819698,50.058284],[19.81952,50.058391],[19.818362,50.058693],[19.81795,50.058768],[19.817623,50.058848],[19.817513,50.058896],[19.817218,50.059069],[19.816514,50.059275],[19.816159,50.059345],[19.815886,50.059356],[19.815393,50.05931],[19.815237,50.059231],[19.815071,50.059221],[19.81493,50.059262],[19.814638,50.059206],[19.814541,50.059026],[19.814333,50.05906],[19.814059,50.059027],[19.813868,50.058987],[19.813619,50.058903],[19.812894,50.058807],[19.812415,50.058586],[19.812111,50.058679],[19.81127,50.058497],[19.811213,50.058459],[19.811082,50.058498],[19.811065,50.058667],[19.810974,50.059039],[19.810917,50.059165],[19.810481,50.059205],[19.81044,50.059428],[19.810019,50.059657],[19.809855,50.059785],[19.80962,50.060358],[19.809309,50.061002],[19.809068,50.061058],[19.808664,50.061151],[19.80863,50.061159],[19.808615,50.061167],[19.808494,50.061193],[19.808365,50.06122],[19.808247,50.061245],[19.808242,50.061244],[19.808018,50.061294],[19.807825,50.061336],[19.807631,50.06138],[19.807115,50.061494],[19.805265,50.061945],[19.804542,50.062105],[19.804547,50.062204],[19.804548,50.062215],[19.804548,50.062226],[19.804549,50.062237],[19.804593,50.062226],[19.804636,50.062213],[19.804644,50.062211],[19.804684,50.062199],[19.804793,50.062168],[19.804809,50.062163],[19.805592,50.061968],[19.805877,50.061901],[19.807146,50.061601],[19.808003,50.061446],[19.808486,50.061387],[19.808818,50.061366],[19.809333,50.061357],[19.809642,50.061369],[19.809679,50.062192],[19.80978,50.063044],[19.809926,50.063839],[19.810608,50.067065],[19.810734,50.067898],[19.810791,50.068542],[19.810804,50.06951],[19.810748,50.070403],[19.810649,50.07134],[19.81046,50.072197],[19.810898,50.072307],[19.811101,50.072399],[19.81131,50.072538],[19.81143,50.07264],[19.811538,50.072776],[19.811616,50.072926],[19.81166,50.073149],[19.811625,50.073417],[19.811441,50.074066],[19.811369,50.074239],[19.811267,50.074394],[19.811161,50.074512],[19.811003,50.074637],[19.810319,50.07508],[19.809858,50.075483],[19.809704,50.075668],[19.809568,50.075877],[19.809439,50.0763],[19.808769,50.078819],[19.808822,50.078869],[19.808875,50.078918],[19.808896,50.078938],[19.808913,50.078954],[19.808951,50.078989],[19.809007,50.07904],[19.809026,50.079056],[19.809103,50.079122],[19.809113,50.07913],[19.80925,50.079235],[19.809415,50.079348],[19.809533,50.079417],[19.809667,50.079492],[19.809919,50.07962],[19.810073,50.07969],[19.810218,50.079757],[19.810394,50.079843],[19.810521,50.0799],[19.810649,50.07996],[19.810774,50.080013],[19.810924,50.080065],[19.811056,50.080105],[19.811256,50.080164],[19.811429,50.080194],[19.811593,50.08022],[19.811764,50.080239],[19.811948,50.08025],[19.812278,50.080253],[19.812288,50.080252],[19.812474,50.080251],[19.812656,50.080247],[19.812958,50.08025],[19.813122,50.080255],[19.813288,50.080268],[19.813436,50.080284],[19.813614,50.080307],[19.813891,50.080344],[19.813997,50.080355],[19.814146,50.080376],[19.81429,50.08039],[19.814429,50.080411],[19.814573,50.080438],[19.814675,50.080459],[19.814798,50.080491],[19.814893,50.080517],[19.815006,50.080548],[19.815143,50.080592],[19.815271,50.080627],[19.815423,50.080664],[19.815631,50.080706],[19.815772,50.080732],[19.816164,50.080802],[19.816297,50.080804],[19.81644,50.080799],[19.816609,50.080784],[19.81684,50.080768],[19.817057,50.080767],[19.817249,50.080812],[19.817412,50.080884],[19.817594,50.080947],[19.817785,50.080985],[19.817927,50.080993],[19.818107,50.080988],[19.818302,50.080995],[19.818482,50.081036],[19.818563,50.081087],[19.818615,50.081144],[19.818694,50.081243],[19.818764,50.081335],[19.818849,50.081428],[19.81895,50.081509],[19.819105,50.081608],[19.819253,50.081684],[19.819371,50.081731],[19.819485,50.081756],[19.819494,50.081758],[19.819632,50.081787],[19.819793,50.081816],[19.819933,50.081842],[19.820074,50.081873],[19.820229,50.081907],[19.820386,50.081939],[19.820547,50.081965],[19.820687,50.081992],[19.820825,50.082032],[19.82097,50.082062],[19.821078,50.082116],[19.821101,50.082124],[19.821257,50.082177],[19.821411,50.082241],[19.821667,50.082321],[19.821776,50.082347],[19.821888,50.082358],[19.82201,50.082374],[19.822123,50.082367],[19.822124,50.082395],[19.822124,50.082407],[19.822353,50.082453],[19.822745,50.08253],[19.823299,50.082592],[19.823401,50.082648],[19.823484,50.082734],[19.823415,50.083004],[19.823436,50.083109],[19.823472,50.08318],[19.823523,50.083242],[19.823583,50.08331],[19.823692,50.0834],[19.823705,50.083425],[19.823834,50.083498],[19.823922,50.083547],[19.824001,50.083588],[19.824121,50.083638],[19.824264,50.083693],[19.824327,50.083707],[19.824509,50.08378],[19.824544,50.083791],[19.824778,50.083871],[19.825011,50.083975],[19.825129,50.084021],[19.825212,50.084055],[19.825377,50.084133],[19.825553,50.084233],[19.825746,50.084342],[19.825854,50.084406],[19.826125,50.084573],[19.826259,50.084657],[19.826531,50.084824],[19.826658,50.084915],[19.826837,50.085042],[19.8271,50.085225],[19.827384,50.085401],[19.827621,50.085534],[19.827729,50.085601],[19.827822,50.085663],[19.827907,50.085732],[19.827981,50.085781],[19.828014,50.085803],[19.828062,50.085871],[19.828064,50.085961],[19.828024,50.086011],[19.828103,50.086023],[19.828273,50.086241],[19.828356,50.086344],[19.82843,50.086442],[19.828471,50.086502],[19.828528,50.086583],[19.828588,50.086668],[19.828745,50.086878],[19.828839,50.087004],[19.828854,50.087023],[19.828951,50.087138],[19.829056,50.087298],[19.829198,50.0875],[19.829296,50.087694],[19.829448,50.087736],[19.829576,50.08775],[19.829621,50.087773],[19.82973,50.087843],[19.829883,50.087901],[19.82988,50.088043],[19.829844,50.088117],[19.830132,50.088162],[19.830221,50.088176],[19.830323,50.088199],[19.830509,50.088243],[19.830612,50.088271],[19.83069,50.088293],[19.831088,50.088416],[19.831251,50.088456],[19.83128,50.088463],[19.831467,50.088496],[19.831551,50.08851],[19.831605,50.088514],[19.83176,50.088527],[19.831807,50.08853],[19.831962,50.088541],[19.832075,50.088542],[19.832095,50.088543],[19.832137,50.088546],[19.832168,50.088544],[19.832175,50.088543],[19.832204,50.08854],[19.832319,50.088537],[19.832465,50.088522],[19.832483,50.08852],[19.83267,50.0885],[19.832804,50.088483],[19.833072,50.088461],[19.833202,50.088449],[19.833503,50.088413],[19.833596,50.088403],[19.833612,50.088401],[19.83379,50.088379],[19.833817,50.088375],[19.833933,50.088361],[19.834036,50.08835],[19.834221,50.088329],[19.83439,50.088311],[19.834419,50.088346],[19.834523,50.088473],[19.834569,50.088531],[19.834671,50.088655],[19.834687,50.088678],[19.834692,50.088685],[19.834743,50.08874],[19.834913,50.088951],[19.835005,50.089039],[19.835412,50.089427],[19.835583,50.08959],[19.835733,50.089546],[19.835905,50.089496],[19.836483,50.089338],[19.836835,50.089663],[19.837235,50.090042],[19.837239,50.090044],[19.837254,50.090063],[19.837279,50.090072],[19.838022,50.089535],[19.83812,50.08959],[19.838127,50.089594],[19.838124,50.089598],[19.838118,50.089618],[19.838119,50.089641],[19.838126,50.089662],[19.838138,50.089685],[19.838147,50.089701],[19.838272,50.089937],[19.838409,50.089972],[19.838488,50.090096],[19.838632,50.090207],[19.838819,50.090303],[19.838943,50.090361],[19.839361,50.09056],[19.83964,50.090594],[19.839885,50.090624],[19.839907,50.090626],[19.839932,50.090631],[19.839949,50.090635],[19.839967,50.090643],[19.839984,50.090652],[19.839993,50.090658],[19.840071,50.090715],[19.840253,50.090852],[19.840435,50.090989],[19.840466,50.091014],[19.840478,50.091029],[19.840484,50.091041],[19.840486,50.091069],[19.840472,50.091101],[19.840443,50.091126],[19.840342,50.091183],[19.840186,50.091272],[19.840068,50.091204],[19.839959,50.091133],[19.839509,50.090792],[19.83926,50.090653],[19.838941,50.090518],[19.838703,50.090484],[19.838596,50.090444],[19.838473,50.090381],[19.838354,50.090302],[19.83822,50.090187],[19.838125,50.090062],[19.838073,50.089972],[19.838114,50.089917],[19.838128,50.08989],[19.838123,50.08988],[19.838116,50.08987],[19.838098,50.089848],[19.838085,50.089838],[19.838062,50.089824],[19.838051,50.089817],[19.838043,50.089814],[19.838003,50.089801],[19.837974,50.089797],[19.837963,50.089796],[19.837901,50.089798],[19.837871,50.089803],[19.837815,50.089826],[19.837794,50.08984],[19.837793,50.08984],[19.837771,50.089855],[19.837599,50.089977],[19.837593,50.089981],[19.837569,50.089995],[19.837542,50.09001],[19.837504,50.090028],[19.837476,50.090041],[19.837474,50.090042],[19.837428,50.090065],[19.837415,50.09007],[19.837406,50.090075],[19.837369,50.090103],[19.837397,50.090112],[19.837771,50.090462],[19.837842,50.090451],[19.837965,50.090369],[19.838082,50.090349],[19.838197,50.090357],[19.83838,50.090495],[19.83844,50.090613],[19.838513,50.090666],[19.838581,50.090675],[19.838749,50.090695],[19.838851,50.090652],[19.838867,50.090645],[19.838968,50.090637],[19.839011,50.090648],[19.839014,50.090649],[19.83906,50.090661],[19.839317,50.090778],[19.839427,50.090846],[19.839492,50.090995],[19.83956,50.091091],[19.839602,50.091119],[19.839634,50.091128],[19.839768,50.091176],[19.839843,50.091202],[19.839891,50.091243],[19.839982,50.09129],[19.839996,50.091303],[19.840096,50.091445],[19.840188,50.09149],[19.840295,50.091515],[19.840474,50.09153],[19.840608,50.091565],[19.840661,50.091579],[19.840715,50.0916],[19.840818,50.09171],[19.84088,50.091761],[19.840961,50.091794],[19.841036,50.091807],[19.841118,50.091834],[19.841323,50.091857],[19.84154,50.091825],[19.841635,50.091773],[19.841737,50.091795],[19.841878,50.091822],[19.841925,50.091863],[19.842107,50.091971],[19.842272,50.092079],[19.842438,50.092148],[19.842602,50.092237],[19.842868,50.092287],[19.843112,50.092387],[19.84322,50.092345],[19.84332,50.092262],[19.843518,50.092211],[19.843634,50.092212],[19.84367,50.092203],[19.843757,50.092174],[19.843934,50.092176],[19.844258,50.092182],[19.844364,50.092202],[19.844399,50.092207],[19.84444,50.092215],[19.84464,50.092215],[19.844817,50.092195],[19.844918,50.092207],[19.844928,50.092209],[19.845001,50.092224],[19.845143,50.092307],[19.845201,50.092355],[19.845319,50.092399],[19.845484,50.092441],[19.84559,50.092452],[19.845692,50.092517],[19.845886,50.092579],[19.846017,50.092623],[19.846124,50.092644],[19.846278,50.092722],[19.8464,50.092777],[19.84652,50.092801],[19.846525,50.092831],[19.84665,50.092923],[19.846789,50.09295],[19.846883,50.093025],[19.846933,50.093025],[19.847131,50.093081],[19.847214,50.09306],[19.847283,50.093079],[19.847379,50.093093],[19.847408,50.093117],[19.847556,50.093229],[19.847642,50.093208],[19.84775,50.093228],[19.8478,50.093257],[19.848136,50.093274],[19.8484,50.093363],[19.848536,50.093431],[19.848695,50.093456],[19.848945,50.093486],[19.849096,50.093524],[19.849507,50.093702],[19.849774,50.093725],[19.850026,50.093884],[19.850229,50.093957],[19.850467,50.094064],[19.850847,50.094224],[19.85112,50.094279],[19.851154,50.094285],[19.851541,50.094362],[19.851887,50.094432],[19.85214,50.09439],[19.85255,50.094323],[19.852961,50.094256],[19.853218,50.094202],[19.853481,50.094147],[19.853752,50.09409],[19.855137,50.09376],[19.855451,50.093692],[19.856031,50.093605],[19.856415,50.093582],[19.856759,50.09358],[19.857132,50.093591],[19.857442,50.093593],[19.857727,50.093595],[19.857788,50.093589],[19.858269,50.093543],[19.858634,50.093508],[19.858946,50.093448],[19.85903,50.093421],[19.85913,50.093395],[19.859548,50.093274],[19.859621,50.093224],[19.859676,50.093226],[19.85972,50.093215],[19.85989,50.093175],[19.859993,50.093149],[19.860098,50.093124],[19.860232,50.093091],[19.860351,50.093062],[19.860466,50.093035],[19.86059,50.093003],[19.860696,50.092975],[19.860809,50.092946],[19.860919,50.092916],[19.861027,50.092888],[19.861143,50.092841],[19.861252,50.092799],[19.861369,50.092752],[19.861598,50.092661],[19.861612,50.09269],[19.861604,50.092728],[19.861851,50.092996],[19.861961,50.093116],[19.862091,50.093262],[19.862219,50.093404],[19.86232,50.093528],[19.862402,50.093613],[19.862426,50.093637],[19.862455,50.09367],[19.862592,50.093826],[19.862733,50.093978],[19.862869,50.094137],[19.863007,50.094293],[19.863147,50.094452],[19.863296,50.094615],[19.863406,50.094743],[19.863553,50.094907],[19.863679,50.095061],[19.863825,50.095215],[19.863962,50.095372],[19.864112,50.095536],[19.864252,50.095679],[19.864357,50.095815],[19.864514,50.095994],[19.864664,50.096162],[19.864795,50.096305],[19.864937,50.096461],[19.865074,50.096613],[19.865232,50.09679],[19.865238,50.096797],[19.86538,50.096952],[19.865516,50.097107],[19.865652,50.097266],[19.865791,50.09742],[19.865863,50.0975],[19.865953,50.0976],[19.866066,50.097737],[19.866599,50.098319],[19.866662,50.098392],[19.866722,50.098454],[19.866821,50.098553],[19.86694,50.098691],[19.866962,50.098717],[19.867044,50.098804],[19.867114,50.09888],[19.867144,50.098914],[19.867368,50.099157],[19.867389,50.09918],[19.867389,50.099181],[19.867445,50.099241],[19.867504,50.099153],[19.868006,50.098406],[19.868451,50.097838],[19.868796,50.097591],[19.870084,50.096995],[19.870575,50.096754],[19.871517,50.096299],[19.8724,50.095807],[19.872833,50.095559],[19.874239,50.094753],[19.874789,50.09442],[19.876929,50.092987],[19.87815,50.09228],[19.878431,50.09214],[19.87935,50.091698],[19.880925,50.091005],[19.88118,50.090859],[19.883002,50.090051],[19.883757,50.089733],[19.885346,50.089138],[19.886004,50.088826],[19.887199,50.088333],[19.887562,50.088197],[19.888239,50.087948],[19.888984,50.087681],[19.889634,50.087483],[19.890549,50.087322],[19.891202,50.087215],[19.891525,50.087192],[19.891722,50.087196],[19.891944,50.08722],[19.892044,50.087333],[19.892142,50.087481],[19.892192,50.08783],[19.892252,50.088016],[19.892474,50.088474],[19.892889,50.089905],[19.893264,50.090853],[19.893417,50.091129],[19.893463,50.091262],[19.893525,50.091477],[19.893596,50.091888],[19.893632,50.092216],[19.893642,50.092697],[19.893568,50.093115],[19.893416,50.093576],[19.893335,50.093772],[19.893185,50.093973],[19.89305,50.094211],[19.893023,50.094257],[19.893027,50.094303],[19.893084,50.094373],[19.89308,50.094475],[19.893004,50.094549],[19.892857,50.094604],[19.892796,50.094655],[19.892447,50.095288],[19.892121,50.095823],[19.89153,50.096668],[19.888547,50.10181],[19.888096,50.102519],[19.88774,50.102942],[19.88732,50.103335],[19.886876,50.103668],[19.886346,50.103996],[19.885576,50.104391],[19.879703,50.107251],[19.879109,50.107558],[19.878681,50.107821],[19.878391,50.108029],[19.877976,50.108374],[19.875166,50.110971],[19.87529,50.111048],[19.875507,50.111215],[19.875514,50.111222],[19.875702,50.111412],[19.875838,50.111574],[19.875899,50.111646],[19.875951,50.111711],[19.876026,50.111796],[19.8761,50.11187],[19.876181,50.111955],[19.87628,50.112051],[19.876349,50.112127],[19.876425,50.112217],[19.876493,50.112291],[19.876549,50.11236],[19.876596,50.112427],[19.876628,50.11248],[19.876659,50.11253],[19.876681,50.112575],[19.876712,50.11264],[19.876731,50.112688],[19.876751,50.112756],[19.876761,50.112795],[19.876769,50.112841],[19.876795,50.112971],[19.87683,50.113011],[19.876796,50.113044],[19.876773,50.113082],[19.876755,50.113117],[19.876747,50.113152],[19.876742,50.113184],[19.876751,50.113244],[19.876767,50.113337],[19.876778,50.113392],[19.8768,50.113469],[19.876814,50.113514],[19.876835,50.113565],[19.876867,50.113631],[19.876917,50.113713],[19.876994,50.11386],[19.877062,50.114006],[19.877064,50.114009],[19.877142,50.114151],[19.877188,50.11423],[19.877241,50.114317],[19.877283,50.114405],[19.877336,50.114483],[19.877418,50.114614],[19.877494,50.114728],[19.877591,50.114868],[19.877659,50.114971],[19.877718,50.115073],[19.877752,50.115164],[19.877802,50.115263],[19.87786,50.11538],[19.877904,50.115476],[19.877944,50.115587],[19.877981,50.115689],[19.878077,50.115917],[19.878131,50.11603],[19.87818,50.116136],[19.878219,50.116215],[19.878256,50.116308],[19.878295,50.116402],[19.878325,50.116473],[19.878354,50.11655],[19.878383,50.116616],[19.878404,50.11665],[19.87847,50.116789],[19.878501,50.116863],[19.878531,50.116937],[19.878579,50.117028],[19.878657,50.117161],[19.878729,50.11733],[19.878754,50.117438],[19.878779,50.117549],[19.878805,50.117697],[19.878809,50.117772],[19.878822,50.117872],[19.87884,50.117969],[19.878856,50.118072],[19.878873,50.118168],[19.87888,50.118197],[19.878908,50.118265],[19.878933,50.118318],[19.878969,50.118376],[19.87899,50.118415],[19.879009,50.118446],[19.87903,50.118478],[19.87914,50.118627],[19.879201,50.118704],[19.879259,50.11878],[19.879312,50.118861],[19.879376,50.118954],[19.879438,50.119031],[19.879517,50.119126],[19.87957,50.119185],[19.879607,50.119228],[19.879696,50.119323],[19.879705,50.119333],[19.879718,50.119352],[19.879719,50.119353],[19.879733,50.119375],[19.879807,50.119456],[19.882576,50.119458],[19.885639,50.119414],[19.887391,50.119361],[19.888694,50.119279],[19.892358,50.118966],[19.89465,50.118678],[19.897659,50.118165],[19.899369,50.117803],[19.901655,50.117265],[19.903449,50.116795],[19.906195,50.115965],[19.90742,50.115524],[19.908178,50.11534],[19.908685,50.115216],[19.908801,50.11514],[19.908857,50.114982],[19.908959,50.114847],[19.909131,50.11471],[19.909272,50.11466],[19.909429,50.114634],[19.909746,50.114653],[19.909792,50.114655],[19.909844,50.114644],[19.909939,50.114572],[19.910116,50.114382],[19.910132,50.114335],[19.910146,50.114302],[19.910133,50.114273],[19.910161,50.114214],[19.910211,50.114106],[19.910279,50.113968],[19.910316,50.113869],[19.91036,50.113704],[19.910391,50.113603],[19.910441,50.113508],[19.910511,50.113384],[19.910565,50.11328],[19.910645,50.11315],[19.910711,50.113001],[19.910742,50.112869],[19.910758,50.112797],[19.910779,50.112728],[19.910801,50.112658],[19.910844,50.11258],[19.910923,50.112463],[19.911001,50.112353],[19.911068,50.112265],[19.911137,50.112149],[19.91126,50.111953],[19.911279,50.111924],[19.911297,50.111895],[19.911338,50.11181],[19.91144,50.111683],[19.911503,50.111596],[19.911556,50.111454],[19.911573,50.111338],[19.911602,50.111199],[19.911637,50.111076],[19.911701,50.110944],[19.911785,50.11082],[19.911932,50.110578],[19.912056,50.110324],[19.912129,50.110196],[19.912214,50.11007],[19.912287,50.10995],[19.912374,50.109716],[19.912413,50.109601],[19.91246,50.109485],[19.91249,50.109363],[19.91249,50.109296],[19.912504,50.109237],[19.912538,50.109133],[19.912571,50.109056],[19.912602,50.108982],[19.912647,50.108879],[19.912693,50.108764],[19.912767,50.10859],[19.912824,50.10843],[19.912875,50.108302],[19.912959,50.108078],[19.913031,50.107913],[19.913123,50.107703],[19.913217,50.107493],[19.913332,50.107239],[19.913393,50.107112],[19.913405,50.107087],[19.913415,50.107065],[19.913543,50.106774],[19.913645,50.106541],[19.913755,50.106327],[19.913815,50.106206],[19.913819,50.106198],[19.913846,50.106136],[19.913879,50.106034],[19.913909,50.105961],[19.913943,50.105891],[19.914023,50.105736],[19.91408,50.105613],[19.914126,50.105483],[19.914134,50.105454],[19.914167,50.105336],[19.914175,50.105284],[19.914177,50.105271],[19.91419,50.105132],[19.914211,50.105062],[19.914277,50.104814],[19.91428,50.104803],[19.914295,50.104754],[19.91435,50.10458],[19.91436,50.104545],[19.914378,50.10449],[19.914373,50.104475],[19.914399,50.104363],[19.914437,50.104251],[19.914474,50.104149],[19.914515,50.104054],[19.914524,50.104033],[19.91456,50.103917],[19.914564,50.103904],[19.914577,50.103873],[19.914587,50.103824],[19.914598,50.103765],[19.91461,50.103705],[19.914622,50.103646],[19.914629,50.103615],[19.914632,50.103597],[19.914649,50.103523],[19.914661,50.103491],[19.914679,50.103409],[19.914702,50.103322],[19.914713,50.103283],[19.914731,50.103191],[19.914738,50.103157],[19.914756,50.103087],[19.914762,50.103023],[19.914779,50.102906],[19.914801,50.102795],[19.91483,50.102669],[19.914831,50.102664],[19.914845,50.102589],[19.914853,50.102548],[19.914855,50.102528],[19.914856,50.102511],[19.914857,50.102507],[19.914858,50.10248],[19.914865,50.102429],[19.914866,50.102425],[19.914866,50.102419],[19.914875,50.102305],[19.914876,50.102288],[19.914892,50.102168],[19.914893,50.10216],[19.914916,50.102063],[19.914934,50.101934],[19.914936,50.101924],[19.914947,50.10187],[19.914958,50.101807],[19.914962,50.101792],[19.914981,50.101723],[19.914986,50.101703],[19.914999,50.101653],[19.915015,50.101583],[19.915016,50.101581],[19.915032,50.101513],[19.915046,50.101452],[19.915047,50.101443],[19.915059,50.101371],[19.915071,50.101299],[19.915074,50.101282],[19.915085,50.101219],[19.915103,50.101106],[19.915117,50.100975],[19.915124,50.100934],[19.915182,50.100924],[19.915213,50.100919],[19.915533,50.100864],[19.915711,50.100826],[19.915979,50.100794],[19.916102,50.100775],[19.916224,50.100763],[19.91628,50.100749],[19.916339,50.100734],[19.9164,50.100719],[19.916461,50.100704],[19.916715,50.100646],[19.91679,50.100633],[19.916903,50.100609],[19.917035,50.100582],[19.917265,50.100538],[19.917342,50.100518],[19.917432,50.100494],[19.917545,50.100464],[19.917649,50.100435],[19.917684,50.100427],[19.917693,50.100425],[19.917887,50.100377],[19.918032,50.100346],[19.918144,50.100325],[19.918248,50.100303],[19.918361,50.100283],[19.91847,50.100259],[19.918582,50.100241],[19.91878,50.100204],[19.918867,50.10019],[19.918905,50.100186],[19.918914,50.10036],[19.918905,50.10047],[19.918907,50.100497],[19.918913,50.100574],[19.918926,50.100744],[19.918941,50.100829],[19.918944,50.100842],[19.918953,50.1009],[19.91895,50.100938],[19.918943,50.101031],[19.918942,50.101034],[19.918916,50.101092],[19.91886,50.101238],[19.918818,50.10131],[19.918799,50.101344],[19.918807,50.101346],[19.918921,50.101384],[19.919035,50.101422],[19.919103,50.101445],[19.919148,50.101458],[19.919155,50.10146],[19.919262,50.101494],[19.919317,50.101511],[19.919472,50.101566],[19.919513,50.10158],[19.919522,50.101583],[19.919579,50.101604],[19.919729,50.101658],[19.919737,50.101661],[19.919836,50.101703],[19.919942,50.101748],[19.919951,50.101752],[19.920054,50.101785],[19.920167,50.101822],[19.920218,50.101839],[19.920279,50.101862],[19.920388,50.101904],[19.920481,50.101939],[19.920497,50.101945],[19.920607,50.101984],[19.92074,50.102032],[19.920784,50.102049],[19.920789,50.102051],[19.920946,50.102114],[19.921021,50.102143],[19.920886,50.102266],[19.920918,50.102281],[19.921098,50.102358],[19.921186,50.102397],[19.921384,50.102477],[19.92141,50.102488],[19.921727,50.102624],[19.922134,50.102799],[19.922203,50.102828],[19.922516,50.102446],[19.92254,50.102404],[19.922525,50.10235],[19.922469,50.102298],[19.922445,50.102226],[19.92245,50.102141],[19.922489,50.10207],[19.922561,50.10201],[19.922692,50.101967],[19.922849,50.101955],[19.922998,50.101992],[19.923119,50.10205],[19.923194,50.102156],[19.923234,50.102255],[19.923283,50.102296],[19.923549,50.102412],[19.925561,50.103055],[19.926318,50.103266],[19.927048,50.103441],[19.926646,50.104017],[19.926341,50.104473],[19.926407,50.104491],[19.926447,50.104384],[19.926595,50.10451],[19.926607,50.104555],[19.926698,50.104656],[19.926748,50.104698],[19.926889,50.104772],[19.926947,50.104796],[19.927249,50.104915],[19.927313,50.10494],[19.927706,50.105083],[19.927921,50.104999],[19.928075,50.104946],[19.928164,50.104921],[19.928188,50.104855],[19.928204,50.104784],[19.928204,50.104691],[19.928182,50.104593],[19.928157,50.104494],[19.928157,50.104327],[19.928251,50.104246],[19.928312,50.104126],[19.92858,50.103967],[19.928778,50.103781],[19.928888,50.103732],[19.928959,50.103787],[19.929,50.103809],[19.929125,50.103876],[19.929385,50.104027],[19.929534,50.104112],[19.929696,50.1042],[19.929986,50.104362],[19.930378,50.104582],[19.930804,50.104813],[19.930701,50.104899],[19.930606,50.10499],[19.930441,50.105224],[19.930391,50.105313],[19.93035,50.105368],[19.93026,50.105468],[19.930157,50.10555],[19.930139,50.105539],[19.929994,50.105732],[19.92986,50.105933],[19.929741,50.106117],[19.929601,50.106326],[19.929461,50.106528],[19.929386,50.106654],[19.929408,50.10666],[19.929693,50.10672],[19.929769,50.106736],[19.930167,50.106796],[19.930468,50.106831],[19.930528,50.106866],[19.930566,50.106933],[19.930655,50.107086],[19.930887,50.107229],[19.930953,50.107274],[19.930978,50.107291],[19.931213,50.107478],[19.931234,50.107494],[19.933964,50.107153],[19.934615,50.10695],[19.934826,50.106861],[19.936052,50.106156],[19.936379,50.105991],[19.936483,50.105962],[19.93661,50.105946],[19.936818,50.10594],[19.936992,50.105952],[19.937315,50.105997],[19.93781,50.106094],[19.938657,50.106313],[19.939294,50.106548],[19.94051,50.107041],[19.941451,50.107476],[19.941554,50.107507],[19.941687,50.107531],[19.941807,50.107534],[19.94197,50.107525],[19.942063,50.107536],[19.942142,50.107573],[19.942186,50.107612],[19.942702,50.108083],[19.942741,50.108097],[19.943144,50.108137],[19.943364,50.108169],[19.94388,50.108275],[19.944206,50.108363],[19.944824,50.108574],[19.945481,50.108874],[19.945577,50.1089],[19.945654,50.108896],[19.945715,50.108875],[19.945853,50.108798],[19.947039,50.107864],[19.947075,50.107842],[19.947127,50.107824],[19.947188,50.107812],[19.947283,50.10781],[19.947765,50.107834],[19.948106,50.107865],[19.948821,50.10808],[19.949268,50.108223],[19.950788,50.108701],[19.951024,50.108758],[19.951273,50.10872],[19.952239,50.108453],[19.952675,50.108353],[19.953138,50.10828],[19.953356,50.108261],[19.953908,50.108262],[19.954154,50.108286],[19.954338,50.10833],[19.954727,50.108462],[19.954909,50.108496],[19.956481,50.108508],[19.958023,50.108265],[19.958153,50.108223],[19.958355,50.108247],[19.958505,50.108265],[19.959947,50.10831],[19.96024,50.108353],[19.960606,50.108489],[19.961257,50.108769],[19.96164,50.108957],[19.962089,50.109224],[19.962184,50.109265],[19.962293,50.109283],[19.965348,50.108806],[19.965409,50.108774],[19.96544,50.108712],[19.965388,50.108464],[19.965339,50.107943],[19.965305,50.107767],[19.965235,50.107448],[19.965122,50.106994],[19.965016,50.106741],[19.96463,50.105978],[19.964471,50.105468],[19.964409,50.105437],[19.964349,50.105434],[19.963294,50.105568],[19.962453,50.105641],[19.962433,50.105425],[19.962575,50.10542],[19.963157,50.105388],[19.964303,50.105277],[19.964364,50.105234],[19.964386,50.105178],[19.964898,50.105111],[19.964983,50.105163],[19.96504,50.105351],[19.96499,50.10541],[19.964984,50.105455],[19.965433,50.106817],[19.96572,50.108014],[19.965783,50.108646],[19.965906,50.109197],[19.9661,50.109164],[19.966215,50.109139],[19.96633,50.109115],[19.966518,50.109073],[19.966691,50.109034],[19.966826,50.109001],[19.966945,50.108962],[19.967005,50.10895],[19.967205,50.108891],[19.967416,50.108822],[19.967601,50.108759],[19.96777,50.108696],[19.967933,50.108636],[19.968107,50.108571],[19.968256,50.108519],[19.968285,50.108502],[19.968368,50.108463],[19.968391,50.108452],[19.968459,50.108415],[19.968612,50.108319],[19.968901,50.108129],[19.969062,50.108014],[19.969139,50.107957],[19.969222,50.107897],[19.969237,50.107884],[19.969379,50.107765],[19.969642,50.107642],[19.969749,50.107573],[19.969892,50.107517],[19.970139,50.107405],[19.970271,50.107352],[19.97052,50.107265],[19.97058,50.107242],[19.970652,50.107228],[19.970649,50.10721],[19.970882,50.10715],[19.971611,50.106963],[19.971747,50.106936],[19.971895,50.1069]]]}},{"type":"Feature","properties":{"OBJECTID":2,"Shape__Area":0.2421875,"Shape__Length":2.9102601896410722},"geometry":{"type":"Polygon","coordinates":[[[19.979383,50.035008],[19.979372,50.035009],[19.979391,50.035012],[19.979383,50.035008]]]}}]}
