{"type":"FeatureCollection","features":[{"type":"Feature","properties":{"OBJECTID":1,"Podstrefa_":"A","Nr_sektora":1,"Uwagi":" ","Shape__Area":788753.8359375,"Shape__Length":3656.751337191849},"geometry":{"type":"Polygon","coordinates":[[[19.940209,50.066139],[19.940305,50.066114],[19.940458,50.066072],[19.940631,50.066017],[19.940832,50.065949],[19.941036,50.06588],[19.941131,50.065847],[19.941145,50.065843],[19.941235,50.06581],[19.941523,50.065712],[19.941755,50.065629],[19.941999,50.065546],[19.942283,50.065452],[19.942897,50.065244],[19.943097,50.065171],[19.943664,50.064976],[19.944386,50.064723],[19.944758,50.064454],[19.944834,50.064398],[19.944836,50.064391],[19.944874,50.06415],[19.944902,50.063974],[19.944933,50.063745],[19.944968,50.063473],[19.944971,50.063383],[19.944965,50.063278],[19.94496,50.063243],[19.944946,50.063155],[19.944916,50.062994],[19.944888,50.062842],[19.944864,50.062716],[19.944829,50.062554],[19.944093,50.061255],[19.943913,50.061144],[19.943943,50.061136],[19.943951,50.061125],[19.943954,50.061112],[19.943937,50.061088],[19.943917,50.061056],[19.943853,50.060954],[19.9438,50.060902],[19.943542,50.060711],[19.943441,50.060636],[19.943343,50.060566],[19.943173,50.060443],[19.942982,50.060307],[19.942773,50.060155],[19.942564,50.060005],[19.942266,50.05979],[19.941948,50.059559],[19.941942,50.059554],[19.941812,50.059468],[19.941802,50.059459],[19.941656,50.059354],[19.941529,50.059261],[19.941388,50.059162],[19.941304,50.059104],[19.941267,50.059074],[19.940931,50.058803],[19.940928,50.058796],[19.940914,50.058766],[19.940833,50.058614],[19.940746,50.058424],[19.940739,50.058405],[19.940726,50.058371],[19.940733,50.05837],[19.940711,50.058321],[19.9407,50.058279],[19.940682,50.058207],[19.940633,50.058008],[19.940584,50.057806],[19.940503,50.057477],[19.940437,50.05721],[19.940358,50.056886],[19.940276,50.056552],[19.940209,50.056275],[19.940143,50.056005],[19.940043,50.0556],[19.940035,50.055558],[19.940011,50.055547],[19.939984,50.055382],[19.939968,50.055314],[19.939966,50.055315],[19.939927,50.055153],[19.939929,50.055153],[19.939914,50.05509],[19.939903,50.055045],[19.939901,50.055045],[19.939866,50.054908],[19.939869,50.054908],[19.939857,50.054863],[19.939855,50.054863],[19.939823,50.054801],[19.939825,50.0548],[19.939807,50.054765],[19.939805,50.054766],[19.939775,50.054705],[19.939774,50.054705],[19.939692,50.054639],[19.939695,50.054638],[19.939508,50.054488],[19.939505,50.054489],[19.939425,50.054426],[19.939355,50.054365],[19.939215,50.054243],[19.939189,50.054228],[19.938874,50.054082],[19.938859,50.054092],[19.938835,50.054108],[19.938776,50.054147],[19.938652,50.054231],[19.938611,50.054258],[19.938604,50.054279],[19.938556,50.054333],[19.938531,50.054353],[19.938412,50.05443],[19.938382,50.054435],[19.938344,50.054441],[19.938205,50.054516],[19.938184,50.054516],[19.938184,50.054547],[19.938176,50.05457],[19.938158,50.054591],[19.938133,50.054616],[19.938083,50.054649],[19.938104,50.054658],[19.938029,50.054713],[19.93793,50.054784],[19.937865,50.054833],[19.937807,50.054882],[19.937753,50.054933],[19.937705,50.054984],[19.937694,50.054996],[19.93768,50.055011],[19.937548,50.055156],[19.937547,50.055162],[19.937542,50.055176],[19.937537,50.055188],[19.937532,50.055192],[19.937523,50.055201],[19.937509,50.055213],[19.937494,50.055221],[19.937473,50.05523],[19.937464,50.055232],[19.937452,50.055235],[19.937446,50.055236],[19.937401,50.05526],[19.937364,50.055274],[19.937325,50.055283],[19.937268,50.055293],[19.93685,50.055349],[19.936619,50.05538],[19.93637,50.055411],[19.936366,50.055398],[19.936232,50.055416],[19.93614,50.055425],[19.936048,50.055429],[19.935925,50.055427],[19.935791,50.055418],[19.93569,50.055405],[19.93559,50.055386],[19.935381,50.05534],[19.934965,50.055248],[19.934885,50.055418],[19.934861,50.055473],[19.934858,50.055478],[19.934849,50.055499],[19.934846,50.055505],[19.934815,50.055573],[19.934813,50.055578],[19.934803,50.055599],[19.934739,50.055734],[19.934736,50.05574],[19.934723,50.055769],[19.934718,50.055777],[19.934674,50.055876],[19.93467,50.055884],[19.93461,50.05601],[19.93459,50.056033],[19.934499,50.056224],[19.934419,50.056395],[19.934374,50.056491],[19.934314,50.056622],[19.934187,50.056891],[19.934147,50.056978],[19.934053,50.057179],[19.933922,50.057458],[19.93382,50.057675],[19.933803,50.057713],[19.933782,50.057809],[19.933742,50.057896],[19.933588,50.058216],[19.933524,50.058375],[19.933463,50.058499],[19.933438,50.058556],[19.933403,50.058633],[19.933373,50.058716],[19.933354,50.058769],[19.933253,50.059101],[19.933239,50.059153],[19.933111,50.059342],[19.932837,50.059793],[19.932799,50.059884],[19.932761,50.059961],[19.932702,50.060087],[19.932643,50.060213],[19.932571,50.060362],[19.932534,50.060438],[19.932505,50.060499],[19.932491,50.060538],[19.932473,50.060573],[19.932439,50.060642],[19.932356,50.060822],[19.932298,50.06095],[19.932287,50.060972],[19.932263,50.061021],[19.932256,50.061019],[19.932191,50.061167],[19.932196,50.061169],[19.932166,50.061235],[19.932121,50.061332],[19.932078,50.061423],[19.932027,50.061536],[19.931975,50.061647],[19.931927,50.061753],[19.931918,50.06177],[19.931906,50.061797],[19.931887,50.061855],[19.931882,50.061871],[19.931877,50.061894],[19.931871,50.061935],[19.931876,50.061986],[19.931888,50.062013],[19.931893,50.062039],[19.931905,50.062074],[19.931947,50.062162],[19.932003,50.062283],[19.93206,50.062419],[19.932094,50.062493],[19.932121,50.06254],[19.932157,50.062574],[19.9322,50.062614],[19.932254,50.062664],[19.932274,50.062684],[19.932535,50.062899],[19.93271,50.063044],[19.93284,50.063151],[19.932863,50.063168],[19.932867,50.063171],[19.932895,50.063187],[19.932932,50.063223],[19.93311,50.063392],[19.933239,50.06352],[19.933243,50.063525],[19.933297,50.063574],[19.933275,50.063586],[19.933487,50.063783],[19.933549,50.063839],[19.933675,50.063948],[19.93388,50.064141],[19.934039,50.064285],[19.934232,50.064457],[19.934274,50.064494],[19.934413,50.064625],[19.934516,50.064717],[19.934617,50.064807],[19.934677,50.064863],[19.934846,50.065013],[19.93493,50.06509],[19.935015,50.065164],[19.935141,50.065276],[19.93527,50.065393],[19.935402,50.065511],[19.935544,50.065598],[19.935601,50.065649],[19.935631,50.065676],[19.93569,50.065728],[19.935745,50.06578],[19.93582,50.065848],[19.935905,50.065926],[19.935927,50.065944],[19.935996,50.066007],[19.936035,50.066038],[19.93613,50.066084],[19.936199,50.066097],[19.936269,50.066103],[19.936756,50.066119],[19.937422,50.066139],[19.937641,50.066145],[19.937829,50.066151],[19.938042,50.066159],[19.938304,50.066167],[19.938517,50.066174],[19.93855,50.066175],[19.938593,50.066176],[19.938742,50.066181],[19.938856,50.066184],[19.938946,50.066192],[19.939352,50.0662],[19.939388,50.066202],[19.939459,50.066205],[19.93965,50.066211],[19.93971,50.066212],[19.939776,50.066209],[19.939835,50.066206],[19.939895,50.0662],[19.939968,50.066189],[19.940031,50.066178],[19.940086,50.066166],[19.940138,50.066155],[19.940209,50.066139]]]}},{"type":"Feature","properties":{"OBJECTID":2,"Podstrefa_":"A","Nr_sektora":2,"Uwagi":" ","Shape__Area":737906.26953125,"Shape__Length":3992.042895298351},"geometry":{"type":"Polygon","coordinates":[[[19.92762,50.055103],[19.927518,50.055245],[19.927276,50.055614],[19.927071,50.055992],[19.92701,50.05611],[19.926744,50.056623],[19.92659,50.056922],[19.926353,50.05738],[19.926247,50.057548],[19.925852,50.058179],[19.925068,50.059331],[19.924734,50.059888],[19.924391,50.060501],[19.924089,50.061086],[19.924052,50.061157],[19.924014,50.06123],[19.923707,50.061818],[19.923577,50.062089],[19.923528,50.062206],[19.923479,50.062372],[19.92346,50.062528],[19.923462,50.062671],[19.923482,50.062849],[19.923525,50.063065],[19.923836,50.063841],[19.924496,50.065638],[19.924552,50.065793],[19.924566,50.06583],[19.92459,50.065887],[19.924966,50.066757],[19.925112,50.067052],[19.925151,50.067131],[19.925271,50.067337],[19.925424,50.067601],[19.925677,50.067988],[19.926467,50.069113],[19.926613,50.068993],[19.927322,50.068381],[19.928428,50.067408],[19.929044,50.066881],[19.929144,50.0668],[19.930185,50.065956],[19.930531,50.065675],[19.930881,50.065383],[19.931319,50.065017],[19.931622,50.06475],[19.932778,50.06361],[19.932821,50.063568],[19.932852,50.063528],[19.933042,50.063328],[19.932932,50.063223],[19.932895,50.063187],[19.932867,50.063171],[19.932863,50.063168],[19.93284,50.063151],[19.93271,50.063044],[19.932535,50.062899],[19.932274,50.062684],[19.932254,50.062664],[19.9322,50.062614],[19.932157,50.062574],[19.932121,50.06254],[19.932094,50.062493],[19.93206,50.062419],[19.932003,50.062283],[19.931947,50.062162],[19.931905,50.062074],[19.931893,50.062039],[19.931888,50.062013],[19.931876,50.061986],[19.931871,50.061935],[19.931877,50.061894],[19.931882,50.061871],[19.931887,50.061855],[19.931906,50.061797],[19.931918,50.06177],[19.931927,50.061753],[19.931975,50.061647],[19.932027,50.061536],[19.932078,50.061423],[19.932121,50.061332],[19.932166,50.061235],[19.932196,50.061169],[19.932191,50.061167],[19.932256,50.061019],[19.932263,50.061021],[19.932287,50.060972],[19.932298,50.06095],[19.932356,50.060822],[19.932439,50.060642],[19.932473,50.060573],[19.932491,50.060538],[19.932505,50.060499],[19.932534,50.060438],[19.932571,50.060362],[19.932643,50.060213],[19.932702,50.060087],[19.932761,50.059961],[19.932799,50.059884],[19.932837,50.059793],[19.933111,50.059342],[19.933239,50.059153],[19.933253,50.059101],[19.933354,50.058769],[19.933373,50.058716],[19.933403,50.058633],[19.933438,50.058556],[19.933463,50.058499],[19.933524,50.058375],[19.933588,50.058216],[19.933742,50.057896],[19.933782,50.057809],[19.933803,50.057713],[19.93382,50.057675],[19.933922,50.057458],[19.934053,50.057179],[19.934147,50.056978],[19.934187,50.056891],[19.934314,50.056622],[19.934374,50.056491],[19.934419,50.056395],[19.934499,50.056224],[19.93459,50.056033],[19.93461,50.05601],[19.93467,50.055884],[19.934674,50.055876],[19.934718,50.055777],[19.934723,50.055769],[19.934736,50.05574],[19.934739,50.055734],[19.934803,50.055599],[19.934813,50.055578],[19.934815,50.055573],[19.934846,50.055505],[19.934849,50.055499],[19.934858,50.055478],[19.934861,50.055473],[19.934885,50.055418],[19.934965,50.055248],[19.934872,50.055227],[19.934724,50.055195],[19.934457,50.055136],[19.934076,50.055052],[19.934023,50.05504],[19.933692,50.054968],[19.933616,50.054951],[19.933503,50.05492],[19.933386,50.054951],[19.931915,50.055294],[19.929651,50.055829],[19.929585,50.055812],[19.929375,50.055868],[19.929131,50.05593],[19.928896,50.055892],[19.928877,50.055875],[19.928708,50.055722],[19.928591,50.05563],[19.928495,50.055562],[19.928403,50.055502],[19.928372,50.055484],[19.928229,50.055397],[19.928102,50.05532],[19.928002,50.055253],[19.92762,50.055103]]]}},{"type":"Feature","properties":{"OBJECTID":3,"Podstrefa_":"A","Nr_sektora":3,"Uwagi":" ","Shape__Area":1208501.765625,"Shape__Length":4700.424418642629},"geometry":{"type":"Polygon","coordinates":[[[19.933042,50.063328],[19.932852,50.063528],[19.932821,50.063568],[19.932778,50.06361],[19.931622,50.06475],[19.931319,50.065017],[19.930881,50.065383],[19.930531,50.065675],[19.930185,50.065956],[19.929144,50.0668],[19.929044,50.066881],[19.928428,50.067408],[19.927322,50.068381],[19.926613,50.068993],[19.926467,50.069113],[19.927067,50.069999],[19.927259,50.070257],[19.927379,50.070379],[19.927515,50.070449],[19.928019,50.070742],[19.928238,50.070872],[19.928828,50.071219],[19.928904,50.071264],[19.928976,50.071303],[19.929728,50.071711],[19.930552,50.072134],[19.931389,50.072562],[19.931975,50.07284],[19.93246,50.073044],[19.932895,50.0732],[19.93315,50.073271],[19.933404,50.073342],[19.933991,50.073484],[19.934313,50.073553],[19.934567,50.073586],[19.935766,50.073676],[19.936601,50.073763],[19.936634,50.073767],[19.936928,50.073791],[19.937151,50.073789],[19.937267,50.07378],[19.9375,50.073763],[19.937502,50.073763],[19.937805,50.073734],[19.938082,50.073708],[19.93826,50.073679],[19.939047,50.073565],[19.941678,50.073208],[19.942074,50.073151],[19.942379,50.073117],[19.942752,50.073105],[19.942989,50.073104],[19.94328,50.073125],[19.943622,50.073163],[19.943788,50.073191],[19.943954,50.073218],[19.944167,50.07327],[19.944323,50.073313],[19.944394,50.073335],[19.944463,50.073356],[19.94468,50.073429],[19.944745,50.073454],[19.94481,50.07348],[19.944907,50.073521],[19.944978,50.073554],[19.945028,50.073577],[19.945107,50.073615],[19.945156,50.073642],[19.945411,50.073779],[19.94547,50.073814],[19.945483,50.073822],[19.945528,50.07385],[19.945621,50.073913],[19.945698,50.073819],[19.945904,50.073577],[19.946229,50.072968],[19.946239,50.07295],[19.946488,50.072503],[19.946777,50.071955],[19.946939,50.071674],[19.947218,50.071161],[19.947308,50.070955],[19.94756,50.070262],[19.94758,50.070206],[19.947667,50.069859],[19.947713,50.06959],[19.947732,50.069301],[19.947735,50.069213],[19.947738,50.069149],[19.94774,50.069084],[19.947743,50.069024],[19.947745,50.068965],[19.947775,50.068222],[19.947797,50.067659],[19.947803,50.067501],[19.947811,50.067216],[19.947814,50.067121],[19.947826,50.066655],[19.947829,50.066517],[19.947803,50.066243],[19.947691,50.065512],[19.947609,50.064917],[19.947609,50.064897],[19.947609,50.064857],[19.947606,50.064856],[19.947579,50.064854],[19.947535,50.064849],[19.947471,50.064843],[19.947443,50.06484],[19.947393,50.064835],[19.947124,50.064811],[19.946945,50.064794],[19.946411,50.064747],[19.945676,50.064682],[19.945066,50.064629],[19.944634,50.064544],[19.944386,50.064723],[19.943664,50.064976],[19.943097,50.065171],[19.942897,50.065244],[19.942283,50.065452],[19.941999,50.065546],[19.941755,50.065629],[19.941523,50.065712],[19.941235,50.06581],[19.941145,50.065843],[19.941131,50.065847],[19.941036,50.06588],[19.940832,50.065949],[19.940631,50.066017],[19.940458,50.066072],[19.940305,50.066114],[19.940209,50.066139],[19.940138,50.066155],[19.940086,50.066166],[19.940031,50.066178],[19.939968,50.066189],[19.939895,50.0662],[19.939835,50.066206],[19.939776,50.066209],[19.93971,50.066212],[19.93965,50.066211],[19.939459,50.066205],[19.939388,50.066202],[19.939352,50.0662],[19.938946,50.066192],[19.938856,50.066184],[19.938742,50.066181],[19.938593,50.066176],[19.93855,50.066175],[19.938517,50.066174],[19.938304,50.066167],[19.938042,50.066159],[19.937829,50.066151],[19.937641,50.066145],[19.937422,50.066139],[19.936756,50.066119],[19.936269,50.066103],[19.936199,50.066097],[19.93613,50.066084],[19.936035,50.066038],[19.935996,50.066007],[19.935927,50.065944],[19.935905,50.065926],[19.93582,50.065848],[19.935745,50.06578],[19.93569,50.065728],[19.935631,50.065676],[19.935601,50.065649],[19.935544,50.065598],[19.935402,50.065511],[19.93527,50.065393],[19.935141,50.065276],[19.935015,50.065164],[19.93493,50.06509],[19.934846,50.065013],[19.934677,50.064863],[19.934617,50.064807],[19.934516,50.064717],[19.934413,50.064625],[19.934274,50.064494],[19.934232,50.064457],[19.934039,50.064285],[19.93388,50.064141],[19.933675,50.063948],[19.933549,50.063839],[19.933487,50.063783],[19.933275,50.063586],[19.933297,50.063574],[19.933243,50.063525],[19.933239,50.06352],[19.93311,50.063392],[19.933042,50.063328]]]}},{"type":"Feature","properties":{"OBJECTID":4,"Podstrefa_":"A","Nr_sektora":4,"Uwagi":" ","Shape__Area":759798.140625,"Shape__Length":5562.196918982556},"geometry":{"type":"Polygon","coordinates":[[[19.944634,50.064544],[19.945066,50.064629],[19.945676,50.064682],[19.946411,50.064747],[19.946945,50.064794],[19.947124,50.064811],[19.947393,50.064835],[19.947443,50.06484],[19.947471,50.064843],[19.947535,50.064849],[19.947579,50.064854],[19.947606,50.064856],[19.947609,50.064857],[19.947608,50.064776],[19.947603,50.064676],[19.947757,50.062328],[19.94779,50.061835],[19.947801,50.061674],[19.947825,50.061452],[19.947832,50.061409],[19.947834,50.061317],[19.94784,50.061251],[19.947846,50.061176],[19.947854,50.061084],[19.947856,50.061056],[19.947865,50.060932],[19.947869,50.060876],[19.947874,50.060797],[19.947884,50.060664],[19.947894,50.060521],[19.947896,50.060488],[19.947898,50.060468],[19.947899,50.060429],[19.947903,50.060305],[19.947908,50.060159],[19.94791,50.060119],[19.947912,50.060055],[19.947913,50.060029],[19.947917,50.059911],[19.94792,50.059842],[19.947923,50.059756],[19.947926,50.059676],[19.94793,50.059568],[19.947931,50.059535],[19.947932,50.059515],[19.94794,50.059343],[19.947947,50.059204],[19.947951,50.059055],[19.947962,50.058835],[19.947973,50.058536],[19.947832,50.058503],[19.947584,50.058449],[19.947386,50.058405],[19.947262,50.058368],[19.947174,50.058339],[19.947068,50.058295],[19.946972,50.058245],[19.946874,50.058187],[19.946827,50.058149],[19.946749,50.058087],[19.946665,50.057993],[19.946219,50.057451],[19.946134,50.057348],[19.945981,50.057157],[19.945884,50.057036],[19.945781,50.056905],[19.945577,50.056637],[19.945455,50.056487],[19.945417,50.05644],[19.945353,50.056365],[19.94518,50.056142],[19.944612,50.055415],[19.94442,50.05517],[19.943695,50.054238],[19.942704,50.052933],[19.942414,50.052601],[19.942389,50.052571],[19.942035,50.052165],[19.941953,50.052072],[19.941782,50.051887],[19.941666,50.051762],[19.941572,50.051681],[19.941441,50.051585],[19.94073,50.051066],[19.940553,50.050955],[19.940433,50.050898],[19.94032,50.050862],[19.940223,50.050837],[19.940116,50.050816],[19.939945,50.050789],[19.939572,50.050737],[19.938459,50.050586],[19.937667,50.050478],[19.9375,50.050453],[19.937064,50.050386],[19.936759,50.050322],[19.936334,50.050229],[19.936017,50.050148],[19.935316,50.049939],[19.934349,50.049635],[19.934329,50.049628],[19.932786,50.051912],[19.932155,50.053135],[19.93183,50.053817],[19.931477,50.054116],[19.931031,50.054349],[19.930458,50.054477],[19.929707,50.054484],[19.929002,50.054348],[19.928363,50.054137],[19.927989,50.054616],[19.927958,50.054656],[19.92787,50.05477],[19.927786,50.054877],[19.927619,50.055103],[19.92762,50.055103],[19.928002,50.055253],[19.928102,50.05532],[19.928229,50.055397],[19.928372,50.055484],[19.928403,50.055502],[19.928495,50.055562],[19.928591,50.05563],[19.928708,50.055722],[19.928877,50.055875],[19.928896,50.055892],[19.929131,50.05593],[19.929375,50.055868],[19.929585,50.055812],[19.929651,50.055829],[19.931915,50.055294],[19.933386,50.054951],[19.933503,50.05492],[19.933616,50.054951],[19.933692,50.054968],[19.934023,50.05504],[19.934076,50.055052],[19.934457,50.055136],[19.934724,50.055195],[19.934872,50.055227],[19.934965,50.055248],[19.935381,50.05534],[19.93559,50.055386],[19.93569,50.055405],[19.935791,50.055418],[19.935925,50.055427],[19.936048,50.055429],[19.93614,50.055425],[19.936232,50.055416],[19.936366,50.055398],[19.93637,50.055411],[19.936619,50.05538],[19.93685,50.055349],[19.937268,50.055293],[19.937325,50.055283],[19.937364,50.055274],[19.937401,50.05526],[19.937446,50.055236],[19.937452,50.055235],[19.937464,50.055232],[19.937473,50.05523],[19.937494,50.055221],[19.937509,50.055213],[19.937523,50.055201],[19.937532,50.055192],[19.937537,50.055188],[19.937542,50.055176],[19.937547,50.055162],[19.937548,50.055156],[19.93768,50.055011],[19.937694,50.054996],[19.937705,50.054984],[19.937753,50.054933],[19.937807,50.054882],[19.937865,50.054833],[19.93793,50.054784],[19.938029,50.054713],[19.938104,50.054658],[19.938083,50.054649],[19.938133,50.054616],[19.938158,50.054591],[19.938176,50.05457],[19.938184,50.054547],[19.938184,50.054516],[19.938205,50.054516],[19.938344,50.054441],[19.938382,50.054435],[19.938412,50.05443],[19.938531,50.054353],[19.938556,50.054333],[19.938604,50.054279],[19.938611,50.054258],[19.938652,50.054231],[19.938776,50.054147],[19.938835,50.054108],[19.938859,50.054092],[19.938874,50.054082],[19.939189,50.054228],[19.939215,50.054243],[19.939355,50.054365],[19.939425,50.054426],[19.939505,50.054489],[19.939508,50.054488],[19.939695,50.054638],[19.939692,50.054639],[19.939774,50.054705],[19.939775,50.054705],[19.939805,50.054766],[19.939807,50.054765],[19.939825,50.0548],[19.939823,50.054801],[19.939855,50.054863],[19.939857,50.054863],[19.939869,50.054908],[19.939866,50.054908],[19.939901,50.055045],[19.939903,50.055045],[19.939914,50.05509],[19.939929,50.055153],[19.939927,50.055153],[19.939966,50.055315],[19.939968,50.055314],[19.939984,50.055382],[19.940011,50.055547],[19.940035,50.055558],[19.940043,50.0556],[19.940143,50.056005],[19.940209,50.056275],[19.940276,50.056552],[19.940358,50.056886],[19.940437,50.05721],[19.940503,50.057477],[19.940584,50.057806],[19.940633,50.058008],[19.940682,50.058207],[19.9407,50.058279],[19.940711,50.058321],[19.940733,50.05837],[19.940726,50.058371],[19.940739,50.058405],[19.940746,50.058424],[19.940833,50.058614],[19.940914,50.058766],[19.940928,50.058796],[19.940931,50.058803],[19.941267,50.059074],[19.941304,50.059104],[19.941388,50.059162],[19.941529,50.059261],[19.941656,50.059354],[19.941802,50.059459],[19.941812,50.059468],[19.941942,50.059554],[19.941948,50.059559],[19.942266,50.05979],[19.942564,50.060005],[19.942773,50.060155],[19.942982,50.060307],[19.943173,50.060443],[19.943343,50.060566],[19.943441,50.060636],[19.943542,50.060711],[19.9438,50.060902],[19.943853,50.060954],[19.943917,50.061056],[19.943937,50.061088],[19.943954,50.061112],[19.943951,50.061125],[19.943943,50.061136],[19.943913,50.061144],[19.944093,50.061255],[19.944829,50.062554],[19.944864,50.062716],[19.944888,50.062842],[19.944916,50.062994],[19.944946,50.063155],[19.94496,50.063243],[19.944965,50.063278],[19.944971,50.063383],[19.944968,50.063473],[19.944933,50.063745],[19.944902,50.063974],[19.944874,50.06415],[19.944836,50.064391],[19.944834,50.064398],[19.944758,50.064454],[19.944634,50.064544]]]}},{"type":"Feature","properties":{"OBJECTID":5,"Podstrefa_":"B","Nr_sektora":5,"Uwagi":" ","Shape__Area":670925.05078125,"Shape__Length":3377.771318133581},"geometry":{"type":"Polygon","coordinates":[[[19.934329,50.049628],[19.933382,50.049331],[19.932594,50.049081],[19.932475,50.049045],[19.932374,50.049014],[19.932272,50.048982],[19.931796,50.048835],[19.931653,50.048792],[19.931346,50.04869],[19.930168,50.048301],[19.929939,50.048225],[19.929177,50.047971],[19.929027,50.047921],[19.928047,50.047596],[19.92745,50.047398],[19.925746,50.046836],[19.924644,50.04648],[19.922477,50.045803],[19.921463,50.045516],[19.92139,50.045496],[19.921124,50.045438],[19.920946,50.045709],[19.920715,50.045989],[19.92041,50.046357],[19.920223,50.046583],[19.920064,50.046774],[19.919919,50.046949],[19.91958,50.047363],[19.919249,50.047761],[19.918883,50.048206],[19.918514,50.048656],[19.918333,50.048876],[19.918304,50.049069],[19.918297,50.049067],[19.918188,50.049207],[19.917892,50.049589],[19.917875,50.049611],[19.917861,50.049667],[19.917872,50.049706],[19.917933,50.049758],[19.918312,50.049965],[19.918525,50.050081],[19.91876,50.050223],[19.918808,50.05026],[19.918831,50.05031],[19.918834,50.050347],[19.91884,50.050429],[19.918859,50.050729],[19.918604,50.051591],[19.918915,50.051633],[19.920711,50.051792],[19.92119,50.051864],[19.921838,50.051959],[19.923222,50.052229],[19.924725,50.052633],[19.926119,50.053134],[19.926655,50.053364],[19.927238,50.053614],[19.927345,50.05366],[19.927562,50.053757],[19.927953,50.05394],[19.928363,50.054137],[19.928479,50.054175],[19.929002,50.054348],[19.929707,50.054484],[19.930458,50.054477],[19.931031,50.054349],[19.931243,50.054238],[19.931381,50.054166],[19.931476,50.054117],[19.931626,50.053989],[19.93166,50.053961],[19.93183,50.053817],[19.932155,50.053135],[19.932695,50.052089],[19.932902,50.05174],[19.932939,50.051686],[19.933781,50.050439],[19.934329,50.049628]]]}},{"type":"Feature","properties":{"OBJECTID":6,"Podstrefa_":"A","Nr_sektora":6,"Uwagi":" ","Shape__Area":759217.8515625,"Shape__Length":3932.455710654849},"geometry":{"type":"Polygon","coordinates":[[[19.928363,50.054137],[19.927953,50.05394],[19.927562,50.053757],[19.927345,50.05366],[19.927238,50.053614],[19.926655,50.053364],[19.926119,50.053134],[19.924725,50.052633],[19.923222,50.052229],[19.921838,50.051959],[19.92119,50.051864],[19.920711,50.051792],[19.918915,50.051633],[19.918491,50.051576],[19.916375,50.051291],[19.916161,50.051708],[19.91608,50.051856],[19.915986,50.052019],[19.915967,50.052069],[19.915884,50.05229],[19.915828,50.052496],[19.915801,50.052653],[19.915758,50.052767],[19.915704,50.052906],[19.915679,50.052988],[19.915594,50.053158],[19.915474,50.053335],[19.915329,50.053559],[19.915208,50.05371],[19.915005,50.053912],[19.914856,50.054045],[19.914627,50.054232],[19.914464,50.054344],[19.914301,50.05445],[19.914106,50.054563],[19.913878,50.054675],[19.913684,50.054757],[19.913457,50.054855],[19.913204,50.054945],[19.912857,50.055061],[19.912473,50.055193],[19.912245,50.055274],[19.911935,50.055363],[19.911605,50.055446],[19.911327,50.055517],[19.910976,50.055591],[19.910643,50.055646],[19.910264,50.055706],[19.909805,50.055758],[19.90947,50.055805],[19.909106,50.055863],[19.908788,50.055921],[19.908402,50.05603],[19.908061,50.056156],[19.907834,50.056249],[19.907583,50.05637],[19.907292,50.056529],[19.906957,50.056754],[19.90669,50.056909],[19.906648,50.056936],[19.907022,50.056973],[19.907147,50.056977],[19.907268,50.056984],[19.907361,50.056989],[19.907415,50.056993],[19.90759,50.057008],[19.907759,50.057026],[19.907871,50.057043],[19.908318,50.057106],[19.908691,50.057155],[19.909094,50.057212],[19.909517,50.057274],[19.909924,50.057333],[19.910336,50.057394],[19.910746,50.05745],[19.911159,50.057509],[19.91154,50.057564],[19.911958,50.057623],[19.912336,50.057679],[19.912702,50.05773],[19.913099,50.057786],[19.913481,50.057843],[19.913861,50.057896],[19.91424,50.057948],[19.914622,50.058004],[19.91502,50.058062],[19.915426,50.058119],[19.915813,50.058176],[19.916182,50.058225],[19.916816,50.058319],[19.917591,50.05844],[19.918024,50.058493],[19.918298,50.058532],[19.918754,50.058596],[19.919101,50.058646],[19.919346,50.058681],[19.919858,50.058754],[19.920198,50.058802],[19.920736,50.058882],[19.92112,50.058936],[19.921446,50.058982],[19.921816,50.059036],[19.922224,50.059094],[19.922513,50.059136],[19.922893,50.05919],[19.923109,50.059222],[19.923118,50.059223],[19.924198,50.059401],[19.924586,50.059459],[19.924949,50.059529],[19.925068,50.059331],[19.925852,50.058179],[19.926247,50.057548],[19.926353,50.05738],[19.92659,50.056922],[19.926744,50.056623],[19.92701,50.05611],[19.927071,50.055992],[19.927276,50.055614],[19.927518,50.055245],[19.92762,50.055103],[19.927619,50.055103],[19.927786,50.054877],[19.92787,50.05477],[19.927958,50.054656],[19.927989,50.054616],[19.928363,50.054137]]]}},{"type":"Feature","properties":{"OBJECTID":7,"Podstrefa_":"C","Nr_sektora":7,"Uwagi":" ","Shape__Area":244414.82421875,"Shape__Length":4817.852017099122},"geometry":{"type":"Polygon","coordinates":[[[19.901643,50.059674],[19.902126,50.059478],[19.902848,50.059181],[19.903342,50.058942],[19.90362,50.058785],[19.904082,50.05852],[19.904496,50.058265],[19.904804,50.058074],[19.905305,50.057761],[19.905869,50.057421],[19.906114,50.057265],[19.906419,50.05708],[19.906648,50.056936],[19.90669,50.056909],[19.906957,50.056754],[19.907292,50.056529],[19.907583,50.05637],[19.907834,50.056249],[19.908061,50.056156],[19.908402,50.05603],[19.908788,50.055921],[19.909106,50.055863],[19.90947,50.055805],[19.909805,50.055758],[19.910264,50.055706],[19.910643,50.055646],[19.910976,50.055591],[19.911327,50.055517],[19.911605,50.055446],[19.911935,50.055363],[19.912245,50.055274],[19.912473,50.055193],[19.912857,50.055061],[19.913204,50.054945],[19.913457,50.054855],[19.913684,50.054757],[19.913878,50.054675],[19.914106,50.054563],[19.914301,50.05445],[19.914464,50.054344],[19.914627,50.054232],[19.914856,50.054045],[19.915005,50.053912],[19.915208,50.05371],[19.915329,50.053559],[19.915474,50.053335],[19.915594,50.053158],[19.915679,50.052988],[19.915704,50.052906],[19.915731,50.052837],[19.915796,50.052666],[19.915701,50.052651],[19.915638,50.052651],[19.915496,50.052653],[19.915104,50.052631],[19.914914,50.05261],[19.914773,50.052594],[19.914184,50.052485],[19.913884,50.052442],[19.913692,50.052398],[19.913513,50.052684],[19.913492,50.052715],[19.913477,50.052743],[19.913472,50.052751],[19.913456,50.052795],[19.913429,50.052848],[19.913425,50.052859],[19.913416,50.052884],[19.913408,50.052905],[19.913398,50.052928],[19.913361,50.053014],[19.913353,50.053031],[19.913312,50.053124],[19.913289,50.053151],[19.913253,50.053241],[19.913196,50.053379],[19.913176,50.053419],[19.913156,50.053467],[19.913156,50.053477],[19.913121,50.053591],[19.913101,50.053641],[19.913045,50.05378],[19.913017,50.053838],[19.913009,50.053847],[19.912933,50.053903],[19.912878,50.053937],[19.91287,50.053941],[19.912665,50.053997],[19.912504,50.054043],[19.912433,50.054062],[19.912303,50.054102],[19.911932,50.054217],[19.911878,50.054234],[19.911871,50.054236],[19.911856,50.054245],[19.911809,50.054255],[19.911548,50.054332],[19.911521,50.05434],[19.911506,50.054343],[19.911333,50.054382],[19.911335,50.054386],[19.911323,50.054388],[19.911305,50.054392],[19.911199,50.054414],[19.9111,50.05443],[19.911015,50.054443],[19.910817,50.054471],[19.910807,50.054471],[19.91079,50.054484],[19.910753,50.054491],[19.910717,50.054498],[19.910671,50.054508],[19.910633,50.054513],[19.910555,50.054526],[19.910455,50.054544],[19.910412,50.054552],[19.910332,50.054568],[19.910331,50.054564],[19.910151,50.054597],[19.90997,50.05463],[19.90986,50.054649],[19.909846,50.054652],[19.909829,50.054655],[19.909725,50.05468],[19.909712,50.054681],[19.909663,50.054684],[19.909644,50.054693],[19.909432,50.054737],[19.909189,50.054781],[19.909187,50.05479],[19.909129,50.054799],[19.909006,50.05482],[19.908853,50.054846],[19.908757,50.054865],[19.908755,50.054859],[19.908648,50.054873],[19.908495,50.054904],[19.908431,50.054917],[19.908381,50.054928],[19.908335,50.054939],[19.908343,50.054952],[19.908313,50.05496],[19.908311,50.054961],[19.908254,50.054975],[19.908193,50.054991],[19.908118,50.055012],[19.908041,50.055034],[19.908004,50.055045],[19.907964,50.055056],[19.907949,50.05506],[19.907884,50.055079],[19.907812,50.055099],[19.907734,50.055123],[19.90761,50.055156],[19.907393,50.055209],[19.907131,50.055264],[19.906929,50.055306],[19.906587,50.055377],[19.906223,50.05546],[19.905995,50.055515],[19.905926,50.055528],[19.90571,50.055586],[19.905425,50.055642],[19.905372,50.055653],[19.905127,50.055719],[19.905071,50.055735],[19.90492,50.055773],[19.904766,50.055812],[19.903824,50.056107],[19.903622,50.055929],[19.903562,50.055886],[19.903489,50.055858],[19.903305,50.055773],[19.903294,50.055767],[19.903179,50.055715],[19.903102,50.055681],[19.903046,50.055655],[19.903008,50.055638],[19.902931,50.055608],[19.902805,50.05556],[19.90265,50.05547],[19.902635,50.055463],[19.902632,50.055458],[19.902621,50.055441],[19.902473,50.055408],[19.902024,50.055305],[19.901863,50.055184],[19.901387,50.054077],[19.901166,50.054081],[19.90174,50.055293],[19.901805,50.055345],[19.901943,50.05543],[19.902234,50.055498],[19.90256,50.055522],[19.902646,50.055564],[19.902811,50.055635],[19.902853,50.055657],[19.902858,50.055658],[19.902949,50.055704],[19.903026,50.055737],[19.903084,50.055762],[19.90317,50.055794],[19.903287,50.055836],[19.903364,50.055864],[19.903455,50.055912],[19.903526,50.055954],[19.903629,50.056038],[19.903665,50.056137],[19.903661,50.056156],[19.903365,50.056266],[19.90322,50.05632],[19.903084,50.056382],[19.90296,50.056426],[19.902863,50.056463],[19.90283,50.056474],[19.902652,50.056526],[19.902464,50.05657],[19.902243,50.056643],[19.902089,50.056696],[19.90204,50.056713],[19.901962,50.056742],[19.901935,50.056752],[19.90177,50.05681],[19.901687,50.056842],[19.901631,50.056862],[19.901456,50.056926],[19.901304,50.056978],[19.901112,50.057042],[19.90093,50.057111],[19.900727,50.057199],[19.900653,50.057237],[19.900582,50.057274],[19.900539,50.057294],[19.900388,50.05738],[19.900348,50.057404],[19.900204,50.05749],[19.900033,50.057593],[19.90001,50.0576],[19.899915,50.057535],[19.899866,50.0575],[19.899812,50.057457],[19.899765,50.057416],[19.899739,50.057397],[19.899705,50.057362],[19.899601,50.05725],[19.899586,50.057227],[19.899567,50.057216],[19.899452,50.057144],[19.899337,50.057097],[19.899164,50.057067],[19.899019,50.05705],[19.898816,50.057074],[19.898718,50.05709],[19.898557,50.05712],[19.898281,50.057175],[19.898189,50.057185],[19.898091,50.057196],[19.897865,50.057198],[19.89756,50.057211],[19.897124,50.057226],[19.896577,50.057239],[19.896419,50.057188],[19.896401,50.057182],[19.896262,50.057134],[19.896228,50.057127],[19.896091,50.057096],[19.895988,50.057051],[19.895883,50.056997],[19.895812,50.05696],[19.895752,50.056924],[19.895724,50.056902],[19.895633,50.056803],[19.895714,50.056698],[19.895462,50.056559],[19.89527,50.056747],[19.895582,50.056883],[19.895592,50.056899],[19.895742,50.057014],[19.895939,50.057112],[19.896085,50.057179],[19.896238,50.057228],[19.89629,50.057241],[19.896374,50.057277],[19.896466,50.057299],[19.89655,50.057311],[19.896647,50.057314],[19.896776,50.05731],[19.896938,50.057305],[19.897155,50.0573],[19.897268,50.057297],[19.897357,50.057293],[19.897586,50.057285],[19.89788,50.057277],[19.897986,50.057271],[19.898044,50.057273],[19.898139,50.057271],[19.898227,50.057269],[19.898449,50.057224],[19.898755,50.057172],[19.898919,50.057152],[19.898971,50.057147],[19.899055,50.057142],[19.89914,50.057146],[19.899252,50.057166],[19.899336,50.057191],[19.899419,50.057224],[19.899486,50.057255],[19.899547,50.05731],[19.899628,50.057412],[19.899689,50.057473],[19.899718,50.057498],[19.89979,50.057553],[19.899908,50.05764],[19.899908,50.057665],[19.899811,50.057724],[19.899681,50.057801],[19.899538,50.057886],[19.899306,50.058023],[19.89925,50.058051],[19.899157,50.058097],[19.898981,50.058166],[19.898932,50.058187],[19.898914,50.058194],[19.898789,50.058238],[19.898642,50.058286],[19.898373,50.058344],[19.898336,50.058342],[19.898262,50.058358],[19.898337,50.058441],[19.898424,50.058506],[19.898523,50.058556],[19.898692,50.058701],[19.898874,50.058855],[19.898809,50.058889],[19.898625,50.058981],[19.898571,50.059007],[19.898521,50.059017],[19.898385,50.059044],[19.898261,50.059063],[19.898125,50.05909],[19.897832,50.059153],[19.897706,50.059179],[19.897584,50.059207],[19.897601,50.059238],[19.897844,50.059181],[19.898174,50.059112],[19.898223,50.059102],[19.898396,50.059071],[19.898566,50.05904],[19.898574,50.059038],[19.898721,50.058971],[19.898809,50.058931],[19.898912,50.058884],[19.899144,50.05905],[19.899134,50.059057],[19.899239,50.059132],[19.899257,50.059147],[19.899363,50.059227],[19.899547,50.059376],[19.899831,50.059566],[19.899949,50.059662],[19.900044,50.059764],[19.900115,50.05987],[19.900235,50.059969],[19.900403,50.060143],[19.900697,50.060025],[19.901643,50.059674]]]}},{"type":"Feature","properties":{"OBJECTID":8,"Podstrefa_":"C","Nr_sektora":8,"Uwagi":" ","Shape__Area":838382.66796875,"Shape__Length":4414.651877586236},"geometry":{"type":"Polygon","coordinates":[[[19.923983,50.065823],[19.923972,50.065831],[19.923948,50.065849],[19.923925,50.065864],[19.923897,50.06588],[19.923864,50.065897],[19.923824,50.065914],[19.923773,50.065935],[19.923651,50.065978],[19.923397,50.066067],[19.923248,50.066119],[19.923162,50.066148],[19.922504,50.066349],[19.922429,50.066369],[19.922411,50.066377],[19.922223,50.066434],[19.921932,50.066512],[19.921792,50.066548],[19.921659,50.066585],[19.921625,50.066594],[19.921519,50.066622],[19.921133,50.066727],[19.921113,50.066732],[19.920911,50.066788],[19.920708,50.06684],[19.920702,50.066842],[19.920686,50.066846],[19.920573,50.066877],[19.920553,50.066882],[19.92052,50.066892],[19.920315,50.066946],[19.920253,50.066962],[19.91998,50.06703],[19.919949,50.067038],[19.919661,50.067112],[19.919495,50.067156],[19.91935,50.067195],[19.919195,50.067232],[19.919039,50.067272],[19.919022,50.067275],[19.918806,50.06693],[19.918655,50.066963],[19.918866,50.067315],[19.918817,50.067327],[19.918756,50.067343],[19.918728,50.06735],[19.91856,50.067393],[19.918417,50.067429],[19.91833,50.067451],[19.918181,50.06749],[19.918124,50.067503],[19.918017,50.067517],[19.917804,50.067543],[19.917757,50.067546],[19.917699,50.067548],[19.917557,50.067551],[19.917453,50.067548],[19.917393,50.067545],[19.916911,50.067525],[19.916828,50.067521],[19.916776,50.067519],[19.916716,50.067519],[19.916431,50.067504],[19.916309,50.067498],[19.916031,50.067484],[19.915918,50.067479],[19.915696,50.067471],[19.915374,50.067457],[19.915163,50.067448],[19.915056,50.067441],[19.914546,50.067524],[19.914589,50.06762],[19.914392,50.067662],[19.914187,50.06774],[19.914054,50.067794],[19.913665,50.067964],[19.912576,50.068399],[19.911458,50.068863],[19.911268,50.068926],[19.910895,50.069027],[19.910682,50.069064],[19.909838,50.069192],[19.908815,50.069342],[19.905776,50.069795],[19.905223,50.069866],[19.904804,50.069916],[19.904547,50.069953],[19.904118,50.070018],[19.90396,50.070059],[19.903876,50.070072],[19.903919,50.070162],[19.903966,50.070262],[19.90397,50.07027],[19.904052,50.070453],[19.904218,50.070829],[19.904302,50.071058],[19.904358,50.07116],[19.904472,50.071453],[19.904481,50.071478],[19.904493,50.071507],[19.9045,50.071527],[19.904549,50.071668],[19.904598,50.071811],[19.904693,50.07207],[19.90472,50.072269],[19.904721,50.072482],[19.904948,50.073118],[19.904954,50.073133],[19.904963,50.073204],[19.904995,50.073297],[19.905019,50.073366],[19.905045,50.073442],[19.905079,50.07354],[19.905109,50.07363],[19.905201,50.073896],[19.905435,50.074406],[19.90553,50.074679],[19.905632,50.074976],[19.905678,50.075108],[19.905784,50.075416],[19.906021,50.075848],[19.906214,50.075761],[19.906367,50.075675],[19.906522,50.075561],[19.906598,50.075504],[19.907111,50.075114],[19.907172,50.075067],[19.9074,50.074892],[19.907545,50.074797],[19.907622,50.074763],[19.9077,50.074728],[19.907845,50.074683],[19.908042,50.074636],[19.908808,50.074489],[19.909016,50.07445],[19.910363,50.0742],[19.910686,50.074131],[19.914292,50.073306],[19.915568,50.072986],[19.917622,50.072442],[19.917723,50.072413],[19.918517,50.072184],[19.918826,50.072095],[19.919608,50.071869],[19.920339,50.071662],[19.920459,50.071628],[19.920553,50.071601],[19.920907,50.0715],[19.92099,50.071477],[19.921483,50.071336],[19.921903,50.071217],[19.92203,50.071173],[19.922595,50.070979],[19.922736,50.070932],[19.923756,50.070581],[19.924114,50.070456],[19.924683,50.070256],[19.924896,50.070163],[19.924954,50.070137],[19.925246,50.070001],[19.925529,50.069836],[19.925658,50.069758],[19.925831,50.069628],[19.926113,50.069408],[19.926322,50.069234],[19.926467,50.069113],[19.925677,50.067988],[19.925424,50.067601],[19.925271,50.067337],[19.925151,50.067131],[19.925112,50.067052],[19.924966,50.066757],[19.92459,50.065887],[19.924566,50.06583],[19.924524,50.065716],[19.923983,50.065823]]]}},{"type":"Feature","properties":{"OBJECTID":9,"Podstrefa_":"C","Nr_sektora":9,"Uwagi":" ","Shape__Area":1485860.9453125,"Shape__Length":5562.006947339139},"geometry":{"type":"Polygon","coordinates":[[[19.926467,50.069113],[19.926322,50.069234],[19.926113,50.069408],[19.925831,50.069628],[19.925658,50.069758],[19.925529,50.069836],[19.925246,50.070001],[19.924954,50.070137],[19.924896,50.070163],[19.924683,50.070256],[19.924114,50.070456],[19.923756,50.070581],[19.922736,50.070932],[19.922595,50.070979],[19.92203,50.071173],[19.921903,50.071217],[19.921483,50.071336],[19.92099,50.071477],[19.920907,50.0715],[19.920553,50.071601],[19.920459,50.071628],[19.920339,50.071662],[19.919608,50.071869],[19.918826,50.072095],[19.918517,50.072184],[19.917723,50.072413],[19.917622,50.072442],[19.915568,50.072986],[19.914292,50.073306],[19.910686,50.074131],[19.910363,50.0742],[19.909016,50.07445],[19.908808,50.074489],[19.908042,50.074636],[19.907845,50.074683],[19.9077,50.074728],[19.907622,50.074763],[19.907545,50.074797],[19.9074,50.074892],[19.907172,50.075067],[19.907111,50.075114],[19.906598,50.075504],[19.906434,50.075626],[19.906367,50.075675],[19.906329,50.075697],[19.906214,50.075761],[19.906021,50.075848],[19.906064,50.075916],[19.906111,50.075983],[19.906112,50.075983],[19.906938,50.077695],[19.907942,50.079849],[19.908761,50.081604],[19.908947,50.08213],[19.909415,50.082094],[19.909472,50.082212],[19.91016,50.082187],[19.912362,50.082111],[19.912899,50.082092],[19.913482,50.082075],[19.914004,50.082056],[19.914411,50.082042],[19.914849,50.082029],[19.915119,50.082021],[19.915222,50.082016],[19.915325,50.082011],[19.91542,50.082009],[19.915413,50.081941],[19.915403,50.08191],[19.915387,50.081833],[19.915371,50.081755],[19.915364,50.081721],[19.915348,50.081657],[19.9158,50.081622],[19.916122,50.081577],[19.916328,50.081548],[19.916552,50.081505],[19.916789,50.081437],[19.916936,50.081364],[19.917053,50.081306],[19.917208,50.081217],[19.917278,50.081178],[19.91752,50.081039],[19.918072,50.080721],[19.91821,50.080643],[19.918307,50.080589],[19.918481,50.080493],[19.918708,50.080368],[19.918831,50.0803],[19.919053,50.080204],[19.919625,50.079956],[19.919895,50.07984],[19.920202,50.079709],[19.920437,50.079609],[19.921231,50.079303],[19.922281,50.078853],[19.922364,50.078819],[19.922792,50.078647],[19.922904,50.078601],[19.923229,50.078467],[19.923397,50.078397],[19.92398,50.078155],[19.924186,50.078069],[19.924367,50.077994],[19.924942,50.077761],[19.92529,50.077613],[19.925535,50.077508],[19.925781,50.077403],[19.926883,50.076948],[19.927389,50.076739],[19.928017,50.076475],[19.928045,50.076463],[19.928369,50.076328],[19.928806,50.076146],[19.928932,50.076094],[19.929136,50.076009],[19.929164,50.075997],[19.929667,50.0758],[19.929981,50.075722],[19.930142,50.075696],[19.930368,50.07566],[19.930595,50.075622],[19.930664,50.07561],[19.931006,50.075553],[19.931986,50.075384],[19.932083,50.075367],[19.932268,50.075335],[19.933416,50.075141],[19.933822,50.075072],[19.934659,50.074918],[19.935211,50.074817],[19.9354,50.074785],[19.935548,50.074761],[19.93553,50.074577],[19.935555,50.0745],[19.935571,50.074325],[19.935576,50.074325],[19.935586,50.074227],[19.935591,50.074167],[19.935593,50.07415],[19.935603,50.07405],[19.935608,50.073943],[19.935614,50.073876],[19.935632,50.073666],[19.93555,50.07366],[19.934567,50.073586],[19.934313,50.073553],[19.933991,50.073484],[19.933404,50.073342],[19.93315,50.073271],[19.932895,50.0732],[19.93246,50.073044],[19.931975,50.07284],[19.931389,50.072562],[19.930552,50.072134],[19.929728,50.071711],[19.928976,50.071303],[19.928904,50.071264],[19.928828,50.071219],[19.928238,50.070872],[19.928019,50.070742],[19.927515,50.070449],[19.927379,50.070379],[19.927259,50.070257],[19.927067,50.069999],[19.926467,50.069113]]]}},{"type":"Feature","properties":{"OBJECTID":10,"Podstrefa_":"B","Nr_sektora":10,"Uwagi":" ","Shape__Area":1055223.66015625,"Shape__Length":5818.912069488793},"geometry":{"type":"Polygon","coordinates":[[[19.947113,50.08085],[19.946869,50.080431],[19.946588,50.080016],[19.946204,50.079444],[19.945853,50.078906],[19.945627,50.078503],[19.945441,50.078041],[19.945224,50.077389],[19.945038,50.076787],[19.944934,50.07618],[19.944998,50.075663],[19.945167,50.075279],[19.945276,50.075068],[19.94545,50.074744],[19.945783,50.074142],[19.945828,50.074052],[19.945621,50.073913],[19.945528,50.07385],[19.945483,50.073822],[19.94547,50.073814],[19.945411,50.073779],[19.945156,50.073642],[19.945107,50.073615],[19.945028,50.073577],[19.944978,50.073554],[19.944907,50.073521],[19.94481,50.07348],[19.944745,50.073454],[19.94468,50.073429],[19.944463,50.073356],[19.944394,50.073335],[19.944323,50.073313],[19.944167,50.07327],[19.943954,50.073218],[19.943788,50.073191],[19.943622,50.073163],[19.94328,50.073125],[19.942989,50.073104],[19.942752,50.073105],[19.942379,50.073117],[19.942074,50.073151],[19.941678,50.073208],[19.939047,50.073565],[19.93826,50.073679],[19.938082,50.073708],[19.938036,50.073713],[19.937805,50.073734],[19.937502,50.073763],[19.9375,50.073763],[19.937267,50.07378],[19.937151,50.073789],[19.936928,50.073791],[19.936634,50.073767],[19.936601,50.073763],[19.935766,50.073676],[19.935632,50.073666],[19.935614,50.073876],[19.935608,50.073943],[19.935603,50.07405],[19.935593,50.07415],[19.935591,50.074167],[19.935586,50.074227],[19.935576,50.074325],[19.935571,50.074325],[19.935555,50.0745],[19.93553,50.074577],[19.935548,50.074761],[19.9354,50.074785],[19.935211,50.074817],[19.934659,50.074918],[19.933822,50.075072],[19.933416,50.075141],[19.932268,50.075335],[19.932083,50.075367],[19.931986,50.075384],[19.931006,50.075553],[19.930664,50.07561],[19.930595,50.075622],[19.930368,50.07566],[19.930142,50.075696],[19.929981,50.075722],[19.929667,50.0758],[19.929164,50.075997],[19.929136,50.076009],[19.928932,50.076094],[19.928806,50.076146],[19.928369,50.076328],[19.928045,50.076463],[19.928017,50.076475],[19.927389,50.076739],[19.926883,50.076948],[19.925781,50.077403],[19.925535,50.077508],[19.92529,50.077613],[19.924942,50.077761],[19.924367,50.077994],[19.924186,50.078069],[19.92398,50.078155],[19.923397,50.078397],[19.923229,50.078467],[19.922904,50.078601],[19.922792,50.078647],[19.922364,50.078819],[19.922281,50.078853],[19.921231,50.079303],[19.920437,50.079609],[19.920202,50.079709],[19.919895,50.07984],[19.919625,50.079956],[19.919053,50.080204],[19.918831,50.0803],[19.918708,50.080368],[19.918481,50.080493],[19.918307,50.080589],[19.91821,50.080643],[19.918072,50.080721],[19.91752,50.081039],[19.917278,50.081178],[19.917208,50.081217],[19.917053,50.081306],[19.916936,50.081364],[19.916789,50.081437],[19.916552,50.081505],[19.916328,50.081548],[19.916122,50.081577],[19.9158,50.081622],[19.915348,50.081657],[19.915364,50.081721],[19.915371,50.081755],[19.915387,50.081833],[19.915403,50.08191],[19.915413,50.081941],[19.91542,50.082009],[19.91553,50.082006],[19.916007,50.081991],[19.916086,50.081989],[19.91615,50.081986],[19.916586,50.081966],[19.9175,50.081934],[19.918099,50.081914],[19.918935,50.081884],[19.919426,50.081868],[19.920174,50.081839],[19.920712,50.081814],[19.920774,50.081812],[19.921548,50.081783],[19.921604,50.081781],[19.921652,50.081779],[19.922392,50.081752],[19.923554,50.08171],[19.923617,50.081705],[19.924087,50.08169],[19.924811,50.08166],[19.924875,50.081658],[19.926144,50.081609],[19.926183,50.081608],[19.926229,50.081608],[19.926768,50.081588],[19.926943,50.081581],[19.927392,50.081562],[19.927893,50.081541],[19.928173,50.081526],[19.928313,50.081518],[19.928811,50.081482],[19.928988,50.081469],[19.929403,50.081432],[19.929646,50.081408],[19.930248,50.081344],[19.930929,50.081279],[19.931618,50.081206],[19.932177,50.081141],[19.932666,50.081079],[19.933081,50.081017],[19.933665,50.080913],[19.934161,50.080805],[19.934704,50.080662],[19.93526,50.080485],[19.935791,50.080292],[19.936213,50.080119],[19.936684,50.079913],[19.937613,50.079587],[19.938042,50.079446],[19.938546,50.079256],[19.938668,50.079203],[19.938736,50.079174],[19.938811,50.079146],[19.938935,50.079113],[19.939376,50.079001],[19.939805,50.078907],[19.940053,50.078874],[19.940337,50.078837],[19.940657,50.07882],[19.940958,50.078814],[19.941128,50.07881],[19.941338,50.078812],[19.941865,50.078806],[19.94224,50.0788],[19.942718,50.078799],[19.943215,50.078804],[19.943551,50.07883],[19.943738,50.078854],[19.943917,50.078885],[19.944148,50.078926],[19.944295,50.078952],[19.944394,50.078972],[19.944558,50.079017],[19.94482,50.079089],[19.945042,50.079165],[19.945243,50.079254],[19.94548,50.079355],[19.945566,50.079401],[19.945653,50.079447],[19.945772,50.079509],[19.945847,50.079566],[19.945979,50.079651],[19.946227,50.079845],[19.946464,50.080072],[19.946733,50.080405],[19.946865,50.080581],[19.947112,50.08085],[19.947113,50.08085]]]}},{"type":"Feature","properties":{"OBJECTID":11,"Podstrefa_":"B","Nr_sektora":11,"Uwagi":" ","Shape__Area":262899.62890625,"Shape__Length":2362.326392103256},"geometry":{"type":"Polygon","coordinates":[[[19.959401,50.066045],[19.958539,50.065114],[19.9571,50.065444],[19.956875,50.065464],[19.956779,50.065454],[19.956574,50.065435],[19.955957,50.06538],[19.955784,50.065363],[19.95522,50.065314],[19.954801,50.065276],[19.954644,50.065265],[19.954316,50.065235],[19.953842,50.065194],[19.953678,50.065182],[19.953106,50.065139],[19.952813,50.065113],[19.952535,50.065083],[19.952481,50.065078],[19.952467,50.065078],[19.949854,50.064845],[19.949738,50.064835],[19.947828,50.064671],[19.947728,50.064661],[19.947605,50.064651],[19.947603,50.064676],[19.947604,50.064685],[19.947608,50.064776],[19.947609,50.064857],[19.947609,50.064897],[19.947609,50.064917],[19.947691,50.065512],[19.947803,50.066243],[19.947829,50.066517],[19.947826,50.066655],[19.947814,50.067121],[19.947811,50.067216],[19.947803,50.067501],[19.947797,50.067659],[19.947775,50.068222],[19.947745,50.068965],[19.947743,50.069024],[19.949259,50.069023],[19.949293,50.069024],[19.949345,50.069025],[19.949655,50.069039],[19.949877,50.069076],[19.95017,50.068851],[19.950394,50.068717],[19.950551,50.068646],[19.950765,50.068567],[19.951556,50.068306],[19.952358,50.068149],[19.953459,50.067941],[19.955645,50.067536],[19.957197,50.06724],[19.958125,50.067043],[19.959156,50.066812],[19.959401,50.066045]]]}},{"type":"Feature","properties":{"OBJECTID":12,"Podstrefa_":"B","Nr_sektora":12,"Uwagi":" ","Shape__Area":1180688.9140625,"Shape__Length":4542.381096904922},"geometry":{"type":"Polygon","coordinates":[[[19.960917,50.052609],[19.960808,50.052579],[19.959614,50.052253],[19.958077,50.051758],[19.956923,50.051244],[19.956507,50.051033],[19.95609,50.050821],[19.954728,50.050128],[19.95419,50.050521],[19.954143,50.050554],[19.953987,50.050665],[19.953903,50.050725],[19.95383,50.050777],[19.953808,50.050792],[19.953658,50.0509],[19.953107,50.051309],[19.952991,50.051382],[19.952813,50.051493],[19.952633,50.051616],[19.952416,50.051783],[19.952222,50.051922],[19.95201,50.052081],[19.951771,50.052256],[19.951545,50.052424],[19.951418,50.052525],[19.95129,50.052634],[19.951144,50.05276],[19.950976,50.052926],[19.950777,50.053112],[19.950668,50.053225],[19.950478,50.053399],[19.950459,50.053417],[19.950347,50.053528],[19.950208,50.053663],[19.950109,50.05376],[19.949978,50.053892],[19.949902,50.053969],[19.949836,50.054038],[19.949744,50.054141],[19.949617,50.054281],[19.949574,50.054332],[19.949516,50.054404],[19.949332,50.054634],[19.949288,50.054694],[19.949236,50.054763],[19.949168,50.054853],[19.949134,50.054899],[19.949105,50.054942],[19.949105,50.054943],[19.948972,50.055144],[19.948953,50.055174],[19.948901,50.055263],[19.948751,50.05552],[19.948697,50.055619],[19.948678,50.055655],[19.948672,50.055665],[19.948637,50.055731],[19.948466,50.056078],[19.948453,50.056109],[19.948434,50.056152],[19.948407,50.056216],[19.948369,50.056303],[19.948327,50.056443],[19.948323,50.056456],[19.948277,50.056594],[19.948257,50.056652],[19.948248,50.056683],[19.9482,50.056843],[19.948167,50.056954],[19.94816,50.056981],[19.9481,50.057216],[19.948079,50.057337],[19.948063,50.057426],[19.948059,50.057452],[19.948037,50.05764],[19.948025,50.057733],[19.948006,50.057875],[19.948,50.057929],[19.94799,50.058163],[19.947985,50.058249],[19.947982,50.058296],[19.94798,50.058353],[19.947978,50.058402],[19.947978,50.058441],[19.947975,50.058491],[19.947973,50.058536],[19.947962,50.058835],[19.947951,50.059055],[19.947947,50.059204],[19.94794,50.059343],[19.947932,50.059515],[19.947931,50.059535],[19.94793,50.059568],[19.947926,50.059676],[19.947923,50.059756],[19.94792,50.059842],[19.947917,50.059911],[19.947913,50.060029],[19.947912,50.060055],[19.94791,50.060119],[19.947908,50.060159],[19.947903,50.060305],[19.947899,50.060429],[19.947898,50.060468],[19.947896,50.060488],[19.947894,50.060521],[19.947884,50.060664],[19.947874,50.060797],[19.947869,50.060876],[19.947865,50.060932],[19.947856,50.061056],[19.947854,50.061084],[19.947846,50.061176],[19.94784,50.061251],[19.947834,50.061317],[19.947832,50.061409],[19.947825,50.061452],[19.947801,50.061674],[19.94779,50.061835],[19.947757,50.062328],[19.947605,50.064651],[19.947728,50.064661],[19.947828,50.064671],[19.949738,50.064835],[19.949854,50.064845],[19.949978,50.064857],[19.952467,50.065078],[19.952481,50.065078],[19.952535,50.065083],[19.952813,50.065113],[19.953106,50.065139],[19.953678,50.065182],[19.953694,50.065183],[19.953842,50.065194],[19.954316,50.065235],[19.954644,50.065265],[19.954704,50.065269],[19.954801,50.065276],[19.95522,50.065314],[19.955784,50.065363],[19.955957,50.06538],[19.956574,50.065435],[19.956779,50.065454],[19.956875,50.065464],[19.957007,50.065452],[19.9571,50.065444],[19.958539,50.065114],[19.958652,50.065043],[19.958759,50.064889],[19.958971,50.064588],[19.958984,50.064558],[19.959172,50.064122],[19.959199,50.064062],[19.959221,50.064001],[19.959242,50.063929],[19.959284,50.063784],[19.959406,50.063351],[19.959522,50.062945],[19.959551,50.062846],[19.959577,50.06276],[19.959621,50.062607],[19.959639,50.062544],[19.959675,50.062418],[19.95971,50.062296],[19.959761,50.062111],[19.959776,50.062053],[19.959795,50.061991],[19.959802,50.06196],[19.959808,50.061929],[19.95981,50.061897],[19.959812,50.061865],[19.959811,50.061834],[19.959811,50.061803],[19.95981,50.061773],[19.959804,50.061741],[19.959798,50.061709],[19.959788,50.061677],[19.959743,50.061547],[19.959582,50.061078],[19.959435,50.060511],[19.959422,50.060472],[19.959405,50.060425],[19.959377,50.060343],[19.959324,50.060191],[19.9593,50.060121],[19.959195,50.059824],[19.959094,50.059526],[19.959065,50.059438],[19.95903,50.059321],[19.959021,50.059289],[19.959015,50.059266],[19.958979,50.05913],[19.958943,50.058963],[19.95892,50.058888],[19.958873,50.058741],[19.958834,50.058548],[19.958833,50.058544],[19.958703,50.058432],[19.958516,50.058207],[19.958444,50.058116],[19.958989,50.057615],[19.95895,50.057252],[19.958955,50.057172],[19.958995,50.056662],[19.959013,50.056441],[19.959054,50.056128],[19.959167,50.055662],[19.959222,50.055498],[19.959497,50.054865],[19.959704,50.054438],[19.959826,50.054252],[19.960227,50.053642],[19.960318,50.053502],[19.960356,50.053445],[19.96038,50.053409],[19.960404,50.053373],[19.960481,50.053267],[19.960513,50.053221],[19.96059,50.053115],[19.960917,50.052609]]]}},{"type":"Feature","properties":{"OBJECTID":13,"Podstrefa_":"A","Nr_sektora":13,"Uwagi":" ","Shape__Area":1001242.37109375,"Shape__Length":4497.185520154099},"geometry":{"type":"Polygon","coordinates":[[[19.934329,50.049628],[19.935316,50.049939],[19.936017,50.050148],[19.936334,50.050229],[19.936759,50.050322],[19.937064,50.050386],[19.9375,50.050453],[19.937667,50.050478],[19.938459,50.050586],[19.939572,50.050737],[19.939945,50.050789],[19.940116,50.050816],[19.940223,50.050837],[19.94032,50.050862],[19.940433,50.050898],[19.940553,50.050955],[19.94073,50.051066],[19.941441,50.051585],[19.941572,50.051681],[19.941666,50.051762],[19.941782,50.051887],[19.941953,50.052072],[19.942035,50.052165],[19.942389,50.052571],[19.942414,50.052601],[19.942704,50.052933],[19.943695,50.054238],[19.94442,50.05517],[19.944612,50.055415],[19.94518,50.056142],[19.945353,50.056365],[19.945417,50.05644],[19.945455,50.056487],[19.945577,50.056637],[19.945781,50.056905],[19.945884,50.057036],[19.945981,50.057157],[19.946134,50.057348],[19.946219,50.057451],[19.946665,50.057993],[19.946749,50.058087],[19.946827,50.058149],[19.946874,50.058187],[19.946972,50.058245],[19.947068,50.058295],[19.947174,50.058339],[19.947262,50.058368],[19.947386,50.058405],[19.947584,50.058449],[19.947832,50.058503],[19.947902,50.058519],[19.947973,50.058536],[19.947975,50.058491],[19.947978,50.058441],[19.947978,50.058402],[19.94798,50.058353],[19.947982,50.058296],[19.947985,50.058249],[19.94799,50.058163],[19.948,50.057929],[19.948006,50.057875],[19.948025,50.057733],[19.948037,50.05764],[19.948059,50.057452],[19.948063,50.057426],[19.948079,50.057337],[19.9481,50.057216],[19.94816,50.056981],[19.948167,50.056954],[19.9482,50.056843],[19.948248,50.056683],[19.948257,50.056652],[19.948277,50.056594],[19.948323,50.056456],[19.948327,50.056443],[19.948369,50.056303],[19.948407,50.056216],[19.948434,50.056152],[19.948453,50.056109],[19.948466,50.056078],[19.948637,50.055731],[19.948672,50.055665],[19.948678,50.055655],[19.948697,50.055619],[19.948751,50.05552],[19.948901,50.055263],[19.948953,50.055174],[19.948972,50.055144],[19.949105,50.054943],[19.949105,50.054942],[19.949134,50.054899],[19.949168,50.054853],[19.949236,50.054763],[19.949288,50.054694],[19.949332,50.054634],[19.949516,50.054404],[19.949574,50.054332],[19.949617,50.054281],[19.949744,50.054141],[19.949836,50.054038],[19.949902,50.053969],[19.949978,50.053892],[19.950109,50.05376],[19.950208,50.053663],[19.950347,50.053528],[19.950459,50.053417],[19.950478,50.053399],[19.950668,50.053225],[19.950777,50.053112],[19.950976,50.052926],[19.951144,50.05276],[19.95129,50.052634],[19.951418,50.052525],[19.951545,50.052424],[19.951771,50.052256],[19.95201,50.052081],[19.952222,50.051922],[19.952416,50.051783],[19.952633,50.051616],[19.952813,50.051493],[19.952991,50.051382],[19.953107,50.051309],[19.953658,50.0509],[19.953808,50.050792],[19.95383,50.050777],[19.953903,50.050725],[19.953987,50.050665],[19.954143,50.050554],[19.95419,50.050521],[19.954728,50.050128],[19.953183,50.049294],[19.950111,50.047683],[19.948239,50.046747],[19.947587,50.046478],[19.945711,50.045705],[19.945047,50.045431],[19.944515,50.045212],[19.943675,50.044975],[19.942761,50.044889],[19.941821,50.044878],[19.941252,50.044863],[19.940525,50.044893],[19.939652,50.04502],[19.938687,50.045332],[19.938132,50.045612],[19.937766,50.045828],[19.9375,50.046041],[19.93727,50.046225],[19.936442,50.04704],[19.935586,50.047949],[19.934463,50.049429],[19.934329,50.049628]]]}},{"type":"Feature","properties":{"OBJECTID":14,"Podstrefa_":"C","Nr_sektora":15,"Uwagi":" ","Shape__Area":2453143.05078125,"Shape__Length":6319.579171403858},"geometry":{"type":"Polygon","coordinates":[[[19.949877,50.069076],[19.949655,50.069039],[19.949345,50.069025],[19.949293,50.069024],[19.949259,50.069023],[19.947743,50.069024],[19.94774,50.069084],[19.947738,50.069149],[19.947735,50.069213],[19.947732,50.069301],[19.947713,50.06959],[19.947667,50.069859],[19.94758,50.070206],[19.94756,50.070262],[19.947308,50.070955],[19.947218,50.071161],[19.946939,50.071674],[19.946777,50.071955],[19.946488,50.072503],[19.946239,50.07295],[19.946229,50.072968],[19.945904,50.073577],[19.945698,50.073819],[19.945621,50.073913],[19.945828,50.074052],[19.945783,50.074142],[19.94545,50.074744],[19.945276,50.075068],[19.945167,50.075279],[19.944998,50.075663],[19.944934,50.07618],[19.945038,50.076787],[19.945224,50.077389],[19.945441,50.078041],[19.945627,50.078503],[19.945853,50.078906],[19.946204,50.079444],[19.946588,50.080016],[19.946869,50.080431],[19.947113,50.08085],[19.947159,50.080844],[19.949798,50.080519],[19.950498,50.080448],[19.950554,50.080442],[19.950602,50.080436],[19.95256,50.080189],[19.952936,50.080144],[19.953917,50.080027],[19.955435,50.079843],[19.956549,50.079707],[19.956682,50.079691],[19.956866,50.079669],[19.956916,50.079663],[19.957013,50.079652],[19.95717,50.079633],[19.957425,50.079603],[19.958227,50.079498],[19.958808,50.079407],[19.9591,50.079351],[19.959407,50.079289],[19.959733,50.079214],[19.960024,50.079139],[19.960482,50.079018],[19.960885,50.078902],[19.961699,50.078652],[19.962249,50.078489],[19.962998,50.078245],[19.96343,50.078101],[19.96388,50.077944],[19.965084,50.077478],[19.965777,50.077206],[19.966496,50.076915],[19.966972,50.076701],[19.967375,50.0765],[19.967785,50.07627],[19.967972,50.076154],[19.968079,50.076086],[19.968265,50.075961],[19.968407,50.075865],[19.968558,50.075764],[19.969241,50.075309],[19.969542,50.075108],[19.969844,50.074908],[19.970234,50.074643],[19.970493,50.074469],[19.970679,50.074345],[19.971351,50.073875],[19.971928,50.073413],[19.972384,50.073004],[19.972702,50.07269],[19.973334,50.071973],[19.973932,50.071211],[19.974432,50.070457],[19.974862,50.069715],[19.975203,50.06902],[19.975286,50.068824],[19.975368,50.068629],[19.975447,50.068413],[19.975735,50.067511],[19.975796,50.067276],[19.975803,50.067243],[19.975821,50.067166],[19.975838,50.06709],[19.975747,50.067058],[19.975512,50.066966],[19.975351,50.066916],[19.975245,50.066885],[19.975217,50.066878],[19.975145,50.066859],[19.975083,50.066845],[19.975046,50.066835],[19.975003,50.066826],[19.97497,50.066818],[19.974794,50.06678],[19.974704,50.066762],[19.974624,50.066748],[19.974511,50.066731],[19.974387,50.066715],[19.974144,50.066687],[19.973857,50.066663],[19.973562,50.066642],[19.973458,50.066635],[19.973245,50.066621],[19.972776,50.066606],[19.972025,50.066582],[19.971655,50.066571],[19.971219,50.066558],[19.970729,50.066544],[19.970142,50.066527],[19.970048,50.066524],[19.969734,50.066523],[19.96897,50.06652],[19.968612,50.066519],[19.968207,50.066522],[19.966539,50.066553],[19.965502,50.066573],[19.965356,50.066574],[19.965298,50.066574],[19.965196,50.066573],[19.964997,50.066564],[19.9648,50.066551],[19.964677,50.066539],[19.964437,50.066513],[19.96406,50.066458],[19.963191,50.066331],[19.962981,50.0663],[19.962819,50.066277],[19.962479,50.066227],[19.961179,50.066121],[19.960844,50.066086],[19.959401,50.066045],[19.959156,50.066812],[19.958125,50.067043],[19.957197,50.06724],[19.955645,50.067536],[19.953459,50.067941],[19.952358,50.068149],[19.951556,50.068306],[19.950765,50.068567],[19.950551,50.068646],[19.950394,50.068717],[19.95017,50.068851],[19.950023,50.068963],[19.949877,50.069076]]]}},{"type":"Feature","properties":{"OBJECTID":15,"Podstrefa_":"C","Nr_sektora":16,"Uwagi":" ","Shape__Area":1596460.80859375,"Shape__Length":5118.444392112078},"geometry":{"type":"Polygon","coordinates":[[[19.959401,50.066045],[19.960844,50.066086],[19.961179,50.066121],[19.962479,50.066227],[19.962819,50.066277],[19.962981,50.0663],[19.963191,50.066331],[19.96406,50.066458],[19.964437,50.066513],[19.964677,50.066539],[19.9648,50.066551],[19.964997,50.066564],[19.965196,50.066573],[19.965298,50.066574],[19.965356,50.066574],[19.965502,50.066573],[19.966539,50.066553],[19.968207,50.066522],[19.968612,50.066519],[19.96897,50.06652],[19.969734,50.066523],[19.970048,50.066524],[19.970142,50.066527],[19.970729,50.066544],[19.971219,50.066558],[19.971655,50.066571],[19.972025,50.066582],[19.972776,50.066606],[19.973245,50.066621],[19.973458,50.066635],[19.973562,50.066642],[19.973857,50.066663],[19.974144,50.066687],[19.974387,50.066715],[19.974511,50.066731],[19.974624,50.066748],[19.974704,50.066762],[19.974794,50.06678],[19.97497,50.066818],[19.975003,50.066826],[19.975046,50.066835],[19.975083,50.066845],[19.975145,50.066859],[19.975217,50.066878],[19.975245,50.066885],[19.975351,50.066916],[19.975512,50.066966],[19.975747,50.067058],[19.975838,50.06709],[19.975857,50.067008],[19.97587,50.066951],[19.975883,50.066894],[19.975956,50.066547],[19.975967,50.066485],[19.975979,50.066424],[19.975987,50.06638],[19.975999,50.066314],[19.976054,50.066012],[19.9761,50.065547],[19.976113,50.065286],[19.976107,50.064699],[19.976104,50.064335],[19.976034,50.06371],[19.976019,50.06358],[19.975958,50.063047],[19.975814,50.062468],[19.975714,50.0621],[19.975579,50.061737],[19.975465,50.061475],[19.975397,50.061319],[19.974953,50.06038],[19.974651,50.059728],[19.974619,50.059664],[19.974567,50.059556],[19.974517,50.05945],[19.974472,50.059359],[19.974386,50.059183],[19.974271,50.059003],[19.974231,50.058941],[19.973317,50.057702],[19.972845,50.057031],[19.972467,50.056521],[19.972341,50.05635],[19.972298,50.056285],[19.972253,50.056217],[19.971459,50.055121],[19.971421,50.055065],[19.97134,50.054958],[19.970693,50.054084],[19.970408,50.0537],[19.970365,50.053643],[19.970313,50.053573],[19.969928,50.053052],[19.969804,50.052884],[19.969469,50.052425],[19.967891,50.052729],[19.966398,50.052905],[19.964924,50.052954],[19.96356,50.052923],[19.962227,50.052835],[19.961045,50.052635],[19.960917,50.052609],[19.96059,50.053115],[19.960513,50.053221],[19.960481,50.053267],[19.960404,50.053373],[19.96038,50.053409],[19.960356,50.053445],[19.960318,50.053502],[19.960227,50.053642],[19.959826,50.054252],[19.959704,50.054438],[19.959497,50.054865],[19.959222,50.055498],[19.959167,50.055662],[19.959054,50.056128],[19.959013,50.056441],[19.958995,50.056662],[19.958955,50.057172],[19.95895,50.057252],[19.958989,50.057615],[19.958444,50.058116],[19.958516,50.058207],[19.958703,50.058432],[19.958833,50.058544],[19.958834,50.058548],[19.958873,50.058741],[19.95892,50.058888],[19.958943,50.058963],[19.958979,50.05913],[19.959015,50.059266],[19.959021,50.059289],[19.95903,50.059321],[19.959065,50.059438],[19.959094,50.059526],[19.959195,50.059824],[19.9593,50.060121],[19.959324,50.060191],[19.959377,50.060343],[19.959405,50.060425],[19.959422,50.060472],[19.959435,50.060511],[19.959582,50.061078],[19.959743,50.061547],[19.959788,50.061677],[19.959798,50.061709],[19.959804,50.061741],[19.95981,50.061773],[19.959811,50.061803],[19.959811,50.061834],[19.959812,50.061865],[19.95981,50.061897],[19.959808,50.061929],[19.959802,50.06196],[19.959795,50.061991],[19.959776,50.062053],[19.959761,50.062111],[19.95971,50.062296],[19.959675,50.062418],[19.959639,50.062544],[19.959621,50.062607],[19.959577,50.06276],[19.959551,50.062846],[19.959522,50.062945],[19.959406,50.063351],[19.959284,50.063784],[19.959242,50.063929],[19.959221,50.064001],[19.959199,50.064062],[19.959172,50.064122],[19.958984,50.064558],[19.958971,50.064588],[19.958759,50.064889],[19.958652,50.065043],[19.958539,50.065114],[19.959277,50.065911],[19.959401,50.066045]]]}},{"type":"Feature","properties":{"OBJECTID":16,"Podstrefa_":"C","Nr_sektora":19,"Uwagi":" ","Shape__Area":864610.62109375,"Shape__Length":4073.440144092129},"geometry":{"type":"Polygon","coordinates":[[[19.954728,50.050128],[19.95609,50.050821],[19.956507,50.051033],[19.956923,50.051244],[19.958077,50.051758],[19.959614,50.052253],[19.960808,50.052579],[19.960917,50.052609],[19.961045,50.052635],[19.962227,50.052835],[19.96356,50.052923],[19.964924,50.052954],[19.966398,50.052905],[19.967891,50.052729],[19.969469,50.052425],[19.969098,50.051926],[19.968632,50.051279],[19.968236,50.050735],[19.968143,50.050606],[19.968052,50.050482],[19.967805,50.050142],[19.967368,50.049535],[19.967284,50.049419],[19.967238,50.049355],[19.967434,50.049279],[19.967809,50.049148],[19.968181,50.048961],[19.968297,50.048886],[19.968456,50.048776],[19.968506,50.048699],[19.968591,50.048642],[19.96905,50.048334],[19.969115,50.04829],[19.969507,50.048028],[19.969518,50.048021],[19.969635,50.047942],[19.969905,50.047762],[19.970214,50.047556],[19.970307,50.047493],[19.970493,50.047392],[19.970534,50.047362],[19.970547,50.047353],[19.97064,50.047287],[19.970701,50.047243],[19.970797,50.047172],[19.970921,50.04708],[19.97105,50.046996],[19.971201,50.046904],[19.972119,50.046394],[19.972125,50.046397],[19.972164,50.046375],[19.972187,50.046362],[19.972255,50.046324],[19.972302,50.046298],[19.972327,50.046284],[19.972336,50.046279],[19.97234,50.046277],[19.972404,50.046239],[19.972493,50.046184],[19.972625,50.0461],[19.972966,50.04588],[19.973208,50.045724],[19.973274,50.045682],[19.973324,50.04565],[19.973366,50.045623],[19.973988,50.044998],[19.973968,50.044967],[19.973022,50.044643],[19.971015,50.044048],[19.970019,50.04384],[19.969882,50.043791],[19.969107,50.043557],[19.969063,50.043547],[19.968192,50.043262],[19.96786,50.043147],[19.967679,50.043097],[19.967538,50.043058],[19.967301,50.042991],[19.967158,50.042952],[19.966931,50.042889],[19.966809,50.042853],[19.966664,50.04281],[19.966473,50.042749],[19.966226,50.042659],[19.965972,50.042505],[19.965441,50.042219],[19.965379,50.042263],[19.965298,50.042324],[19.965215,50.042386],[19.964845,50.042676],[19.964772,50.042727],[19.964694,50.042782],[19.963933,50.043306],[19.963378,50.0437],[19.962441,50.044401],[19.962322,50.044489],[19.96208,50.04467],[19.961946,50.04477],[19.961887,50.044813],[19.961823,50.044861],[19.959191,50.046832],[19.959033,50.04695],[19.958848,50.047085],[19.958689,50.047201],[19.958626,50.047248],[19.958561,50.047297],[19.958335,50.047466],[19.957256,50.04825],[19.956384,50.048893],[19.955895,50.049254],[19.955586,50.049494],[19.955464,50.049589],[19.955401,50.049635],[19.95529,50.049718],[19.955228,50.049764],[19.954728,50.050128]]]}},{"type":"Feature","properties":{"OBJECTID":17,"Podstrefa_":"A","Nr_sektora":20,"Uwagi":" ","Shape__Area":1748775.46875,"Shape__Length":5837.374407178214},"geometry":{"type":"MultiPolygon","coordinates":[[[[19.935946,50.041248],[19.935923,50.041238],[19.935945,50.041249],[19.935946,50.041248]]],[[[19.935946,50.041248],[19.935964,50.041256],[19.935984,50.041264],[19.936221,50.041379],[19.936431,50.041477],[19.93675,50.041642],[19.937083,50.041843],[19.937472,50.042058],[19.9375,50.042077],[19.93776,50.04226],[19.938159,50.042523],[19.938544,50.042739],[19.938676,50.042803],[19.938994,50.042958],[19.939449,50.043205],[19.93958,50.043277],[19.939933,50.04347],[19.940309,50.043685],[19.940624,50.043855],[19.9407,50.043896],[19.940775,50.043939],[19.940982,50.044071],[19.941159,50.044178],[19.941308,50.044289],[19.941821,50.044878],[19.942761,50.044889],[19.943675,50.044975],[19.944515,50.045212],[19.945047,50.045431],[19.945711,50.045705],[19.947587,50.046478],[19.948239,50.046747],[19.950111,50.047683],[19.953183,50.049294],[19.954728,50.050128],[19.955228,50.049764],[19.95529,50.049718],[19.955401,50.049635],[19.955464,50.049589],[19.955586,50.049494],[19.955895,50.049254],[19.956384,50.048893],[19.957256,50.04825],[19.958335,50.047466],[19.958561,50.047297],[19.958626,50.047248],[19.958689,50.047201],[19.958848,50.047085],[19.959033,50.04695],[19.959191,50.046832],[19.961823,50.044861],[19.961887,50.044813],[19.961946,50.04477],[19.96208,50.04467],[19.962322,50.044489],[19.962441,50.044401],[19.963378,50.0437],[19.963933,50.043306],[19.964694,50.042782],[19.964772,50.042727],[19.964845,50.042676],[19.965215,50.042386],[19.965298,50.042324],[19.965379,50.042263],[19.965441,50.042219],[19.965221,50.0421],[19.96463,50.041791],[19.9639,50.04163],[19.963153,50.041616],[19.962465,50.041698],[19.961738,50.041624],[19.961423,50.041594],[19.960884,50.041528],[19.960485,50.041471],[19.959134,50.04118],[19.959003,50.041162],[19.958866,50.04114],[19.95852,50.041083],[19.957903,50.040988],[19.957803,50.040973],[19.957504,50.040927],[19.957237,50.04087],[19.957092,50.040839],[19.957018,50.040823],[19.956626,50.040739],[19.95616,50.040611],[19.955723,50.04047],[19.955716,50.040468],[19.9553,50.040316],[19.954866,50.040132],[19.954594,50.039999],[19.954523,50.039964],[19.954311,50.039848],[19.954258,50.039818],[19.95423,50.039803],[19.954195,50.039784],[19.953858,50.039577],[19.953721,50.039488],[19.953524,50.039361],[19.953182,50.039121],[19.953046,50.039019],[19.952731,50.038782],[19.952697,50.038756],[19.952534,50.038634],[19.952458,50.038576],[19.952272,50.038437],[19.951733,50.038032],[19.951679,50.037992],[19.951475,50.037838],[19.951335,50.037732],[19.94954,50.036377],[19.949432,50.036289],[19.949266,50.036152],[19.948962,50.035902],[19.948459,50.035484],[19.948326,50.035412],[19.948186,50.035335],[19.947758,50.0349],[19.947702,50.034832],[19.94765,50.034772],[19.94748,50.034536],[19.947403,50.03445],[19.947155,50.034128],[19.946967,50.033922],[19.946932,50.033882],[19.946954,50.033848],[19.946716,50.033582],[19.946658,50.03355],[19.946591,50.033471],[19.946537,50.03342],[19.946527,50.033409],[19.946481,50.033361],[19.946397,50.033426],[19.945714,50.033954],[19.945392,50.034186],[19.945126,50.034328],[19.944751,50.034532],[19.943971,50.034893],[19.942974,50.035338],[19.941058,50.036173],[19.940673,50.036359],[19.940413,50.03652],[19.940287,50.036777],[19.940217,50.036891],[19.94005,50.037056],[19.939875,50.0372],[19.939608,50.037417],[19.939247,50.037707],[19.939049,50.037867],[19.938798,50.038059],[19.938669,50.038155],[19.938483,50.038332],[19.938242,50.038488],[19.937959,50.038722],[19.937694,50.038952],[19.937595,50.039087],[19.937352,50.039369],[19.937081,50.039718],[19.936856,50.04002],[19.936516,50.04048],[19.936226,50.040873],[19.936067,50.041085],[19.935946,50.041248]]]]}},{"type":"Feature","properties":{"OBJECTID":18,"Podstrefa_":"C","Nr_sektora":21,"Uwagi":" ","Shape__Area":828357.01171875,"Shape__Length":3946.8057920388023},"geometry":{"type":"Polygon","coordinates":[[[19.940587,50.036173],[19.940314,50.035916],[19.939828,50.035369],[19.939382,50.034567],[19.939125,50.034075],[19.938894,50.033634],[19.938763,50.033387],[19.938695,50.033253],[19.938143,50.032189],[19.937638,50.031226],[19.936571,50.029127],[19.93649,50.028981],[19.93613,50.029086],[19.935838,50.029199],[19.935623,50.029287],[19.935011,50.029542],[19.93462,50.029677],[19.933516,50.030072],[19.933019,50.03021],[19.932452,50.030298],[19.928002,50.030264],[19.926037,50.030275],[19.925577,50.030302],[19.925678,50.030913],[19.925686,50.031224],[19.925681,50.032491],[19.925507,50.033612],[19.92542,50.034357],[19.925332,50.034791],[19.925508,50.034881],[19.926054,50.035187],[19.926744,50.035571],[19.926782,50.035591],[19.926984,50.035697],[19.927378,50.035919],[19.927861,50.036164],[19.928112,50.036264],[19.928115,50.036265],[19.928213,50.036303],[19.928462,50.036354],[19.928485,50.036357],[19.92864,50.036376],[19.928715,50.036377],[19.928872,50.036378],[19.928909,50.036378],[19.928943,50.036378],[19.928958,50.036375],[19.929104,50.036354],[19.929118,50.036353],[19.929297,50.036278],[19.929358,50.03631],[19.929634,50.036461],[19.930114,50.036714],[19.93047,50.036911],[19.930859,50.037123],[19.931161,50.037273],[19.93138,50.037394],[19.9316,50.037525],[19.93197,50.037719],[19.932411,50.037964],[19.932824,50.038205],[19.933218,50.038426],[19.933672,50.038686],[19.93406,50.038912],[19.934215,50.038997],[19.934393,50.039098],[19.934596,50.039229],[19.934817,50.03938],[19.934989,50.03952],[19.935154,50.039693],[19.935258,50.039824],[19.935369,50.040018],[19.935398,50.040101],[19.935426,50.040208],[19.935455,50.040327],[19.93548,50.040572],[19.935511,50.040758],[19.935559,50.040935],[19.935597,50.041035],[19.935631,50.041081],[19.935668,50.041115],[19.935785,50.041179],[19.935799,50.041185],[19.935945,50.041249],[19.936067,50.041085],[19.936226,50.040873],[19.936516,50.04048],[19.936856,50.04002],[19.937081,50.039718],[19.937352,50.039369],[19.937595,50.039087],[19.937694,50.038952],[19.937959,50.038722],[19.938242,50.038488],[19.938483,50.038332],[19.938669,50.038155],[19.938798,50.038059],[19.939049,50.037867],[19.939247,50.037707],[19.939608,50.037417],[19.939875,50.0372],[19.94005,50.037056],[19.940217,50.036891],[19.940287,50.036777],[19.940413,50.03652],[19.940673,50.036359],[19.940587,50.036173]]]}},{"type":"Feature","properties":{"OBJECTID":19,"Podstrefa_":"C","Nr_sektora":22,"Uwagi":" ","Shape__Area":1178532.44140625,"Shape__Length":4802.507641391137},"geometry":{"type":"Polygon","coordinates":[[[19.934329,50.049628],[19.934463,50.049429],[19.935586,50.047949],[19.936442,50.04704],[19.93727,50.046225],[19.9375,50.046041],[19.937766,50.045828],[19.938132,50.045612],[19.938687,50.045332],[19.939652,50.04502],[19.940525,50.044893],[19.941252,50.044863],[19.941821,50.044878],[19.941308,50.044289],[19.941159,50.044178],[19.940982,50.044071],[19.940775,50.043939],[19.9407,50.043896],[19.940624,50.043855],[19.940309,50.043685],[19.939933,50.04347],[19.93958,50.043277],[19.939449,50.043205],[19.938994,50.042958],[19.938676,50.042803],[19.938544,50.042739],[19.938159,50.042523],[19.93776,50.04226],[19.9375,50.042077],[19.937472,50.042058],[19.937083,50.041843],[19.93675,50.041642],[19.936431,50.041477],[19.936221,50.041379],[19.935984,50.041264],[19.935945,50.041249],[19.9359,50.041228],[19.935785,50.041179],[19.935668,50.041115],[19.935631,50.041081],[19.935597,50.041035],[19.935559,50.040935],[19.935511,50.040758],[19.93548,50.040572],[19.935455,50.040327],[19.935426,50.040208],[19.935398,50.040101],[19.935369,50.040018],[19.935258,50.039824],[19.935154,50.039693],[19.934989,50.03952],[19.934817,50.03938],[19.934596,50.039229],[19.934393,50.039098],[19.934215,50.038997],[19.93406,50.038912],[19.933672,50.038686],[19.933218,50.038426],[19.932824,50.038205],[19.932411,50.037964],[19.93197,50.037719],[19.9316,50.037525],[19.93138,50.037394],[19.931161,50.037273],[19.930859,50.037123],[19.93047,50.036911],[19.930114,50.036714],[19.929634,50.036461],[19.929358,50.03631],[19.929297,50.036278],[19.929118,50.036353],[19.929104,50.036354],[19.928958,50.036375],[19.928943,50.036378],[19.928909,50.036378],[19.928872,50.036378],[19.928715,50.036377],[19.92864,50.036376],[19.928485,50.036357],[19.928462,50.036354],[19.928213,50.036303],[19.928115,50.036265],[19.928112,50.036264],[19.927861,50.036164],[19.927378,50.035919],[19.926984,50.035697],[19.926782,50.035591],[19.926744,50.035571],[19.926054,50.035187],[19.925508,50.034881],[19.925332,50.034791],[19.925349,50.034877],[19.925357,50.03542],[19.925358,50.03554],[19.925367,50.036191],[19.925439,50.036788],[19.925426,50.037262],[19.925427,50.037499],[19.925428,50.037585],[19.925429,50.037722],[19.925429,50.037747],[19.925429,50.037748],[19.925425,50.038213],[19.925412,50.038366],[19.925403,50.038411],[19.925382,50.038518],[19.925347,50.038628],[19.925343,50.038643],[19.925269,50.038828],[19.925188,50.038967],[19.92514,50.039046],[19.925068,50.039161],[19.924984,50.039295],[19.92498,50.039301],[19.924758,50.039662],[19.924696,50.039763],[19.924633,50.039866],[19.924618,50.039891],[19.924543,50.040013],[19.924489,50.0401],[19.92436,50.040311],[19.92428,50.04045],[19.924193,50.040598],[19.923971,50.040961],[19.923948,50.040999],[19.923933,50.041024],[19.923726,50.041364],[19.923463,50.041796],[19.923391,50.041916],[19.923323,50.042027],[19.923225,50.042191],[19.923135,50.042339],[19.922965,50.04262],[19.922757,50.042964],[19.922711,50.043039],[19.922462,50.043445],[19.922441,50.043473],[19.92237,50.043602],[19.922252,50.043796],[19.922155,50.043948],[19.92216,50.043951],[19.922123,50.044012],[19.922027,50.044173],[19.92189,50.044385],[19.921751,50.044602],[19.921603,50.044782],[19.921259,50.045201],[19.921124,50.045438],[19.92139,50.045496],[19.921463,50.045516],[19.922477,50.045803],[19.924644,50.04648],[19.925746,50.046836],[19.92745,50.047398],[19.928047,50.047596],[19.929027,50.047921],[19.929177,50.047971],[19.929939,50.048225],[19.930168,50.048301],[19.931346,50.04869],[19.931653,50.048792],[19.931796,50.048835],[19.932272,50.048982],[19.932374,50.049014],[19.932475,50.049045],[19.932594,50.049081],[19.933382,50.049331],[19.934329,50.049628]]]}},{"type":"Feature","properties":{"OBJECTID":20,"Podstrefa_":"B","Nr_sektora":30,"Uwagi":" ","Shape__Area":604008.421875,"Shape__Length":3253.7983838371315},"geometry":{"type":"Polygon","coordinates":[[[19.918417,50.067429],[19.91856,50.067393],[19.918728,50.06735],[19.918756,50.067343],[19.918817,50.067327],[19.918866,50.067315],[19.918655,50.066963],[19.918806,50.06693],[19.919022,50.067275],[19.919039,50.067272],[19.919195,50.067232],[19.91935,50.067195],[19.919495,50.067156],[19.919661,50.067112],[19.919949,50.067038],[19.91998,50.06703],[19.920253,50.066962],[19.920315,50.066946],[19.92052,50.066892],[19.920553,50.066882],[19.920573,50.066877],[19.920686,50.066846],[19.920702,50.066842],[19.920708,50.06684],[19.920911,50.066788],[19.921113,50.066732],[19.921133,50.066727],[19.921519,50.066622],[19.921625,50.066594],[19.921659,50.066585],[19.921792,50.066548],[19.921932,50.066512],[19.922223,50.066434],[19.922411,50.066377],[19.922429,50.066369],[19.922504,50.066349],[19.923162,50.066148],[19.923248,50.066119],[19.923397,50.066067],[19.923651,50.065978],[19.923773,50.065935],[19.923824,50.065914],[19.923864,50.065897],[19.923897,50.06588],[19.923925,50.065864],[19.923948,50.065849],[19.923972,50.065831],[19.923983,50.065823],[19.924524,50.065716],[19.924496,50.065638],[19.923877,50.063953],[19.923795,50.06374],[19.923525,50.063065],[19.923482,50.062849],[19.923462,50.062671],[19.92346,50.062528],[19.923479,50.062372],[19.923528,50.062206],[19.923577,50.062089],[19.923707,50.061818],[19.924014,50.06123],[19.924052,50.061157],[19.924089,50.061086],[19.924391,50.060501],[19.924734,50.059888],[19.924856,50.059684],[19.924949,50.059529],[19.924586,50.059459],[19.924198,50.059401],[19.923118,50.059223],[19.912211,50.060896],[19.912346,50.061238],[19.914058,50.065573],[19.914209,50.065855],[19.914183,50.066057],[19.914157,50.06626],[19.914222,50.066508],[19.914281,50.066926],[19.914461,50.067335],[19.914546,50.067524],[19.915056,50.067441],[19.915163,50.067448],[19.915374,50.067457],[19.915696,50.067471],[19.915918,50.067479],[19.916031,50.067484],[19.916309,50.067498],[19.916431,50.067504],[19.916716,50.067519],[19.916776,50.067519],[19.916828,50.067521],[19.916911,50.067525],[19.917393,50.067545],[19.917453,50.067548],[19.917557,50.067551],[19.917699,50.067548],[19.917757,50.067546],[19.917804,50.067543],[19.918017,50.067517],[19.918124,50.067503],[19.918181,50.06749],[19.91833,50.067451],[19.918417,50.067429]]]}},{"type":"Feature","properties":{"OBJECTID":21,"Podstrefa_":"C","Nr_sektora":23,"Uwagi":" ","Shape__Area":425635.5703125,"Shape__Length":2578.766939431115},"geometry":{"type":"Polygon","coordinates":[[[19.941058,50.036173],[19.942974,50.035338],[19.943971,50.034893],[19.944751,50.034532],[19.945392,50.034186],[19.945714,50.033954],[19.946481,50.033361],[19.946294,50.03316],[19.945816,50.032025],[19.945791,50.031666],[19.945796,50.03165],[19.945815,50.031589],[19.945841,50.031504],[19.94585,50.031475],[19.945895,50.031338],[19.945926,50.031273],[19.946008,50.031105],[19.946103,50.030912],[19.946245,50.030558],[19.946133,50.030105],[19.94597,50.029821],[19.945807,50.029626],[19.945723,50.029533],[19.945642,50.029458],[19.944894,50.028919],[19.943864,50.028551],[19.943479,50.028465],[19.943048,50.028367],[19.942948,50.028346],[19.94271,50.028298],[19.942545,50.028271],[19.942442,50.028257],[19.942344,50.028246],[19.942255,50.028237],[19.942184,50.028232],[19.942077,50.028226],[19.941924,50.028223],[19.941161,50.028196],[19.940638,50.028233],[19.940312,50.028285],[19.940138,50.028312],[19.939753,50.028373],[19.939708,50.02838],[19.939073,50.028477],[19.938985,50.028491],[19.938804,50.028527],[19.938156,50.028655],[19.937866,50.028699],[19.937816,50.028709],[19.93774,50.028724],[19.937262,50.028817],[19.936892,50.028889],[19.936838,50.028896],[19.93668,50.028926],[19.93649,50.028981],[19.936571,50.029127],[19.937638,50.031226],[19.938143,50.032189],[19.938695,50.033253],[19.938763,50.033387],[19.938894,50.033634],[19.939125,50.034075],[19.939382,50.034567],[19.939828,50.035369],[19.940314,50.035916],[19.940587,50.036173],[19.940673,50.036359],[19.941058,50.036173]]]}},{"type":"Feature","properties":{"OBJECTID":22,"Podstrefa_":"C","Nr_sektora":24,"Uwagi":" ","Shape__Area":99692.109375,"Shape__Length":2007.2070406770974},"geometry":{"type":"Polygon","coordinates":[[[19.958716,50.040377],[19.958144,50.040396],[19.957999,50.040403],[19.957792,50.040389],[19.95754,50.040389],[19.957365,50.040433],[19.957132,50.040847],[19.957298,50.040883],[19.957504,50.040927],[19.957803,50.040973],[19.957903,50.040988],[19.95852,50.041083],[19.958866,50.04114],[19.959003,50.041162],[19.959134,50.04118],[19.959582,50.041277],[19.959609,50.041282],[19.959887,50.041342],[19.95991,50.041347],[19.959976,50.041361],[19.960047,50.041377],[19.960485,50.041471],[19.960884,50.041528],[19.961146,50.04156],[19.961407,50.041592],[19.961407,50.041591],[19.961423,50.041594],[19.961513,50.041602],[19.961519,50.041603],[19.96158,50.041609],[19.961861,50.041636],[19.962098,50.041348],[19.962539,50.040913],[19.962677,50.040784],[19.962764,50.040701],[19.962797,50.040668],[19.963078,50.040396],[19.963234,50.040243],[19.963304,50.040182],[19.963482,50.039995],[19.96381,50.039685],[19.96407,50.039441],[19.964154,50.039364],[19.964236,50.039291],[19.965771,50.037705],[19.96542,50.037546],[19.964443,50.038535],[19.964367,50.038503],[19.964148,50.038413],[19.964014,50.03835],[19.963657,50.038164],[19.963514,50.038088],[19.963331,50.037989],[19.963171,50.038105],[19.963364,50.038206],[19.962952,50.038498],[19.962781,50.038619],[19.962558,50.038778],[19.962133,50.038523],[19.962071,50.038561],[19.961818,50.038715],[19.961682,50.038639],[19.960936,50.0392],[19.960899,50.03923],[19.960812,50.039308],[19.960693,50.039384],[19.960539,50.039456],[19.960328,50.039542],[19.960146,50.039616],[19.959999,50.039678],[19.959961,50.039684],[19.959678,50.039798],[19.959531,50.039867],[19.958628,50.039535],[19.958229,50.039391],[19.958134,50.039353],[19.958024,50.039421],[19.958522,50.039594],[19.95856,50.039608],[19.958787,50.039687],[19.959428,50.039939],[19.959129,50.040092],[19.958907,50.040189],[19.958816,50.040249],[19.958716,50.040377]]]}},{"type":"Feature","properties":{"OBJECTID":24,"Podstrefa_":"C","Nr_sektora":31,"Uwagi":" ","Shape__Area":723439.296875,"Shape__Length":6817.946202940856},"geometry":{"type":"Polygon","coordinates":[[[19.914058,50.065573],[19.912211,50.060896],[19.923118,50.059223],[19.923109,50.059222],[19.922893,50.05919],[19.922513,50.059136],[19.922224,50.059094],[19.921816,50.059036],[19.921446,50.058982],[19.92112,50.058936],[19.920736,50.058882],[19.920198,50.058802],[19.919858,50.058754],[19.919346,50.058681],[19.919101,50.058646],[19.918754,50.058596],[19.918298,50.058532],[19.918024,50.058493],[19.917591,50.05844],[19.916816,50.058319],[19.916182,50.058225],[19.915813,50.058176],[19.915426,50.058119],[19.91502,50.058062],[19.914622,50.058004],[19.91424,50.057948],[19.913861,50.057896],[19.913481,50.057843],[19.913099,50.057786],[19.912702,50.05773],[19.912336,50.057679],[19.911958,50.057623],[19.91154,50.057564],[19.911159,50.057509],[19.910746,50.05745],[19.910336,50.057394],[19.909924,50.057333],[19.909517,50.057274],[19.909094,50.057212],[19.908691,50.057155],[19.908318,50.057106],[19.907871,50.057043],[19.907759,50.057026],[19.90759,50.057008],[19.907415,50.056993],[19.907361,50.056989],[19.907268,50.056984],[19.907147,50.056977],[19.907022,50.056973],[19.906669,50.056922],[19.906648,50.056936],[19.906419,50.05708],[19.906114,50.057265],[19.905869,50.057421],[19.905305,50.057761],[19.904804,50.058074],[19.904496,50.058265],[19.904082,50.05852],[19.90362,50.058785],[19.903342,50.058942],[19.902848,50.059181],[19.902126,50.059478],[19.901643,50.059674],[19.900744,50.060007],[19.900403,50.060143],[19.901476,50.061497],[19.902174,50.062448],[19.911927,50.060942],[19.913808,50.065702],[19.913215,50.065839],[19.903148,50.067342],[19.90317,50.067585],[19.903195,50.067895],[19.903212,50.067998],[19.90323,50.068102],[19.903294,50.068297],[19.903359,50.068492],[19.903425,50.068672],[19.903473,50.068799],[19.903573,50.06906],[19.9037,50.069357],[19.90396,50.070059],[19.904118,50.070018],[19.904547,50.069953],[19.904804,50.069916],[19.905223,50.069866],[19.905776,50.069795],[19.908815,50.069342],[19.909838,50.069192],[19.910682,50.069064],[19.910895,50.069027],[19.911268,50.068926],[19.911458,50.068863],[19.912576,50.068399],[19.913665,50.067964],[19.914054,50.067794],[19.914187,50.06774],[19.914392,50.067662],[19.914589,50.06762],[19.914461,50.067335],[19.914281,50.066926],[19.914222,50.066508],[19.914157,50.06626],[19.914183,50.066057],[19.914209,50.065855],[19.914058,50.065573]]]}}]}
